{
"type": "FeatureCollection",
"name": "phnompenh_communes",
"crs": { "type": "name", "properties": { "name": "urn:ogc:def:crs:EPSG::32648" } },
"features": [
{ "type": "Feature", "properties": { "commune_id": "C0000", "informal_rate": 0.177, "total_bldg": 503, "informal_bldg": 88 }, "geometry": { "type": "Polygon", "coordinates": [ [ [ 0.0, 0.0 ], [ 1.0, 0.0 ], [ 1.0, 1.0 ], [ 0.0, 1.0 ], [ 0.0, 0.0 ] ] ] } },
{ "type": "Feature", "properties": { "commune_id": "C0001", "informal_rate": 0.154, "total_bldg": 453, "informal_bldg": 69 }, "geometry": { "type": "Polygon", "coordinates": [ [ [ 1.0, 0.0 ], [ 2.0, 0.0 ], [ 2.0, 1.0 ], [ 1.0, 1.0 ], [ 1.0, 0.0 ] ] ] } },
{ "type": "Feature", "properties": { "commune_id": "C0002", "informal_rate": 0.223, "total_bldg": 851, "informal_bldg": 189 }, "geometry": { "type": "Polygon", "coordinates": [ [ [ 2.0, 0.0 ], [ 3.0, 0.0 ], [ 3.0, 1.0 ], [ 2.0, 1.0 ], [ 2.0, 0.0 ] ] ] } },
{ "type": "Feature", "properties": { "commune_id": "C0003", "informal_rate": 0.335, "total_bldg": 652, "informal_bldg": 218 }, "geometry": { "type": "Polygon", "coordinates": [ [ [ 3.0, 0.0 ], [ 4.0, 0.0 ], [ 4.0, 1.0 ], [ 3.0, 1.0 ], [ 3.0, 0.0 ] ] ] } },
{ "type": "Feature", "properties": { "commune_id": "C0004", "informal_rate": 0.351, "total_bldg": 236, "informal_bldg": 82 }, "geometry": { "type": "Polygon", "coordinates": [ [ [ 4.0, 0.0 ], [ 5.0, 0.0 ], [ 5.0, 1.0 ], [ 4.0, 1.0 ], [ 4.0, 0.0 ] ] ] } },
{ "type": "Feature", "properties": { "commune_id": "C0005", "informal_rate": 0.435, "total_bldg": 359, "informal_bldg": 156 }, "geometry": { "type": "Polygon", "coordinates": [ [ [ 5.0, 0.0 ], [ 6.0, 0.0 ], [ 6.0, 1.0 ], [ 5.0, 1.0 ], [ 5.0, 0.0 ] ] ] } },
{ "type": "Feature", "properties": { "commune_id": "C0006", "informal_rate": 0.526, "total_bldg": 208, "informal_bldg": 109 }, "geometry": { "type": "Polygon", "coordinates": [ [ [ 6.0, 0.0 ], [ 7.0, 0.0 ], [ 7.0, 1.0 ], [ 6.0, 1.0 ], [ 6.0, 0.0 ] ] ] } },
{ "type": "Feature", "properties": { "commune_id": "C0007", "informal_rate": 0.401, "total_bldg": 432, "informal_bldg": 173 }, "geometry": { "type": "Polygon", "coordinates": [ [ [ 7.0, 0.0 ], [ 8.0, 0.0 ], [ 8.0, 1.0 ], [ 7.0, 1.0 ], [ 7.0, 0.0 ] ] ] } },
{ "type": "Feature", "properties": { "commune_id": "C0008", "informal_rate": 0.236, "total_bldg": 298, "informal_bldg": 70 }, "geometry": { "type": "Polygon", "coordinates": [ [ [ 8.0, 0.0 ], [ 9.0, 0.0 ], [ 9.0, 1.0 ], [ 8.0, 1.0 ], [ 8.0, 0.0 ] ] ] } },
{ "type": "Feature", "properties": { "commune_id": "C0009", "informal_rate": 0.217, "total_bldg": 858, "informal_bldg": 186 }, "geometry": { "type": "Polygon", "coordinates": [ [ [ 9.0, 0.0 ], [ 10.0, 0.0 ], [ 10.0, 1.0 ], [ 9.0, 1.0 ], [ 9.0, 0.0 ] ] ] } },
{ "type": "Feature", "properties": { "commune_id": "C0010", "informal_rate": 0.137, "total_bldg": 1015, "informal_bldg": 139 }, "geometry": { "type": "Polygon", "coordinates": [ [ [ 10.0, 0.0 ], [ 11.0, 0.0 ], [ 11.0, 1.0 ], [ 10.0, 1.0 ], [ 10.0, 0.0 ] ] ] } },
{ "type": "Feature", "properties": { "commune_id": "C0011", "informal_rate": 0.129, "total_bldg": 407, "informal_bldg": 52 }, "geometry": { "type": "Polygon", "coordinates": [ [ [ 11.0, 0.0 ], [ 12.0, 0.0 ], [ 12.0, 1.0 ], [ 11.0, 1.0 ], [ 11.0, 0.0 ] ] ] } },
{ "type": "Feature", "properties": { "commune_id": "C0100", "informal_rate": 0.165, "total_bldg": 330, "informal_bldg": 54 }, "geometry": { "type": "Polygon", "coordinates": [ [ [ 0.0, 1.0 ], [ 1.0, 1.0 ], [ 1.0, 2.0 ], [ 0.0, 2.0 ], [ 0.0, 1.0 ] ] ] } },
{ "type": "Feature", "properties": { "commune_id": "C0101", "informal_rate": 0.069, "total_bldg": 603, "informal_bldg": 41 }, "geometry": { "type": "Polygon", "coordinates": [ [ [ 1.0, 1.0 ], [ 2.0, 1.0 ], [ 2.0, 2.0 ], [ 1.0, 2.0 ], [ 1.0, 1.0 ] ] ] } },
{ "type": "Feature", "properties": { "commune_id": "C0102", "informal_rate": 0.12, "total_bldg": 351, "informal_bldg": 42 }, "geometry": { "type": "Polygon", "coordinates": [ [ [ 2.0, 1.0 ], [ 3.0, 1.0 ], [ 3.0, 2.0 ], [ 2.0, 2.0 ], [ 2.0, 1.0 ] ] ] } },
{ "type": "Feature", "properties": { "commune_id": "C0103", "informal_rate": 0.274, "total_bldg": 253, "informal_bldg": 69 }, "geometry": { "type": "Polygon", "coordinates": [ [ [ 3.0, 1.0 ], [ 4.0, 1.0 ], [ 4.0, 2.0 ], [ 3.0, 2.0 ], [ 3.0, 1.0 ] ] ] } },
{ "type": "Feature", "properties": { "commune_id": "C0104", "informal_rate": 0.396, "total_bldg": 319, "informal_bldg": 126 }, "geometry": { "type": "Polygon", "coordinates": [ [ [ 4.0, 1.0 ], [ 5.0, 1.0 ], [ 5.0, 2.0 ], [ 4.0, 2.0 ], [ 4.0, 1.0 ] ] ] } },
{ "type": "Feature", "properties": { "commune_id": "C0105", "informal_rate": 0.58, "total_bldg": 872, "informal_bldg": 505 }, "geometry": { "type": "Polygon", "coordinates": [ [ [ 5.0, 1.0 ], [ 6.0, 1.0 ], [ 6.0, 2.0 ], [ 5.0, 2.0 ], [ 5.0, 1.0 ] ] ] } },
{ "type": "Feature", "properties": { "commune_id": "C0106", "informal_rate": 0.519, "total_bldg": 1119, "informal_bldg": 580 }, "geometry": { "type": "Polygon", "coordinates": [ [ [ 6.0, 1.0 ], [ 7.0, 1.0 ], [ 7.0, 2.0 ], [ 6.0, 2.0 ], [ 6.0, 1.0 ] ] ] } },
{ "type": "Feature", "properties": { "commune_id": "C0107", "informal_rate": 0.376, "total_bldg": 827, "informal_bldg": 310 }, "geometry": { "type": "Polygon", "coordinates": [ [ [ 7.0, 1.0 ], [ 8.0, 1.0 ], [ 8.0, 2.0 ], [ 7.0, 2.0 ], [ 7.0, 1.0 ] ] ] } },
{ "type": "Feature", "properties": { "commune_id": "C0108", "informal_rate": 0.376, "total_bldg": 786, "informal_bldg": 295 }, "geometry": { "type": "Polygon", "coordinates": [ [ [ 8.0, 1.0 ], [ 9.0, 1.0 ], [ 9.0, 2.0 ], [ 8.0, 2.0 ], [ 8.0, 1.0 ] ] ] } },
{ "type": "Feature", "properties": { "commune_id": "C0109", "informal_rate": 0.195, "total_bldg": 824, "informal_bldg": 160 }, "geometry": { "type": "Polygon", "coordinates": [ [ [ 9.0, 1.0 ], [ 10.0, 1.0 ], [ 10.0, 2.0 ], [ 9.0, 2.0 ], [ 9.0, 1.0 ] ] ] } },
{ "type": "Feature", "properties": { "commune_id": "C0110", "informal_rate": 0.168, "total_bldg": 1167, "informal_bldg": 196 }, "geometry": { "type": "Polygon", "coordinates": [ [ [ 10.0, 1.0 ], [ 11.0, 1.0 ], [ 11.0, 2.0 ], [ 10.0, 2.0 ], [ 10.0, 1.0 ] ] ] } },
{ "type": "Feature", "properties": { "commune_id": "C0111", "informal_rate": 0.082, "total_bldg": 619, "informal_bldg": 50 }, "geometry": { "type": "Polygon", "coordinates": [ [ [ 11.0, 1.0 ], [ 12.0, 1.0 ], [ 12.0, 2.0 ], [ 11.0, 2.0 ], [ 11.0, 1.0 ] ] ] } },
{ "type": "Feature", "properties": { "commune_id": "C0200", "informal_rate": 0.126, "total_bldg": 621, "informal_bldg": 77 }, "geometry": { "type": "Polygon", "coordinates": [ [ [ 0.0, 2.0 ], [ 1.0, 2.0 ], [ 1.0, 3.0 ], [ 0.0, 3.0 ], [ 0.0, 2.0 ] ] ] } },
{ "type": "Feature", "properties": { "commune_id": "C0201", "informal_rate": 0.17, "total_bldg": 303, "informal_bldg": 51 }, "geometry": { "type": "Polygon", "coordinates": [ [ [ 1.0, 2.0 ], [ 2.0, 2.0 ], [ 2.0, 3.0 ], [ 1.0, 3.0 ], [ 1.0, 2.0 ] ] ] } },
{ "type": "Feature", "properties": { "commune_id": "C0202", "informal_rate": 0.148, "total_bldg": 1051, "informal_bldg": 156 }, "geometry": { "type": "Polygon", "coordinates": [ [ [ 2.0, 2.0 ], [ 3.0, 2.0 ], [ 3.0, 3.0 ], [ 2.0, 3.0 ], [ 2.0, 2.0 ] ] ] } },
{ "type": "Feature", "properties": { "commune_id": "C0203", "informal_rate": 0.321, "total_bldg": 453, "informal_bldg": 145 }, "geometry": { "type": "Polygon", "coordinates": [ [ [ 3.0, 2.0 ], [ 4.0, 2.0 ], [ 4.0, 3.0 ], [ 3.0, 3.0 ], [ 3.0, 2.0 ] ] ] } },
{ "type": "Feature", "properties": { "commune_id": "C0204", "informal_rate": 0.417, "total_bldg": 426, "informal_bldg": 177 }, "geometry": { "type": "Polygon", "coordinates": [ [ [ 4.0, 2.0 ], [ 5.0, 2.0 ], [ 5.0, 3.0 ], [ 4.0, 3.0 ], [ 4.0, 2.0 ] ] ] } },
{ "type": "Feature", "properties": { "commune_id": "C0205", "informal_rate": 0.549, "total_bldg": 311, "informal_bldg": 170 }, "geometry": { "type": "Polygon", "coordinates": [ [ [ 5.0, 2.0 ], [ 6.0, 2.0 ], [ 6.0, 3.0 ], [ 5.0, 3.0 ], [ 5.0, 2.0 ] ] ] } },
{ "type": "Feature", "properties": { "commune_id": "C0206", "informal_rate": 0.534, "total_bldg": 709, "informal_bldg": 378 }, "geometry": { "type": "Polygon", "coordinates": [ [ [ 6.0, 2.0 ], [ 7.0, 2.0 ], [ 7.0, 3.0 ], [ 6.0, 3.0 ], [ 6.0, 2.0 ] ] ] } },
{ "type": "Feature", "properties": { "commune_id": "C0207", "informal_rate": 0.539, "total_bldg": 672, "informal_bldg": 362 }, "geometry": { "type": "Polygon", "coordinates": [ [ [ 7.0, 2.0 ], [ 8.0, 2.0 ], [ 8.0, 3.0 ], [ 7.0, 3.0 ], [ 7.0, 2.0 ] ] ] } },
{ "type": "Feature", "properties": { "commune_id": "C0208", "informal_rate": 0.302, "total_bldg": 298, "informal_bldg": 89 }, "geometry": { "type": "Polygon", "coordinates": [ [ [ 8.0, 2.0 ], [ 9.0, 2.0 ], [ 9.0, 3.0 ], [ 8.0, 3.0 ], [ 8.0, 2.0 ] ] ] } },
{ "type": "Feature", "properties": { "commune_id": "C0209", "informal_rate": 0.153, "total_bldg": 352, "informal_bldg": 53 }, "geometry": { "type": "Polygon", "coordinates": [ [ [ 9.0, 2.0 ], [ 10.0, 2.0 ], [ 10.0, 3.0 ], [ 9.0, 3.0 ], [ 9.0, 2.0 ] ] ] } },
{ "type": "Feature", "properties": { "commune_id": "C0210", "informal_rate": 0.206, "total_bldg": 1060, "informal_bldg": 218 }, "geometry": { "type": "Polygon", "coordinates": [ [ [ 10.0, 2.0 ], [ 11.0, 2.0 ], [ 11.0, 3.0 ], [ 10.0, 3.0 ], [ 10.0, 2.0 ] ] ] } },
{ "type": "Feature", "properties": { "commune_id": "C0211", "informal_rate": 0.092, "total_bldg": 1113, "informal_bldg": 102 }, "geometry": { "type": "Polygon", "coordinates": [ [ [ 11.0, 2.0 ], [ 12.0, 2.0 ], [ 12.0, 3.0 ], [ 11.0, 3.0 ], [ 11.0, 2.0 ] ] ] } },
{ "type": "Feature", "properties": { "commune_id": "C0300", "informal_rate": 0.162, "total_bldg": 1095, "informal_bldg": 177 }, "geometry": { "type": "Polygon", "coordinates": [ [ [ 0.0, 3.0 ], [ 1.0, 3.0 ], [ 1.0, 4.0 ], [ 0.0, 4.0 ], [ 0.0, 3.0 ] ] ] } },
{ "type": "Feature", "properties": { "commune_id": "C0301", "informal_rate": 0.063, "total_bldg": 1077, "informal_bldg": 67 }, "geometry": { "type": "Polygon", "coordinates": [ [ [ 1.0, 3.0 ], [ 2.0, 3.0 ], [ 2.0, 4.0 ], [ 1.0, 4.0 ], [ 1.0, 3.0 ] ] ] } },
{ "type": "Feature", "properties": { "commune_id": "C0302", "informal_rate": 0.124, "total_bldg": 537, "informal_bldg": 66 }, "geometry": { "type": "Polygon", "coordinates": [ [ [ 2.0, 3.0 ], [ 3.0, 3.0 ], [ 3.0, 4.0 ], [ 2.0, 4.0 ], [ 2.0, 3.0 ] ] ] } },
{ "type": "Feature", "properties": { "commune_id": "C0303", "informal_rate": 0.269, "total_bldg": 905, "informal_bldg": 243 }, "geometry": { "type": "Polygon", "coordinates": [ [ [ 3.0, 3.0 ], [ 4.0, 3.0 ], [ 4.0, 4.0 ], [ 3.0, 4.0 ], [ 3.0, 3.0 ] ] ] } },
{ "type": "Feature", "properties": { "commune_id": "C0304", "informal_rate": 0.399, "total_bldg": 1021, "informal_bldg": 407 }, "geometry": { "type": "Polygon", "coordinates": [ [ [ 4.0, 3.0 ], [ 5.0, 3.0 ], [ 5.0, 4.0 ], [ 4.0, 4.0 ], [ 4.0, 3.0 ] ] ] } },
{ "type": "Feature", "properties": { "commune_id": "C0305", "informal_rate": 0.455, "total_bldg": 362, "informal_bldg": 164 }, "geometry": { "type": "Polygon", "coordinates": [ [ [ 5.0, 3.0 ], [ 6.0, 3.0 ], [ 6.0, 4.0 ], [ 5.0, 4.0 ], [ 5.0, 3.0 ] ] ] } },
{ "type": "Feature", "properties": { "commune_id": "C0306", "informal_rate": 0.441, "total_bldg": 919, "informal_bldg": 405 }, "geometry": { "type": "Polygon", "coordinates": [ [ [ 6.0, 3.0 ], [ 7.0, 3.0 ], [ 7.0, 4.0 ], [ 6.0, 4.0 ], [ 6.0, 3.0 ] ] ] } },
{ "type": "Feature", "properties": { "commune_id": "C0307", "informal_rate": 0.348, "total_bldg": 1156, "informal_bldg": 402 }, "geometry": { "type": "Polygon", "coordinates": [ [ [ 7.0, 3.0 ], [ 8.0, 3.0 ], [ 8.0, 4.0 ], [ 7.0, 4.0 ], [ 7.0, 3.0 ] ] ] } },
{ "type": "Feature", "properties": { "commune_id": "C0308", "informal_rate": 0.186, "total_bldg": 880, "informal_bldg": 164 }, "geometry": { "type": "Polygon", "coordinates": [ [ [ 8.0, 3.0 ], [ 9.0, 3.0 ], [ 9.0, 4.0 ], [ 8.0, 4.0 ], [ 8.0, 3.0 ] ] ] } },
{ "type": "Feature", "properties": { "commune_id": "C0309", "informal_rate": 0.155, "total_bldg": 1195, "informal_bldg": 185 }, "geometry": { "type": "Polygon", "coordinates": [ [ [ 9.0, 3.0 ], [ 10.0, 3.0 ], [ 10.0, 4.0 ], [ 9.0, 4.0 ], [ 9.0, 3.0 ] ] ] } },
{ "type": "Feature", "properties": { "commune_id": "C0310", "informal_rate": 0.138, "total_bldg": 360, "informal_bldg": 49 }, "geometry": { "type": "Polygon", "coordinates": [ [ [ 10.0, 3.0 ], [ 11.0, 3.0 ], [ 11.0, 4.0 ], [ 10.0, 4.0 ], [ 10.0, 3.0 ] ] ] } },
{ "type": "Feature", "properties": { "commune_id": "C0311", "informal_rate": 0.205, "total_bldg": 779, "informal_bldg": 159 }, "geometry": { "type": "Polygon", "coordinates": [ [ [ 11.0, 3.0 ], [ 12.0, 3.0 ], [ 12.0, 4.0 ], [ 11.0, 4.0 ], [ 11.0, 3.0 ] ] ] } },
{ "type": "Feature", "properties": { "commune_id": "C0400", "informal_rate": 0.168, "total_bldg": 1000, "informal_bldg": 168 }, "geometry": { "type": "Polygon", "coordinates": [ [ [ 0.0, 4.0 ], [ 1.0, 4.0 ], [ 1.0, 5.0 ], [ 0.0, 5.0 ], [ 0.0, 4.0 ] ] ] } },
{ "type": "Feature", "properties": { "commune_id": "C0401", "informal_rate": 0.067, "total_bldg": 597, "informal_bldg": 40 }, "geometry": { "type": "Polygon", "coordinates": [ [ [ 1.0, 4.0 ], [ 2.0, 4.0 ], [ 2.0, 5.0 ], [ 1.0, 5.0 ], [ 1.0, 4.0 ] ] ] } },
{ "type": "Feature", "properties": { "commune_id": "C0402", "informal_rate": 0.187, "total_bldg": 476, "informal_bldg": 88 }, "geometry": { "type": "Polygon", "coordinates": [ [ [ 2.0, 4.0 ], [ 3.0, 4.0 ], [ 3.0, 5.0 ], [ 2.0, 5.0 ], [ 2.0, 4.0 ] ] ] } },
{ "type": "Feature", "properties": { "commune_id": "C0403", "informal_rate": 0.187, "total_bldg": 1015, "informal_bldg": 189 }, "geometry": { "type": "Polygon", "coordinates": [ [ [ 3.0, 4.0 ], [ 4.0, 4.0 ], [ 4.0, 5.0 ], [ 3.0, 5.0 ], [ 3.0, 4.0 ] ] ] } },
{ "type": "Feature", "properties": { "commune_id": "C0404", "informal_rate": 0.225, "total_bldg": 1115, "informal_bldg": 251 }, "geometry": { "type": "Polygon", "coordinates": [ [ [ 4.0, 4.0 ], [ 5.0, 4.0 ], [ 5.0, 5.0 ], [ 4.0, 5.0 ], [ 4.0, 4.0 ] ] ] } },
{ "type": "Feature", "properties": { "commune_id": "C0405", "informal_rate": 0.333, "total_bldg": 703, "informal_bldg": 234 }, "geometry": { "type": "Polygon", "coordinates": [ [ [ 5.0, 4.0 ], [ 6.0, 4.0 ], [ 6.0, 5.0 ], [ 5.0, 5.0 ], [ 5.0, 4.0 ] ] ] } },
{ "type": "Feature", "properties": { "commune_id": "C0406", "informal_rate": 0.356, "total_bldg": 1095, "informal_bldg": 389 }, "geometry": { "type": "Polygon", "coordinates": [ [ [ 6.0, 4.0 ], [ 7.0, 4.0 ], [ 7.0, 5.0 ], [ 6.0, 5.0 ], [ 6.0, 4.0 ] ] ] } },
{ "type": "Feature", "properties": { "commune_id": "C0407", "informal_rate": 0.311, "total_bldg": 591, "informal_bldg": 183 }, "geometry": { "type": "Polygon", "coordinates": [ [ [ 7.0, 4.0 ], [ 8.0, 4.0 ], [ 8.0, 5.0 ], [ 7.0, 5.0 ], [ 7.0, 4.0 ] ] ] } },
{ "type": "Feature", "properties": { "commune_id": "C0408", "informal_rate": 0.173, "total_bldg": 334, "informal_bldg": 57 }, "geometry": { "type": "Polygon", "coordinates": [ [ [ 8.0, 4.0 ], [ 9.0, 4.0 ], [ 9.0, 5.0 ], [ 8.0, 5.0 ], [ 8.0, 4.0 ] ] ] } },
{ "type": "Feature", "properties": { "commune_id": "C0409", "informal_rate": 0.164, "total_bldg": 394, "informal_bldg": 64 }, "geometry": { "type": "Polygon", "coordinates": [ [ [ 9.0, 4.0 ], [ 10.0, 4.0 ], [ 10.0, 5.0 ], [ 9.0, 5.0 ], [ 9.0, 4.0 ] ] ] } },
{ "type": "Feature", "properties": { "commune_id": "C0410", "informal_rate": 0.177, "total_bldg": 600, "informal_bldg": 106 }, "geometry": { "type": "Polygon", "coordinates": [ [ [ 10.0, 4.0 ], [ 11.0, 4.0 ], [ 11.0, 5.0 ], [ 10.0, 5.0 ], [ 10.0, 4.0 ] ] ] } },
{ "type": "Feature", "properties": { "commune_id": "C0411", "informal_rate": 0.202, "total_bldg": 839, "informal_bldg": 169 }, "geometry": { "type": "Polygon", "coordinates": [ [ [ 11.0, 4.0 ], [ 12.0, 4.0 ], [ 12.0, 5.0 ], [ 11.0, 5.0 ], [ 11.0, 4.0 ] ] ] } },
{ "type": "Feature", "properties": { "commune_id": "C0500", "informal_rate": 0.126, "total_bldg": 232, "informal_bldg": 29 }, "geometry": { "type": "Polygon", "coordinates": [ [ [ 0.0, 5.0 ], [ 1.0, 5.0 ], [ 1.0, 6.0 ], [ 0.0, 6.0 ], [ 0.0, 5.0 ] ] ] } },
{ "type": "Feature", "properties": { "commune_id": "C0501", "informal_rate": 0.143, "total_bldg": 887, "informal_bldg": 126 }, "geometry": { "type": "Polygon", "coordinates": [ [ [ 1.0, 5.0 ], [ 2.0, 5.0 ], [ 2.0, 6.0 ], [ 1.0, 6.0 ], [ 1.0, 5.0 ] ] ] } },
{ "type": "Feature", "properties": { "commune_id": "C0502", "informal_rate": 0.102, "total_bldg": 659, "informal_bldg": 67 }, "geometry": { "type": "Polygon", "coordinates": [ [ [ 2.0, 5.0 ], [ 3.0, 5.0 ], [ 3.0, 6.0 ], [ 2.0, 6.0 ], [ 2.0, 5.0 ] ] ] } },
{ "type": "Feature", "properties": { "commune_id": "C0503", "informal_rate": 0.111, "total_bldg": 1154, "informal_bldg": 127 }, "geometry": { "type": "Polygon", "coordinates": [ [ [ 3.0, 5.0 ], [ 4.0, 5.0 ], [ 4.0, 6.0 ], [ 3.0, 6.0 ], [ 3.0, 5.0 ] ] ] } },
{ "type": "Feature", "properties": { "commune_id": "C0504", "informal_rate": 0.231, "total_bldg": 1082, "informal_bldg": 249 }, "geometry": { "type": "Polygon", "coordinates": [ [ [ 4.0, 5.0 ], [ 5.0, 5.0 ], [ 5.0, 6.0 ], [ 4.0, 6.0 ], [ 4.0, 5.0 ] ] ] } },
{ "type": "Feature", "properties": { "commune_id": "C0505", "informal_rate": 0.276, "total_bldg": 669, "informal_bldg": 184 }, "geometry": { "type": "Polygon", "coordinates": [ [ [ 5.0, 5.0 ], [ 6.0, 5.0 ], [ 6.0, 6.0 ], [ 5.0, 6.0 ], [ 5.0, 5.0 ] ] ] } },
{ "type": "Feature", "properties": { "commune_id": "C0506", "informal_rate": 0.211, "total_bldg": 574, "informal_bldg": 121 }, "geometry": { "type": "Polygon", "coordinates": [ [ [ 6.0, 5.0 ], [ 7.0, 5.0 ], [ 7.0, 6.0 ], [ 6.0, 6.0 ], [ 6.0, 5.0 ] ] ] } },
{ "type": "Feature", "properties": { "commune_id": "C0507", "informal_rate": 0.264, "total_bldg": 221, "informal_bldg": 58 }, "geometry": { "type": "Polygon", "coordinates": [ [ [ 7.0, 5.0 ], [ 8.0, 5.0 ], [ 8.0, 6.0 ], [ 7.0, 6.0 ], [ 7.0, 5.0 ] ] ] } },
{ "type": "Feature", "properties": { "commune_id": "C0508", "informal_rate": 0.228, "total_bldg": 949, "informal_bldg": 216 }, "geometry": { "type": "Polygon", "coordinates": [ [ [ 8.0, 5.0 ], [ 9.0, 5.0 ], [ 9.0, 6.0 ], [ 8.0, 6.0 ], [ 8.0, 5.0 ] ] ] } },
{ "type": "Feature", "properties": { "commune_id": "C0509", "informal_rate": 0.165, "total_bldg": 869, "informal_bldg": 143 }, "geometry": { "type": "Polygon", "coordinates": [ [ [ 9.0, 5.0 ], [ 10.0, 5.0 ], [ 10.0, 6.0 ], [ 9.0, 6.0 ], [ 9.0, 5.0 ] ] ] } },
{ "type": "Feature", "properties": { "commune_id": "C0510", "informal_rate": 0.194, "total_bldg": 237, "informal_bldg": 45 }, "geometry": { "type": "Polygon", "coordinates": [ [ [ 10.0, 5.0 ], [ 11.0, 5.0 ], [ 11.0, 6.0 ], [ 10.0, 6.0 ], [ 10.0, 5.0 ] ] ] } },
{ "type": "Feature", "properties": { "commune_id": "C0511", "informal_rate": 0.236, "total_bldg": 429, "informal_bldg": 101 }, "geometry": { "type": "Polygon", "coordinates": [ [ [ 11.0, 5.0 ], [ 12.0, 5.0 ], [ 12.0, 6.0 ], [ 11.0, 6.0 ], [ 11.0, 5.0 ] ] ] } },
{ "type": "Feature", "properties": { "commune_id": "C0600", "informal_rate": 0.148, "total_bldg": 564, "informal_bldg": 83 }, "geometry": { "type": "Polygon", "coordinates": [ [ [ 0.0, 6.0 ], [ 1.0, 6.0 ], [ 1.0, 7.0 ], [ 0.0, 7.0 ], [ 0.0, 6.0 ] ] ] } },
{ "type": "Feature", "properties": { "commune_id": "C0601", "informal_rate": 0.229, "total_bldg": 762, "informal_bldg": 174 }, "geometry": { "type": "Polygon", "coordinates": [ [ [ 1.0, 6.0 ], [ 2.0, 6.0 ], [ 2.0, 7.0 ], [ 1.0, 7.0 ], [ 1.0, 6.0 ] ] ] } },
{ "type": "Feature", "properties": { "commune_id": "C0602", "informal_rate": 0.021, "total_bldg": 637, "informal_bldg": 13 }, "geometry": { "type": "Polygon", "coordinates": [ [ [ 2.0, 6.0 ], [ 3.0, 6.0 ], [ 3.0, 7.0 ], [ 2.0, 7.0 ], [ 2.0, 6.0 ] ] ] } },
{ "type": "Feature", "properties": { "commune_id": "C0603", "informal_rate": 0.197, "total_bldg": 975, "informal_bldg": 191 }, "geometry": { "type": "Polygon", "coordinates": [ [ [ 3.0, 6.0 ], [ 4.0, 6.0 ], [ 4.0, 7.0 ], [ 3.0, 7.0 ], [ 3.0, 6.0 ] ] ] } },
{ "type": "Feature", "properties": { "commune_id": "C0604", "informal_rate": 0.166, "total_bldg": 482, "informal_bldg": 79 }, "geometry": { "type": "Polygon", "coordinates": [ [ [ 4.0, 6.0 ], [ 5.0, 6.0 ], [ 5.0, 7.0 ], [ 4.0, 7.0 ], [ 4.0, 6.0 ] ] ] } },
{ "type": "Feature", "properties": { "commune_id": "C0605", "informal_rate": 0.155, "total_bldg": 226, "informal_bldg": 35 }, "geometry": { "type": "Polygon", "coordinates": [ [ [ 5.0, 6.0 ], [ 6.0, 6.0 ], [ 6.0, 7.0 ], [ 5.0, 7.0 ], [ 5.0, 6.0 ] ] ] } },
{ "type": "Feature", "properties": { "commune_id": "C0606", "informal_rate": 0.193, "total_bldg": 425, "informal_bldg": 82 }, "geometry": { "type": "Polygon", "coordinates": [ [ [ 6.0, 6.0 ], [ 7.0, 6.0 ], [ 7.0, 7.0 ], [ 6.0, 7.0 ], [ 6.0, 6.0 ] ] ] } },
{ "type": "Feature", "properties": { "commune_id": "C0607", "informal_rate": 0.126, "total_bldg": 476, "informal_bldg": 60 }, "geometry": { "type": "Polygon", "coordinates": [ [ [ 7.0, 6.0 ], [ 8.0, 6.0 ], [ 8.0, 7.0 ], [ 7.0, 7.0 ], [ 7.0, 6.0 ] ] ] } },
{ "type": "Feature", "properties": { "commune_id": "C0608", "informal_rate": 0.252, "total_bldg": 997, "informal_bldg": 250 }, "geometry": { "type": "Polygon", "coordinates": [ [ [ 8.0, 6.0 ], [ 9.0, 6.0 ], [ 9.0, 7.0 ], [ 8.0, 7.0 ], [ 8.0, 6.0 ] ] ] } },
{ "type": "Feature", "properties": { "commune_id": "C0609", "informal_rate": 0.277, "total_bldg": 808, "informal_bldg": 223 }, "geometry": { "type": "Polygon", "coordinates": [ [ [ 9.0, 6.0 ], [ 10.0, 6.0 ], [ 10.0, 7.0 ], [ 9.0, 7.0 ], [ 9.0, 6.0 ] ] ] } },
{ "type": "Feature", "properties": { "commune_id": "C0610", "informal_rate": 0.289, "total_bldg": 483, "informal_bldg": 139 }, "geometry": { "type": "Polygon", "coordinates": [ [ [ 10.0, 6.0 ], [ 11.0, 6.0 ], [ 11.0, 7.0 ], [ 10.0, 7.0 ], [ 10.0, 6.0 ] ] ] } },
{ "type": "Feature", "properties": { "commune_id": "C0611", "informal_rate": 0.148, "total_bldg": 1078, "informal_bldg": 159 }, "geometry": { "type": "Polygon", "coordinates": [ [ [ 11.0, 6.0 ], [ 12.0, 6.0 ], [ 12.0, 7.0 ], [ 11.0, 7.0 ], [ 11.0, 6.0 ] ] ] } },
{ "type": "Feature", "properties": { "commune_id": "C0700", "informal_rate": 0.11, "total_bldg": 1159, "informal_bldg": 127 }, "geometry": { "type": "Polygon", "coordinates": [ [ [ 0.0, 7.0 ], [ 1.0, 7.0 ], [ 1.0, 8.0 ], [ 0.0, 8.0 ], [ 0.0, 7.0 ] ] ] } },
{ "type": "Feature", "properties": { "commune_id": "C0701", "informal_rate": 0.125, "total_bldg": 680, "informal_bldg": 85 }, "geometry": { "type": "Polygon", "coordinates": [ [ [ 1.0, 7.0 ], [ 2.0, 7.0 ], [ 2.0, 8.0 ], [ 1.0, 8.0 ], [ 1.0, 7.0 ] ] ] } },
{ "type": "Feature", "properties": { "commune_id": "C0702", "informal_rate": 0.196, "total_bldg": 652, "informal_bldg": 127 }, "geometry": { "type": "Polygon", "coordinates": [ [ [ 2.0, 7.0 ], [ 3.0, 7.0 ], [ 3.0, 8.0 ], [ 2.0, 8.0 ], [ 2.0, 7.0 ] ] ] } },
{ "type": "Feature", "properties": { "commune_id": "C0703", "informal_rate": 0.168, "total_bldg": 1028, "informal_bldg": 172 }, "geometry": { "type": "Polygon", "coordinates": [ [ [ 3.0, 7.0 ], [ 4.0, 7.0 ], [ 4.0, 8.0 ], [ 3.0, 8.0 ], [ 3.0, 7.0 ] ] ] } },
{ "type": "Feature", "properties": { "commune_id": "C0704", "informal_rate": 0.127, "total_bldg": 1015, "informal_bldg": 128 }, "geometry": { "type": "Polygon", "coordinates": [ [ [ 4.0, 7.0 ], [ 5.0, 7.0 ], [ 5.0, 8.0 ], [ 4.0, 8.0 ], [ 4.0, 7.0 ] ] ] } },
{ "type": "Feature", "properties": { "commune_id": "C0705", "informal_rate": 0.187, "total_bldg": 858, "informal_bldg": 160 }, "geometry": { "type": "Polygon", "coordinates": [ [ [ 5.0, 7.0 ], [ 6.0, 7.0 ], [ 6.0, 8.0 ], [ 5.0, 8.0 ], [ 5.0, 7.0 ] ] ] } },
{ "type": "Feature", "properties": { "commune_id": "C0706", "informal_rate": 0.197, "total_bldg": 715, "informal_bldg": 140 }, "geometry": { "type": "Polygon", "coordinates": [ [ [ 6.0, 7.0 ], [ 7.0, 7.0 ], [ 7.0, 8.0 ], [ 6.0, 8.0 ], [ 6.0, 7.0 ] ] ] } },
{ "type": "Feature", "properties": { "commune_id": "C0707", "informal_rate": 0.307, "total_bldg": 746, "informal_bldg": 229 }, "geometry": { "type": "Polygon", "coordinates": [ [ [ 7.0, 7.0 ], [ 8.0, 7.0 ], [ 8.0, 8.0 ], [ 7.0, 8.0 ], [ 7.0, 7.0 ] ] ] } },
{ "type": "Feature", "properties": { "commune_id": "C0708", "informal_rate": 0.292, "total_bldg": 391, "informal_bldg": 114 }, "geometry": { "type": "Polygon", "coordinates": [ [ [ 8.0, 7.0 ], [ 9.0, 7.0 ], [ 9.0, 8.0 ], [ 8.0, 8.0 ], [ 8.0, 7.0 ] ] ] } },
{ "type": "Feature", "properties": { "commune_id": "C0709", "informal_rate": 0.31, "total_bldg": 248, "informal_bldg": 77 }, "geometry": { "type": "Polygon", "coordinates": [ [ [ 9.0, 7.0 ], [ 10.0, 7.0 ], [ 10.0, 8.0 ], [ 9.0, 8.0 ], [ 9.0, 7.0 ] ] ] } },
{ "type": "Feature", "properties": { "commune_id": "C0710", "informal_rate": 0.238, "total_bldg": 711, "informal_bldg": 168 }, "geometry": { "type": "Polygon", "coordinates": [ [ [ 10.0, 7.0 ], [ 11.0, 7.0 ], [ 11.0, 8.0 ], [ 10.0, 8.0 ], [ 10.0, 7.0 ] ] ] } },
{ "type": "Feature", "properties": { "commune_id": "C0711", "informal_rate": 0.116, "total_bldg": 216, "informal_bldg": 25 }, "geometry": { "type": "Polygon", "coordinates": [ [ [ 11.0, 7.0 ], [ 12.0, 7.0 ], [ 12.0, 8.0 ], [ 11.0, 8.0 ], [ 11.0, 7.0 ] ] ] } },
{ "type": "Feature", "properties": { "commune_id": "C0800", "informal_rate": 0.165, "total_bldg": 371, "informal_bldg": 61 }, "geometry": { "type": "Polygon", "coordinates": [ [ [ 0.0, 8.0 ], [ 1.0, 8.0 ], [ 1.0, 9.0 ], [ 0.0, 9.0 ], [ 0.0, 8.0 ] ] ] } },
{ "type": "Feature", "properties": { "commune_id": "C0801", "informal_rate": 0.163, "total_bldg": 419, "informal_bldg": 68 }, "geometry": { "type": "Polygon", "coordinates": [ [ [ 1.0, 8.0 ], [ 2.0, 8.0 ], [ 2.0, 9.0 ], [ 1.0, 9.0 ], [ 1.0, 8.0 ] ] ] } },
{ "type": "Feature", "properties": { "commune_id": "C0802", "informal_rate": 0.15, "total_bldg": 357, "informal_bldg": 53 }, "geometry": { "type": "Polygon", "coordinates": [ [ [ 2.0, 8.0 ], [ 3.0, 8.0 ], [ 3.0, 9.0 ], [ 2.0, 9.0 ], [ 2.0, 8.0 ] ] ] } },
{ "type": "Feature", "properties": { "commune_id": "C0803", "informal_rate": 0.139, "total_bldg": 676, "informal_bldg": 93 }, "geometry": { "type": "Polygon", "coordinates": [ [ [ 3.0, 8.0 ], [ 4.0, 8.0 ], [ 4.0, 9.0 ], [ 3.0, 9.0 ], [ 3.0, 8.0 ] ] ] } },
{ "type": "Feature", "properties": { "commune_id": "C0804", "informal_rate": 0.081, "total_bldg": 245, "informal_bldg": 19 }, "geometry": { "type": "Polygon", "coordinates": [ [ [ 4.0, 8.0 ], [ 5.0, 8.0 ], [ 5.0, 9.0 ], [ 4.0, 9.0 ], [ 4.0, 8.0 ] ] ] } },
{ "type": "Feature", "properties": { "commune_id": "C0805", "informal_rate": 0.138, "total_bldg": 572, "informal_bldg": 79 }, "geometry": { "type": "Polygon", "coordinates": [ [ [ 5.0, 8.0 ], [ 6.0, 8.0 ], [ 6.0, 9.0 ], [ 5.0, 9.0 ], [ 5.0, 8.0 ] ] ] } },
{ "type": "Feature", "properties": { "commune_id": "C0806", "informal_rate": 0.173, "total_bldg": 717, "informal_bldg": 123 }, "geometry": { "type": "Polygon", "coordinates": [ [ [ 6.0, 8.0 ], [ 7.0, 8.0 ], [ 7.0, 9.0 ], [ 6.0, 9.0 ], [ 6.0, 8.0 ] ] ] } },
{ "type": "Feature", "properties": { "commune_id": "C0807", "informal_rate": 0.217, "total_bldg": 298, "informal_bldg": 64 }, "geometry": { "type": "Polygon", "coordinates": [ [ [ 7.0, 8.0 ], [ 8.0, 8.0 ], [ 8.0, 9.0 ], [ 7.0, 9.0 ], [ 7.0, 8.0 ] ] ] } },
{ "type": "Feature", "properties": { "commune_id": "C0808", "informal_rate": 0.319, "total_bldg": 1091, "informal_bldg": 347 }, "geometry": { "type": "Polygon", "coordinates": [ [ [ 8.0, 8.0 ], [ 9.0, 8.0 ], [ 9.0, 9.0 ], [ 8.0, 9.0 ], [ 8.0, 8.0 ] ] ] } },
{ "type": "Feature", "properties": { "commune_id": "C0809", "informal_rate": 0.347, "total_bldg": 944, "informal_bldg": 327 }, "geometry": { "type": "Polygon", "coordinates": [ [ [ 9.0, 8.0 ], [ 10.0, 8.0 ], [ 10.0, 9.0 ], [ 9.0, 9.0 ], [ 9.0, 8.0 ] ] ] } },
{ "type": "Feature", "properties": { "commune_id": "C0810", "informal_rate": 0.351, "total_bldg": 236, "informal_bldg": 82 }, "geometry": { "type": "Polygon", "coordinates": [ [ [ 10.0, 8.0 ], [ 11.0, 8.0 ], [ 11.0, 9.0 ], [ 10.0, 9.0 ], [ 10.0, 8.0 ] ] ] } },
{ "type": "Feature", "properties": { "commune_id": "C0811", "informal_rate": 0.198, "total_bldg": 479, "informal_bldg": 94 }, "geometry": { "type": "Polygon", "coordinates": [ [ [ 11.0, 8.0 ], [ 12.0, 8.0 ], [ 12.0, 9.0 ], [ 11.0, 9.0 ], [ 11.0, 8.0 ] ] ] } },
{ "type": "Feature", "properties": { "commune_id": "C0900", "informal_rate": 0.163, "total_bldg": 548, "informal_bldg": 89 }, "geometry": { "type": "Polygon", "coordinates": [ [ [ 0.0, 9.0 ], [ 1.0, 9.0 ], [ 1.0, 10.0 ], [ 0.0, 10.0 ], [ 0.0, 9.0 ] ] ] } },
{ "type": "Feature", "properties": { "commune_id": "C0901", "informal_rate": 0.146, "total_bldg": 696, "informal_bldg": 101 }, "geometry": { "type": "Polygon", "coordinates": [ [ [ 1.0, 9.0 ], [ 2.0, 9.0 ], [ 2.0, 10.0 ], [ 1.0, 10.0 ], [ 1.0, 9.0 ] ] ] } },
{ "type": "Feature", "properties": { "commune_id": "C0902", "informal_rate": 0.054, "total_bldg": 501, "informal_bldg": 27 }, "geometry": { "type": "Polygon", "coordinates": [ [ [ 2.0, 9.0 ], [ 3.0, 9.0 ], [ 3.0, 10.0 ], [ 2.0, 10.0 ], [ 2.0, 9.0 ] ] ] } },
{ "type": "Feature", "properties": { "commune_id": "C0903", "informal_rate": 0.149, "total_bldg": 380, "informal_bldg": 56 }, "geometry": { "type": "Polygon", "coordinates": [ [ [ 3.0, 9.0 ], [ 4.0, 9.0 ], [ 4.0, 10.0 ], [ 3.0, 10.0 ], [ 3.0, 9.0 ] ] ] } },
{ "type": "Feature", "properties": { "commune_id": "C0904", "informal_rate": 0.154, "total_bldg": 806, "informal_bldg": 123 }, "geometry": { "type": "Polygon", "coordinates": [ [ [ 4.0, 9.0 ], [ 5.0, 9.0 ], [ 5.0, 10.0 ], [ 4.0, 10.0 ], [ 4.0, 9.0 ] ] ] } },
{ "type": "Feature", "properties": { "commune_id": "C0905", "informal_rate": 0.279, "total_bldg": 298, "informal_bldg": 83 }, "geometry": { "type": "Polygon", "coordinates": [ [ [ 5.0, 9.0 ], [ 6.0, 9.0 ], [ 6.0, 10.0 ], [ 5.0, 10.0 ], [ 5.0, 9.0 ] ] ] } },
{ "type": "Feature", "properties": { "commune_id": "C0906", "informal_rate": 0.164, "total_bldg": 899, "informal_bldg": 147 }, "geometry": { "type": "Polygon", "coordinates": [ [ [ 6.0, 9.0 ], [ 7.0, 9.0 ], [ 7.0, 10.0 ], [ 6.0, 10.0 ], [ 6.0, 9.0 ] ] ] } },
{ "type": "Feature", "properties": { "commune_id": "C0907", "informal_rate": 0.23, "total_bldg": 1192, "informal_bldg": 274 }, "geometry": { "type": "Polygon", "coordinates": [ [ [ 7.0, 9.0 ], [ 8.0, 9.0 ], [ 8.0, 10.0 ], [ 7.0, 10.0 ], [ 7.0, 9.0 ] ] ] } },
{ "type": "Feature", "properties": { "commune_id": "C0908", "informal_rate": 0.255, "total_bldg": 315, "informal_bldg": 80 }, "geometry": { "type": "Polygon", "coordinates": [ [ [ 8.0, 9.0 ], [ 9.0, 9.0 ], [ 9.0, 10.0 ], [ 8.0, 10.0 ], [ 8.0, 9.0 ] ] ] } },
{ "type": "Feature", "properties": { "commune_id": "C0909", "informal_rate": 0.199, "total_bldg": 390, "informal_bldg": 77 }, "geometry": { "type": "Polygon", "coordinates": [ [ [ 9.0, 9.0 ], [ 10.0, 9.0 ], [ 10.0, 10.0 ], [ 9.0, 10.0 ], [ 9.0, 9.0 ] ] ] } },
{ "type": "Feature", "properties": { "commune_id": "C0910", "informal_rate": 0.272, "total_bldg": 452, "informal_bldg": 122 }, "geometry": { "type": "Polygon", "coordinates": [ [ [ 10.0, 9.0 ], [ 11.0, 9.0 ], [ 11.0, 10.0 ], [ 10.0, 10.0 ], [ 10.0, 9.0 ] ] ] } },
{ "type": "Feature", "properties": { "commune_id": "C0911", "informal_rate": 0.211, "total_bldg": 1180, "informal_bldg": 249 }, "geometry": { "type": "Polygon", "coordinates": [ [ [ 11.0, 9.0 ], [ 12.0, 9.0 ], [ 12.0, 10.0 ], [ 11.0, 10.0 ], [ 11.0, 9.0 ] ] ] } },
{ "type": "Feature", "properties": { "commune_id": "C1000", "informal_rate": 0.19, "total_bldg": 1127, "informal_bldg": 213 }, "geometry": { "type": "Polygon", "coordinates": [ [ [ 0.0, 10.0 ], [ 1.0, 10.0 ], [ 1.0, 11.0 ], [ 0.0, 11.0 ], [ 0.0, 10.0 ] ] ] } },
{ "type": "Feature", "properties": { "commune_id": "C1001", "informal_rate": 0.105, "total_bldg": 1182, "informal_bldg": 123 }, "geometry": { "type": "Polygon", "coordinates": [ [ [ 1.0, 10.0 ], [ 2.0, 10.0 ], [ 2.0, 11.0 ], [ 1.0, 11.0 ], [ 1.0, 10.0 ] ] ] } },
{ "type": "Feature", "properties": { "commune_id": "C1002", "informal_rate": 0.22, "total_bldg": 360, "informal_bldg": 79 }, "geometry": { "type": "Polygon", "coordinates": [ [ [ 2.0, 10.0 ], [ 3.0, 10.0 ], [ 3.0, 11.0 ], [ 2.0, 11.0 ], [ 2.0, 10.0 ] ] ] } },
{ "type": "Feature", "properties": { "commune_id": "C1003", "informal_rate": 0.08, "total_bldg": 455, "informal_bldg": 36 }, "geometry": { "type": "Polygon", "coordinates": [ [ [ 3.0, 10.0 ], [ 4.0, 10.0 ], [ 4.0, 11.0 ], [ 3.0, 11.0 ], [ 3.0, 10.0 ] ] ] } },
{ "type": "Feature", "properties": { "commune_id": "C1004", "informal_rate": 0.18, "total_bldg": 522, "informal_bldg": 93 }, "geometry": { "type": "Polygon", "coordinates": [ [ [ 4.0, 10.0 ], [ 5.0, 10.0 ], [ 5.0, 11.0 ], [ 4.0, 11.0 ], [ 4.0, 10.0 ] ] ] } },
{ "type": "Feature", "properties": { "commune_id": "C1005", "informal_rate": 0.261, "total_bldg": 327, "informal_bldg": 85 }, "geometry": { "type": "Polygon", "coordinates": [ [ [ 5.0, 10.0 ], [ 6.0, 10.0 ], [ 6.0, 11.0 ], [ 5.0, 11.0 ], [ 5.0, 10.0 ] ] ] } },
{ "type": "Feature", "properties": { "commune_id": "C1006", "informal_rate": 0.109, "total_bldg": 217, "informal_bldg": 23 }, "geometry": { "type": "Polygon", "coordinates": [ [ [ 6.0, 10.0 ], [ 7.0, 10.0 ], [ 7.0, 11.0 ], [ 6.0, 11.0 ], [ 6.0, 10.0 ] ] ] } },
{ "type": "Feature", "properties": { "commune_id": "C1007", "informal_rate": 0.146, "total_bldg": 992, "informal_bldg": 144 }, "geometry": { "type": "Polygon", "coordinates": [ [ [ 7.0, 10.0 ], [ 8.0, 10.0 ], [ 8.0, 11.0 ], [ 7.0, 11.0 ], [ 7.0, 10.0 ] ] ] } },
{ "type": "Feature", "properties": { "commune_id": "C1008", "informal_rate": 0.194, "total_bldg": 934, "informal_bldg": 181 }, "geometry": { "type": "Polygon", "coordinates": [ [ [ 8.0, 10.0 ], [ 9.0, 10.0 ], [ 9.0, 11.0 ], [ 8.0, 11.0 ], [ 8.0, 10.0 ] ] ] } },
{ "type": "Feature", "properties": { "commune_id": "C1009", "informal_rate": 0.164, "total_bldg": 765, "informal_bldg": 125 }, "geometry": { "type": "Polygon", "coordinates": [ [ [ 9.0, 10.0 ], [ 10.0, 10.0 ], [ 10.0, 11.0 ], [ 9.0, 11.0 ], [ 9.0, 10.0 ] ] ] } },
{ "type": "Feature", "properties": { "commune_id": "C1010", "informal_rate": 0.096, "total_bldg": 769, "informal_bldg": 74 }, "geometry": { "type": "Polygon", "coordinates": [ [ [ 10.0, 10.0 ], [ 11.0, 10.0 ], [ 11.0, 11.0 ], [ 10.0, 11.0 ], [ 10.0, 10.0 ] ] ] } },
{ "type": "Feature", "properties": { "commune_id": "C1011", "informal_rate": 0.162, "total_bldg": 522, "informal_bldg": 84 }, "geometry": { "type": "Polygon", "coordinates": [ [ [ 11.0, 10.0 ], [ 12.0, 10.0 ], [ 12.0, 11.0 ], [ 11.0, 11.0 ], [ 11.0, 10.0 ] ] ] } },
{ "type": "Feature", "properties": { "commune_id": "C1100", "informal_rate": 0.097, "total_bldg": 1071, "informal_bldg": 103 }, "geometry": { "type": "Polygon", "coordinates": [ [ [ 0.0, 11.0 ], [ 1.0, 11.0 ], [ 1.0, 12.0 ], [ 0.0, 12.0 ], [ 0.0, 11.0 ] ] ] } },
{ "type": "Feature", "properties": { "commune_id": "C1101", "informal_rate": 0.174, "total_bldg": 885, "informal_bldg": 153 }, "geometry": { "type": "Polygon", "coordinates": [ [ [ 1.0, 11.0 ], [ 2.0, 11.0 ], [ 2.0, 12.0 ], [ 1.0, 12.0 ], [ 1.0, 11.0 ] ] ] } },
{ "type": "Feature", "properties": { "commune_id": "C1102", "informal_rate": 0.104, "total_bldg": 991, "informal_bldg": 103 }, "geometry": { "type": "Polygon", "coordinates": [ [ [ 2.0, 11.0 ], [ 3.0, 11.0 ], [ 3.0, 12.0 ], [ 2.0, 12.0 ], [ 2.0, 11.0 ] ] ] } },
{ "type": "Feature", "properties": { "commune_id": "C1103", "informal_rate": 0.228, "total_bldg": 825, "informal_bldg": 187 }, "geometry": { "type": "Polygon", "coordinates": [ [ [ 3.0, 11.0 ], [ 4.0, 11.0 ], [ 4.0, 12.0 ], [ 3.0, 12.0 ], [ 3.0, 11.0 ] ] ] } },
{ "type": "Feature", "properties": { "commune_id": "C1104", "informal_rate": 0.111, "total_bldg": 487, "informal_bldg": 54 }, "geometry": { "type": "Polygon", "coordinates": [ [ [ 4.0, 11.0 ], [ 5.0, 11.0 ], [ 5.0, 12.0 ], [ 4.0, 12.0 ], [ 4.0, 11.0 ] ] ] } },
{ "type": "Feature", "properties": { "commune_id": "C1105", "informal_rate": 0.134, "total_bldg": 1142, "informal_bldg": 153 }, "geometry": { "type": "Polygon", "coordinates": [ [ [ 5.0, 11.0 ], [ 6.0, 11.0 ], [ 6.0, 12.0 ], [ 5.0, 12.0 ], [ 5.0, 11.0 ] ] ] } },
{ "type": "Feature", "properties": { "commune_id": "C1106", "informal_rate": 0.193, "total_bldg": 1053, "informal_bldg": 202 }, "geometry": { "type": "Polygon", "coordinates": [ [ [ 6.0, 11.0 ], [ 7.0, 11.0 ], [ 7.0, 12.0 ], [ 6.0, 12.0 ], [ 6.0, 11.0 ] ] ] } },
{ "type": "Feature", "properties": { "commune_id": "C1107", "informal_rate": 0.094, "total_bldg": 862, "informal_bldg": 80 }, "geometry": { "type": "Polygon", "coordinates": [ [ [ 7.0, 11.0 ], [ 8.0, 11.0 ], [ 8.0, 12.0 ], [ 7.0, 12.0 ], [ 7.0, 11.0 ] ] ] } },
{ "type": "Feature", "properties": { "commune_id": "C1108", "informal_rate": 0.17, "total_bldg": 1161, "informal_bldg": 197 }, "geometry": { "type": "Polygon", "coordinates": [ [ [ 8.0, 11.0 ], [ 9.0, 11.0 ], [ 9.0, 12.0 ], [ 8.0, 12.0 ], [ 8.0, 11.0 ] ] ] } },
{ "type": "Feature", "properties": { "commune_id": "C1109", "informal_rate": 0.224, "total_bldg": 838, "informal_bldg": 187 }, "geometry": { "type": "Polygon", "coordinates": [ [ [ 9.0, 11.0 ], [ 10.0, 11.0 ], [ 10.0, 12.0 ], [ 9.0, 12.0 ], [ 9.0, 11.0 ] ] ] } },
{ "type": "Feature", "properties": { "commune_id": "C1110", "informal_rate": 0.075, "total_bldg": 354, "informal_bldg": 26 }, "geometry": { "type": "Polygon", "coordinates": [ [ [ 10.0, 11.0 ], [ 11.0, 11.0 ], [ 11.0, 12.0 ], [ 10.0, 12.0 ], [ 10.0, 11.0 ] ] ] } },
{ "type": "Feature", "properties": { "commune_id": "C1111", "informal_rate": 0.161, "total_bldg": 689, "informal_bldg": 111 }, "geometry": { "type": "Polygon", "coordinates": [ [ [ 11.0, 11.0 ], [ 12.0, 11.0 ], [ 12.0, 12.0 ], [ 11.0, 12.0 ], [ 11.0, 11.0 ] ] ] } }
]
}
