{
"type": "FeatureCollection",
"name": "osm_roads",
"crs": { "type": "name", "properties": { "name": "urn:ogc:def:crs:EPSG::32648" } },
"features": [
{ "type": "Feature", "properties": { "zone_id": 0, "highway": "residential" }, "geometry": { "type": "LineString", "coordinates": [ [ 0.0, 0.0 ], [ 0.0, 1000.0 ] ] } },
{ "type": "Feature", "properties": { "zone_id": 0, "highway": "residential" }, "geometry": { "type": "LineString", "coordinates": [ [ 250.0, 0.0 ], [ 250.0, 1000.0 ] ] } },
{ "type": "Feature", "properties": { "zone_id": 0, "highway": "residential" }, "geometry": { "type": "LineString", "coordinates": [ [ 500.0, 0.0 ], [ 500.0, 1000.0 ] ] } },
{ "type": "Feature", "properties": { "zone_id": 0, "highway": "residential" }, "geometry": { "type": "LineString", "coordinates": [ [ 750.0, 0.0 ], [ 750.0, 1000.0 ] ] } },
{ "type": "Feature", "properties": { "zone_id": 0, "highway": "residential" }, "geometry": { "type": "LineString", "coordinates": [ [ 0.0, 0.0 ], [ 1000.0, 0.0 ] ] } },
{ "type": "Feature", "properties": { "zone_id": 0, "highway": "residential" }, "geometry": { "type": "LineString", "coordinates": [ [ 0.0, 250.0 ], [ 1000.0, 250.0 ] ] } },
{ "type": "Feature", "properties": { "zone_id": 0, "highway": "residential" }, "geometry": { "type": "LineString", "coordinates": [ [ 0.0, 500.0 ], [ 1000.0, 500.0 ] ] } },
{ "type": "Feature", "properties": { "zone_id": 0, "highway": "residential" }, "geometry": { "type": "LineString", "coordinates": [ [ 0.0, 750.0 ], [ 1000.0, 750.0 ] ] } },
{ "type": "Feature", "properties": { "zone_id": 1, "highway": "residential" }, "geometry": { "type": "LineString", "coordinates": [ [ 1000.0, 0.0 ], [ 1000.0, 1000.0 ] ] } },
{ "type": "Feature", "properties": { "zone_id": 1, "highway": "residential" }, "geometry": { "type": "LineString", "coordinates": [ [ 1250.0, 0.0 ], [ 1250.0, 1000.0 ] ] } },
{ "type": "Feature", "properties": { "zone_id": 1, "highway": "residential" }, "geometry": { "type": "LineString", "coordinates": [ [ 1500.0, 0.0 ], [ 1500.0, 1000.0 ] ] } },
{ "type": "Feature", "properties": { "zone_id": 1, "highway": "residential" }, "geometry": { "type": "LineString", "coordinates": [ [ 1750.0, 0.0 ], [ 1750.0, 1000.0 ] ] } },
{ "type": "Feature", "properties": { "zone_id": 1, "highway": "residential" }, "geometry": { "type": "LineString", "coordinates": [ [ 1000.0, 0.0 ], [ 2000.0, 0.0 ] ] } },
{ "type": "Feature", "properties": { "zone_id": 1, "highway": "residential" }, "geometry": { "type": "LineString", "coordinates": [ [ 1000.0, 250.0 ], [ 2000.0, 250.0 ] ] } },
{ "type": "Feature", "properties": { "zone_id": 1, "highway": "residential" }, "geometry": { "type": "LineString", "coordinates": [ [ 1000.0, 500.0 ], [ 2000.0, 500.0 ] ] } },
{ "type": "Feature", "properties": { "zone_id": 1, "highway": "residential" }, "geometry": { "type": "LineString", "coordinates": [ [ 1000.0, 750.0 ], [ 2000.0, 750.0 ] ] } },
{ "type": "Feature", "properties": { "zone_id": 2, "highway": "residential" }, "geometry": { "type": "LineString", "coordinates": [ [ 2000.0, 0.0 ], [ 2000.0, 1000.0 ] ] } },
{ "type": "Feature", "properties": { "zone_id": 2, "highway": "residential" }, "geometry": { "type": "LineString", "coordinates": [ [ 2250.0, 0.0 ], [ 2250.0, 1000.0 ] ] } },
{ "type": "Feature", "properties": { "zone_id": 2, "highway": "residential" }, "geometry": { "type": "LineString", "coordinates": [ [ 2500.0, 0.0 ], [ 2500.0, 1000.0 ] ] } },
{ "type": "Feature", "properties": { "zone_id": 2, "highway": "residential" }, "geometry": { "type": "LineString", "coordinates": [ [ 2750.0, 0.0 ], [ 2750.0, 1000.0 ] ] } },
{ "type": "Feature", "properties": { "zone_id": 2, "highway": "residential" }, "geometry": { "type": "LineString", "coordinates": [ [ 2000.0, 0.0 ], [ 3000.0, 0.0 ] ] } },
{ "type": "Feature", "properties": { "zone_id": 2, "highway": "residential" }, "geometry": { "type": "LineString", "coordinates": [ [ 2000.0, 250.0 ], [ 3000.0, 250.0 ] ] } },
{ "type": "Feature", "properties": { "zone_id": 2, "highway": "residential" }, "geometry": { "type": "LineString", "coordinates": [ [ 2000.0, 500.0 ], [ 3000.0, 500.0 ] ] } },
{ "type": "Feature", "properties": { "zone_id": 2, "highway": "residential" }, "geometry": { "type": "LineString", "coordinates": [ [ 2000.0, 750.0 ], [ 3000.0, 750.0 ] ] } },
{ "type": "Feature", "properties": { "zone_id": 3, "highway": "residential" }, "geometry": { "type": "LineString", "coordinates": [ [ 3000.0, 0.0 ], [ 3000.0, 1000.0 ] ] } },
{ "type": "Feature", "properties": { "zone_id": 3, "highway": "residential" }, "geometry": { "type": "LineString", "coordinates": [ [ 3250.0, 0.0 ], [ 3250.0, 1000.0 ] ] } },
{ "type": "Feature", "properties": { "zone_id": 3, "highway": "residential" }, "geometry": { "type": "LineString", "coordinates": [ [ 3500.0, 0.0 ], [ 3500.0, 1000.0 ] ] } },
{ "type": "Feature", "properties": { "zone_id": 3, "highway": "residential" }, "geometry": { "type": "LineString", "coordinates": [ [ 3750.0, 0.0 ], [ 3750.0, 1000.0 ] ] } },
{ "type": "Feature", "properties": { "zone_id": 3, "highway": "residential" }, "geometry": { "type": "LineString", "coordinates": [ [ 3000.0, 0.0 ], [ 4000.0, 0.0 ] ] } },
{ "type": "Feature", "properties": { "zone_id": 3, "highway": "residential" }, "geometry": { "type": "LineString", "coordinates": [ [ 3000.0, 250.0 ], [ 4000.0, 250.0 ] ] } },
{ "type": "Feature", "properties": { "zone_id": 3, "highway": "residential" }, "geometry": { "type": "LineString", "coordinates": [ [ 3000.0, 500.0 ], [ 4000.0, 500.0 ] ] } },
{ "type": "Feature", "properties": { "zone_id": 3, "highway": "residential" }, "geometry": { "type": "LineString", "coordinates": [ [ 3000.0, 750.0 ], [ 4000.0, 750.0 ] ] } },
{ "type": "Feature", "properties": { "zone_id": 4, "highway": "residential" }, "geometry": { "type": "LineString", "coordinates": [ [ 4705.849329122624113, 209.22658736296296 ], [ 4554.070856841088244, 242.111310644524849 ] ] } },
{ "type": "Feature", "properties": { "zone_id": 4, "highway": "residential" }, "geometry": { "type": "LineString", "coordinates": [ [ 4024.332937460719222, 701.363189537151698 ], [ 3958.18212414619984, 777.157599507139821 ] ] } },
{ "type": "Feature", "properties": { "zone_id": 4, "highway": "residential" }, "geometry": { "type": "LineString", "coordinates": [ [ 4637.154773586338706, 727.746196330204384 ], [ 4541.899799499421533, 839.593975656225325 ] ] } },
{ "type": "Feature", "properties": { "zone_id": 4, "highway": "residential" }, "geometry": { "type": "LineString", "coordinates": [ [ 4615.359343586848809, 404.008343803062701 ], [ 4579.199592774109988, 519.353502217896562 ] ] } },
{ "type": "Feature", "properties": { "zone_id": 4, "highway": "residential" }, "geometry": { "type": "LineString", "coordinates": [ [ 4028.680320767703961, 238.121317635931035 ], [ 4111.410214849502154, 265.153806897634752 ] ] } },
{ "type": "Feature", "properties": { "zone_id": 4, "highway": "residential" }, "geometry": { "type": "LineString", "coordinates": [ [ 4551.818355594139575, 176.630513398252305 ], [ 4649.149434184991151, 187.523280823457725 ] ] } },
{ "type": "Feature", "properties": { "zone_id": 4, "highway": "residential" }, "geometry": { "type": "LineString", "coordinates": [ [ 4460.078253520915496, 593.379296010565326 ], [ 4345.91676898939113, 614.067165541785585 ] ] } },
{ "type": "Feature", "properties": { "zone_id": 4, "highway": "residential" }, "geometry": { "type": "LineString", "coordinates": [ [ 4254.903149026546998, 373.925126409388156 ], [ 4091.652408537151587, 408.582959786116874 ] ] } },
{ "type": "Feature", "properties": { "zone_id": 4, "highway": "residential" }, "geometry": { "type": "LineString", "coordinates": [ [ 4664.573609279385892, 22.689780949284977 ], [ 4606.37271276838328, 147.93728193177364 ] ] } },
{ "type": "Feature", "properties": { "zone_id": 4, "highway": "residential" }, "geometry": { "type": "LineString", "coordinates": [ [ 4540.291995376980594, 937.618255259218131 ], [ 4470.211523126102293, 985.486631075207583 ] ] } },
{ "type": "Feature", "properties": { "zone_id": 4, "highway": "residential" }, "geometry": { "type": "LineString", "coordinates": [ [ 4122.575219972405648, 407.875526179858468 ], [ 4043.233962907700516, 508.442693928074391 ] ] } },
{ "type": "Feature", "properties": { "zone_id": 4, "highway": "residential" }, "geometry": { "type": "LineString", "coordinates": [ [ 4058.445150928952899, 321.997448997897038 ], [ 4113.635498591874239, 368.400676787918485 ] ] } },
{ "type": "Feature", "properties": { "zone_id": 4, "highway": "residential" }, "geometry": { "type": "LineString", "coordinates": [ [ 4967.289402598498782, 260.784522287601078 ], [ 4994.167330624782153, 382.137024074939973 ] ] } },
{ "type": "Feature", "properties": { "zone_id": 4, "highway": "residential" }, "geometry": { "type": "LineString", "coordinates": [ [ 4796.196477678838164, 398.960918049003681 ], [ 4731.904335927322791, 520.85841612652564 ] ] } },
{ "type": "Feature", "properties": { "zone_id": 4, "highway": "residential" }, "geometry": { "type": "LineString", "coordinates": [ [ 4636.367584259583964, 11.562057083121857 ], [ 4741.685010309478457, 99.983918584907599 ] ] } },
{ "type": "Feature", "properties": { "zone_id": 4, "highway": "residential" }, "geometry": { "type": "LineString", "coordinates": [ [ 4381.704064235870646, 613.299689706508389 ], [ 4322.131697226412143, 767.785031968467365 ] ] } },
{ "type": "Feature", "properties": { "zone_id": 4, "highway": "residential" }, "geometry": { "type": "LineString", "coordinates": [ [ 4697.254069586979313, 586.346385334132492 ], [ 4751.848785011092332, 678.066157928872258 ] ] } },
{ "type": "Feature", "properties": { "zone_id": 4, "highway": "residential" }, "geometry": { "type": "LineString", "coordinates": [ [ 4790.912346316564253, 828.786152159828589 ], [ 4700.554221972497544, 845.821566203911516 ] ] } },
{ "type": "Feature", "properties": { "zone_id": 4, "highway": "residential" }, "geometry": { "type": "LineString", "coordinates": [ [ 4963.797714633923533, 1.012308895311009 ], [ 4879.483755287630629, 46.960961496852867 ] ] } },
{ "type": "Feature", "properties": { "zone_id": 4, "highway": "residential" }, "geometry": { "type": "LineString", "coordinates": [ [ 4830.670550185670436, 438.445348253944985 ], [ 4919.913677297536196, 582.299679717712593 ] ] } },
{ "type": "Feature", "properties": { "zone_id": 4, "highway": "residential" }, "geometry": { "type": "LineString", "coordinates": [ [ 4587.58924673979709, 51.001720858715686 ], [ 4637.766906610785554, 190.615544750377325 ] ] } },
{ "type": "Feature", "properties": { "zone_id": 4, "highway": "residential" }, "geometry": { "type": "LineString", "coordinates": [ [ 4055.701485314698857, 206.269069441064374 ], [ 3981.520345233184344, 300.047368423325906 ] ] } },
{ "type": "Feature", "properties": { "zone_id": 4, "highway": "residential" }, "geometry": { "type": "LineString", "coordinates": [ [ 4422.1208187502898, 885.754057673878378 ], [ 4580.949748480183189, 933.639353630308733 ] ] } },
{ "type": "Feature", "properties": { "zone_id": 4, "highway": "residential" }, "geometry": { "type": "LineString", "coordinates": [ [ 4488.0864941716045, 733.334075257987479 ], [ 4369.353955497558673, 795.193751705281556 ] ] } },
{ "type": "Feature", "properties": { "zone_id": 5, "highway": "residential" }, "geometry": { "type": "LineString", "coordinates": [ [ 5000.0, 0.0 ], [ 5000.0, 1000.0 ] ] } },
{ "type": "Feature", "properties": { "zone_id": 5, "highway": "residential" }, "geometry": { "type": "LineString", "coordinates": [ [ 5250.0, 0.0 ], [ 5250.0, 1000.0 ] ] } },
{ "type": "Feature", "properties": { "zone_id": 5, "highway": "residential" }, "geometry": { "type": "LineString", "coordinates": [ [ 5500.0, 0.0 ], [ 5500.0, 1000.0 ] ] } },
{ "type": "Feature", "properties": { "zone_id": 5, "highway": "residential" }, "geometry": { "type": "LineString", "coordinates": [ [ 5750.0, 0.0 ], [ 5750.0, 1000.0 ] ] } },
{ "type": "Feature", "properties": { "zone_id": 5, "highway": "residential" }, "geometry": { "type": "LineString", "coordinates": [ [ 5000.0, 0.0 ], [ 6000.0, 0.0 ] ] } },
{ "type": "Feature", "properties": { "zone_id": 5, "highway": "residential" }, "geometry": { "type": "LineString", "coordinates": [ [ 5000.0, 250.0 ], [ 6000.0, 250.0 ] ] } },
{ "type": "Feature", "properties": { "zone_id": 5, "highway": "residential" }, "geometry": { "type": "LineString", "coordinates": [ [ 5000.0, 500.0 ], [ 6000.0, 500.0 ] ] } },
{ "type": "Feature", "properties": { "zone_id": 5, "highway": "residential" }, "geometry": { "type": "LineString", "coordinates": [ [ 5000.0, 750.0 ], [ 6000.0, 750.0 ] ] } },
{ "type": "Feature", "properties": { "zone_id": 6, "highway": "residential" }, "geometry": { "type": "LineString", "coordinates": [ [ 0.0, 1000.0 ], [ 0.0, 2000.0 ] ] } },
{ "type": "Feature", "properties": { "zone_id": 6, "highway": "residential" }, "geometry": { "type": "LineString", "coordinates": [ [ 250.0, 1000.0 ], [ 250.0, 2000.0 ] ] } },
{ "type": "Feature", "properties": { "zone_id": 6, "highway": "residential" }, "geometry": { "type": "LineString", "coordinates": [ [ 500.0, 1000.0 ], [ 500.0, 2000.0 ] ] } },
{ "type": "Feature", "properties": { "zone_id": 6, "highway": "residential" }, "geometry": { "type": "LineString", "coordinates": [ [ 750.0, 1000.0 ], [ 750.0, 2000.0 ] ] } },
{ "type": "Feature", "properties": { "zone_id": 6, "highway": "residential" }, "geometry": { "type": "LineString", "coordinates": [ [ 0.0, 1000.0 ], [ 1000.0, 1000.0 ] ] } },
{ "type": "Feature", "properties": { "zone_id": 6, "highway": "residential" }, "geometry": { "type": "LineString", "coordinates": [ [ 0.0, 1250.0 ], [ 1000.0, 1250.0 ] ] } },
{ "type": "Feature", "properties": { "zone_id": 6, "highway": "residential" }, "geometry": { "type": "LineString", "coordinates": [ [ 0.0, 1500.0 ], [ 1000.0, 1500.0 ] ] } },
{ "type": "Feature", "properties": { "zone_id": 6, "highway": "residential" }, "geometry": { "type": "LineString", "coordinates": [ [ 0.0, 1750.0 ], [ 1000.0, 1750.0 ] ] } },
{ "type": "Feature", "properties": { "zone_id": 7, "highway": "residential" }, "geometry": { "type": "LineString", "coordinates": [ [ 1000.0, 1000.0 ], [ 1000.0, 2000.0 ] ] } },
{ "type": "Feature", "properties": { "zone_id": 7, "highway": "residential" }, "geometry": { "type": "LineString", "coordinates": [ [ 1250.0, 1000.0 ], [ 1250.0, 2000.0 ] ] } },
{ "type": "Feature", "properties": { "zone_id": 7, "highway": "residential" }, "geometry": { "type": "LineString", "coordinates": [ [ 1500.0, 1000.0 ], [ 1500.0, 2000.0 ] ] } },
{ "type": "Feature", "properties": { "zone_id": 7, "highway": "residential" }, "geometry": { "type": "LineString", "coordinates": [ [ 1750.0, 1000.0 ], [ 1750.0, 2000.0 ] ] } },
{ "type": "Feature", "properties": { "zone_id": 7, "highway": "residential" }, "geometry": { "type": "LineString", "coordinates": [ [ 1000.0, 1000.0 ], [ 2000.0, 1000.0 ] ] } },
{ "type": "Feature", "properties": { "zone_id": 7, "highway": "residential" }, "geometry": { "type": "LineString", "coordinates": [ [ 1000.0, 1250.0 ], [ 2000.0, 1250.0 ] ] } },
{ "type": "Feature", "properties": { "zone_id": 7, "highway": "residential" }, "geometry": { "type": "LineString", "coordinates": [ [ 1000.0, 1500.0 ], [ 2000.0, 1500.0 ] ] } },
{ "type": "Feature", "properties": { "zone_id": 7, "highway": "residential" }, "geometry": { "type": "LineString", "coordinates": [ [ 1000.0, 1750.0 ], [ 2000.0, 1750.0 ] ] } },
{ "type": "Feature", "properties": { "zone_id": 8, "highway": "residential" }, "geometry": { "type": "LineString", "coordinates": [ [ 2000.0, 1000.0 ], [ 2000.0, 2000.0 ] ] } },
{ "type": "Feature", "properties": { "zone_id": 8, "highway": "residential" }, "geometry": { "type": "LineString", "coordinates": [ [ 2150.0, 1000.0 ], [ 2150.0, 2000.0 ] ] } },
{ "type": "Feature", "properties": { "zone_id": 8, "highway": "residential" }, "geometry": { "type": "LineString", "coordinates": [ [ 2300.0, 1000.0 ], [ 2300.0, 2000.0 ] ] } },
{ "type": "Feature", "properties": { "zone_id": 8, "highway": "residential" }, "geometry": { "type": "LineString", "coordinates": [ [ 2450.0, 1000.0 ], [ 2450.0, 2000.0 ] ] } },
{ "type": "Feature", "properties": { "zone_id": 8, "highway": "residential" }, "geometry": { "type": "LineString", "coordinates": [ [ 2600.0, 1000.0 ], [ 2600.0, 2000.0 ] ] } },
{ "type": "Feature", "properties": { "zone_id": 8, "highway": "residential" }, "geometry": { "type": "LineString", "coordinates": [ [ 2750.0, 1000.0 ], [ 2750.0, 2000.0 ] ] } },
{ "type": "Feature", "properties": { "zone_id": 8, "highway": "residential" }, "geometry": { "type": "LineString", "coordinates": [ [ 2900.0, 1000.0 ], [ 2900.0, 2000.0 ] ] } },
{ "type": "Feature", "properties": { "zone_id": 8, "highway": "residential" }, "geometry": { "type": "LineString", "coordinates": [ [ 2000.0, 1000.0 ], [ 3000.0, 1000.0 ] ] } },
{ "type": "Feature", "properties": { "zone_id": 8, "highway": "residential" }, "geometry": { "type": "LineString", "coordinates": [ [ 2000.0, 1150.0 ], [ 3000.0, 1150.0 ] ] } },
{ "type": "Feature", "properties": { "zone_id": 8, "highway": "residential" }, "geometry": { "type": "LineString", "coordinates": [ [ 2000.0, 1300.0 ], [ 3000.0, 1300.0 ] ] } },
{ "type": "Feature", "properties": { "zone_id": 8, "highway": "residential" }, "geometry": { "type": "LineString", "coordinates": [ [ 2000.0, 1450.0 ], [ 3000.0, 1450.0 ] ] } },
{ "type": "Feature", "properties": { "zone_id": 8, "highway": "residential" }, "geometry": { "type": "LineString", "coordinates": [ [ 2000.0, 1600.0 ], [ 3000.0, 1600.0 ] ] } },
{ "type": "Feature", "properties": { "zone_id": 8, "highway": "residential" }, "geometry": { "type": "LineString", "coordinates": [ [ 2000.0, 1750.0 ], [ 3000.0, 1750.0 ] ] } },
{ "type": "Feature", "properties": { "zone_id": 8, "highway": "residential" }, "geometry": { "type": "LineString", "coordinates": [ [ 2000.0, 1900.0 ], [ 3000.0, 1900.0 ] ] } },
{ "type": "Feature", "properties": { "zone_id": 9, "highway": "residential" }, "geometry": { "type": "LineString", "coordinates": [ [ 3000.0, 1000.0 ], [ 3000.0, 2000.0 ] ] } },
{ "type": "Feature", "properties": { "zone_id": 9, "highway": "residential" }, "geometry": { "type": "LineString", "coordinates": [ [ 3150.0, 1000.0 ], [ 3150.0, 2000.0 ] ] } },
{ "type": "Feature", "properties": { "zone_id": 9, "highway": "residential" }, "geometry": { "type": "LineString", "coordinates": [ [ 3300.0, 1000.0 ], [ 3300.0, 2000.0 ] ] } },
{ "type": "Feature", "properties": { "zone_id": 9, "highway": "residential" }, "geometry": { "type": "LineString", "coordinates": [ [ 3450.0, 1000.0 ], [ 3450.0, 2000.0 ] ] } },
{ "type": "Feature", "properties": { "zone_id": 9, "highway": "residential" }, "geometry": { "type": "LineString", "coordinates": [ [ 3600.0, 1000.0 ], [ 3600.0, 2000.0 ] ] } },
{ "type": "Feature", "properties": { "zone_id": 9, "highway": "residential" }, "geometry": { "type": "LineString", "coordinates": [ [ 3750.0, 1000.0 ], [ 3750.0, 2000.0 ] ] } },
{ "type": "Feature", "properties": { "zone_id": 9, "highway": "residential" }, "geometry": { "type": "LineString", "coordinates": [ [ 3900.0, 1000.0 ], [ 3900.0, 2000.0 ] ] } },
{ "type": "Feature", "properties": { "zone_id": 9, "highway": "residential" }, "geometry": { "type": "LineString", "coordinates": [ [ 3000.0, 1000.0 ], [ 4000.0, 1000.0 ] ] } },
{ "type": "Feature", "properties": { "zone_id": 9, "highway": "residential" }, "geometry": { "type": "LineString", "coordinates": [ [ 3000.0, 1150.0 ], [ 4000.0, 1150.0 ] ] } },
{ "type": "Feature", "properties": { "zone_id": 9, "highway": "residential" }, "geometry": { "type": "LineString", "coordinates": [ [ 3000.0, 1300.0 ], [ 4000.0, 1300.0 ] ] } },
{ "type": "Feature", "properties": { "zone_id": 9, "highway": "residential" }, "geometry": { "type": "LineString", "coordinates": [ [ 3000.0, 1450.0 ], [ 4000.0, 1450.0 ] ] } },
{ "type": "Feature", "properties": { "zone_id": 9, "highway": "residential" }, "geometry": { "type": "LineString", "coordinates": [ [ 3000.0, 1600.0 ], [ 4000.0, 1600.0 ] ] } },
{ "type": "Feature", "properties": { "zone_id": 9, "highway": "residential" }, "geometry": { "type": "LineString", "coordinates": [ [ 3000.0, 1750.0 ], [ 4000.0, 1750.0 ] ] } },
{ "type": "Feature", "properties": { "zone_id": 9, "highway": "residential" }, "geometry": { "type": "LineString", "coordinates": [ [ 3000.0, 1900.0 ], [ 4000.0, 1900.0 ] ] } },
{ "type": "Feature", "properties": { "zone_id": 10, "highway": "residential" }, "geometry": { "type": "LineString", "coordinates": [ [ 4297.412354859027801, 1659.817018920963392 ], [ 4467.390604858252118, 1705.9659432054234 ] ] } },
{ "type": "Feature", "properties": { "zone_id": 10, "highway": "residential" }, "geometry": { "type": "LineString", "coordinates": [ [ 4374.887443958518816, 1354.62082534870683 ], [ 4330.450681095871914, 1516.789284606869842 ] ] } },
{ "type": "Feature", "properties": { "zone_id": 10, "highway": "residential" }, "geometry": { "type": "LineString", "coordinates": [ [ 4905.072814521404325, 1405.065080942075838 ], [ 4990.325501516254008, 1474.543433421739337 ] ] } },
{ "type": "Feature", "properties": { "zone_id": 10, "highway": "residential" }, "geometry": { "type": "LineString", "coordinates": [ [ 4955.123143379270005, 1325.661339873548968 ], [ 5037.12861409929701, 1432.730875563814607 ] ] } },
{ "type": "Feature", "properties": { "zone_id": 10, "highway": "residential" }, "geometry": { "type": "LineString", "coordinates": [ [ 4269.755166798526261, 1140.456801883137359 ], [ 4154.031402874872583, 1251.102154879597038 ] ] } },
{ "type": "Feature", "properties": { "zone_id": 10, "highway": "residential" }, "geometry": { "type": "LineString", "coordinates": [ [ 4840.404624318208334, 1634.512266534477021 ], [ 4737.262560680291244, 1641.580826417073467 ] ] } },
{ "type": "Feature", "properties": { "zone_id": 10, "highway": "residential" }, "geometry": { "type": "LineString", "coordinates": [ [ 4498.672967730051823, 1173.973467974603182 ], [ 4544.989468637741993, 1261.230963824418268 ] ] } },
{ "type": "Feature", "properties": { "zone_id": 10, "highway": "residential" }, "geometry": { "type": "LineString", "coordinates": [ [ 4324.532207918595304, 1311.113581662542629 ], [ 4456.055178048416565, 1409.78892556245205 ] ] } },
{ "type": "Feature", "properties": { "zone_id": 10, "highway": "residential" }, "geometry": { "type": "LineString", "coordinates": [ [ 4362.860255902774952, 1039.582134424597143 ], [ 4522.422855249134955, 1115.14748365897276 ] ] } },
{ "type": "Feature", "properties": { "zone_id": 10, "highway": "residential" }, "geometry": { "type": "LineString", "coordinates": [ [ 4234.160175269505089, 1579.913919851672517 ], [ 4172.362704922804369, 1607.883387484748937 ] ] } },
{ "type": "Feature", "properties": { "zone_id": 10, "highway": "residential" }, "geometry": { "type": "LineString", "coordinates": [ [ 4330.584774039373769, 1747.235231598129985 ], [ 4331.677950516811507, 1872.336494480565079 ] ] } },
{ "type": "Feature", "properties": { "zone_id": 10, "highway": "residential" }, "geometry": { "type": "LineString", "coordinates": [ [ 4877.586581028188448, 1177.003983261972962 ], [ 4816.792629052246411, 1193.633992433915409 ] ] } },
{ "type": "Feature", "properties": { "zone_id": 10, "highway": "residential" }, "geometry": { "type": "LineString", "coordinates": [ [ 4408.565116628969918, 1436.574120323442003 ], [ 4375.120237956056371, 1613.345555633671893 ] ] } },
{ "type": "Feature", "properties": { "zone_id": 10, "highway": "residential" }, "geometry": { "type": "LineString", "coordinates": [ [ 4808.415948877510345, 1579.346963643231447 ], [ 4808.602472919761567, 1649.727786482405463 ] ] } },
{ "type": "Feature", "properties": { "zone_id": 10, "highway": "residential" }, "geometry": { "type": "LineString", "coordinates": [ [ 4405.17120196018368, 1136.185650820588762 ], [ 4426.824381284872288, 1256.967236346838263 ] ] } },
{ "type": "Feature", "properties": { "zone_id": 10, "highway": "residential" }, "geometry": { "type": "LineString", "coordinates": [ [ 4600.227533323885837, 1448.07116294469688 ], [ 4551.929316430243489, 1605.344967493213062 ] ] } },
{ "type": "Feature", "properties": { "zone_id": 10, "highway": "residential" }, "geometry": { "type": "LineString", "coordinates": [ [ 4897.07569952873564, 1631.006093255896076 ], [ 5036.24580720853919, 1676.615582359725295 ] ] } },
{ "type": "Feature", "properties": { "zone_id": 10, "highway": "residential" }, "geometry": { "type": "LineString", "coordinates": [ [ 4170.797765928848094, 1882.097506491597414 ], [ 4135.343980029821068, 2019.942431935013246 ] ] } },
{ "type": "Feature", "properties": { "zone_id": 10, "highway": "residential" }, "geometry": { "type": "LineString", "coordinates": [ [ 4064.145431109751371, 1189.662461149011051 ], [ 4120.930022466175615, 1217.687065219824035 ] ] } },
{ "type": "Feature", "properties": { "zone_id": 10, "highway": "residential" }, "geometry": { "type": "LineString", "coordinates": [ [ 4676.991595316523671, 1647.331735378508711 ], [ 4584.048520732860197, 1702.914464100191935 ] ] } },
{ "type": "Feature", "properties": { "zone_id": 10, "highway": "residential" }, "geometry": { "type": "LineString", "coordinates": [ [ 4265.628052133501114, 1513.726411770481945 ], [ 4197.180469500159234, 1586.216837009755864 ] ] } },
{ "type": "Feature", "properties": { "zone_id": 10, "highway": "residential" }, "geometry": { "type": "LineString", "coordinates": [ [ 4314.863598993281812, 1484.126852214416431 ], [ 4347.188909163439348, 1556.284112663907308 ] ] } },
{ "type": "Feature", "properties": { "zone_id": 11, "highway": "residential" }, "geometry": { "type": "LineString", "coordinates": [ [ 5215.77623105832572, 1187.658443253399582 ], [ 5118.33105245851948, 1223.984813546831901 ] ] } },
{ "type": "Feature", "properties": { "zone_id": 11, "highway": "residential" }, "geometry": { "type": "LineString", "coordinates": [ [ 5435.798045044280116, 1239.47297605666563 ], [ 5506.970178045519788, 1401.464073189795045 ] ] } },
{ "type": "Feature", "properties": { "zone_id": 11, "highway": "residential" }, "geometry": { "type": "LineString", "coordinates": [ [ 5679.702732573065077, 1965.436577211748499 ], [ 5604.194575979292495, 2020.649352632344289 ] ] } },
{ "type": "Feature", "properties": { "zone_id": 11, "highway": "residential" }, "geometry": { "type": "LineString", "coordinates": [ [ 5718.777702342449629, 1538.060013239886075 ], [ 5747.68564824832265, 1659.595778059926488 ] ] } },
{ "type": "Feature", "properties": { "zone_id": 11, "highway": "residential" }, "geometry": { "type": "LineString", "coordinates": [ [ 5504.315805021086817, 1526.629919810256069 ], [ 5614.286611799542698, 1643.702887494605193 ] ] } },
{ "type": "Feature", "properties": { "zone_id": 11, "highway": "residential" }, "geometry": { "type": "LineString", "coordinates": [ [ 5127.548559619863227, 1976.235700748400859 ], [ 5207.799502518361805, 1980.516453939189205 ] ] } },
{ "type": "Feature", "properties": { "zone_id": 11, "highway": "residential" }, "geometry": { "type": "LineString", "coordinates": [ [ 5260.497515579563697, 1409.080818726184134 ], [ 5294.900800492761846, 1475.038951184866164 ] ] } },
{ "type": "Feature", "properties": { "zone_id": 11, "highway": "residential" }, "geometry": { "type": "LineString", "coordinates": [ [ 5483.863584054040075, 1662.574022915945079 ], [ 5510.788320730837768, 1778.542649744865457 ] ] } },
{ "type": "Feature", "properties": { "zone_id": 11, "highway": "residential" }, "geometry": { "type": "LineString", "coordinates": [ [ 5145.885580135405689, 1654.189419997683672 ], [ 5205.029253000319841, 1809.191222397734691 ] ] } },
{ "type": "Feature", "properties": { "zone_id": 11, "highway": "residential" }, "geometry": { "type": "LineString", "coordinates": [ [ 5410.619584838377705, 1611.208138750685521 ], [ 5466.724920739600748, 1769.886113104618289 ] ] } },
{ "type": "Feature", "properties": { "zone_id": 11, "highway": "residential" }, "geometry": { "type": "LineString", "coordinates": [ [ 5939.795219448647913, 1860.569517736992111 ], [ 5846.723115341211269, 1876.12196511271668 ] ] } },
{ "type": "Feature", "properties": { "zone_id": 11, "highway": "residential" }, "geometry": { "type": "LineString", "coordinates": [ [ 5256.445357140774831, 1139.773392286781245 ], [ 5230.889538127416017, 1244.949078588143493 ] ] } },
{ "type": "Feature", "properties": { "zone_id": 11, "highway": "residential" }, "geometry": { "type": "LineString", "coordinates": [ [ 5876.745338234820338, 1201.865173395900911 ], [ 5946.721552816220537, 1214.857741638915286 ] ] } },
{ "type": "Feature", "properties": { "zone_id": 11, "highway": "residential" }, "geometry": { "type": "LineString", "coordinates": [ [ 5277.740306245631473, 1185.871097524880042 ], [ 5248.694308730876401, 1266.356334367699901 ] ] } },
{ "type": "Feature", "properties": { "zone_id": 11, "highway": "residential" }, "geometry": { "type": "LineString", "coordinates": [ [ 5719.562494269719537, 1880.768129523927428 ], [ 5773.814347183080827, 1920.409602411143851 ] ] } },
{ "type": "Feature", "properties": { "zone_id": 11, "highway": "residential" }, "geometry": { "type": "LineString", "coordinates": [ [ 5201.733430854608741, 1472.607717264149869 ], [ 5242.104191660190736, 1642.925632456461017 ] ] } },
{ "type": "Feature", "properties": { "zone_id": 11, "highway": "residential" }, "geometry": { "type": "LineString", "coordinates": [ [ 5898.023260320005647, 1789.656866182898966 ], [ 5766.462512015776156, 1908.334451771506338 ] ] } },
{ "type": "Feature", "properties": { "zone_id": 11, "highway": "residential" }, "geometry": { "type": "LineString", "coordinates": [ [ 5304.021639919428708, 1522.854322232537015 ], [ 5166.848103443755463, 1627.813950581434256 ] ] } },
{ "type": "Feature", "properties": { "zone_id": 11, "highway": "residential" }, "geometry": { "type": "LineString", "coordinates": [ [ 5372.869730331267419, 1918.098757989667774 ], [ 5269.902930220488088, 1973.805323835987338 ] ] } },
{ "type": "Feature", "properties": { "zone_id": 11, "highway": "residential" }, "geometry": { "type": "LineString", "coordinates": [ [ 5359.42860845389896, 1172.826748895310629 ], [ 5385.790277043262904, 1268.546062164779642 ] ] } },
{ "type": "Feature", "properties": { "zone_id": 12, "highway": "residential" }, "geometry": { "type": "LineString", "coordinates": [ [ 0.0, 2000.0 ], [ 0.0, 3000.0 ] ] } },
{ "type": "Feature", "properties": { "zone_id": 12, "highway": "residential" }, "geometry": { "type": "LineString", "coordinates": [ [ 250.0, 2000.0 ], [ 250.0, 3000.0 ] ] } },
{ "type": "Feature", "properties": { "zone_id": 12, "highway": "residential" }, "geometry": { "type": "LineString", "coordinates": [ [ 500.0, 2000.0 ], [ 500.0, 3000.0 ] ] } },
{ "type": "Feature", "properties": { "zone_id": 12, "highway": "residential" }, "geometry": { "type": "LineString", "coordinates": [ [ 750.0, 2000.0 ], [ 750.0, 3000.0 ] ] } },
{ "type": "Feature", "properties": { "zone_id": 12, "highway": "residential" }, "geometry": { "type": "LineString", "coordinates": [ [ 0.0, 2000.0 ], [ 1000.0, 2000.0 ] ] } },
{ "type": "Feature", "properties": { "zone_id": 12, "highway": "residential" }, "geometry": { "type": "LineString", "coordinates": [ [ 0.0, 2250.0 ], [ 1000.0, 2250.0 ] ] } },
{ "type": "Feature", "properties": { "zone_id": 12, "highway": "residential" }, "geometry": { "type": "LineString", "coordinates": [ [ 0.0, 2500.0 ], [ 1000.0, 2500.0 ] ] } },
{ "type": "Feature", "properties": { "zone_id": 12, "highway": "residential" }, "geometry": { "type": "LineString", "coordinates": [ [ 0.0, 2750.0 ], [ 1000.0, 2750.0 ] ] } },
{ "type": "Feature", "properties": { "zone_id": 13, "highway": "residential" }, "geometry": { "type": "LineString", "coordinates": [ [ 1000.0, 2000.0 ], [ 1000.0, 3000.0 ] ] } },
{ "type": "Feature", "properties": { "zone_id": 13, "highway": "residential" }, "geometry": { "type": "LineString", "coordinates": [ [ 1150.0, 2000.0 ], [ 1150.0, 3000.0 ] ] } },
{ "type": "Feature", "properties": { "zone_id": 13, "highway": "residential" }, "geometry": { "type": "LineString", "coordinates": [ [ 1300.0, 2000.0 ], [ 1300.0, 3000.0 ] ] } },
{ "type": "Feature", "properties": { "zone_id": 13, "highway": "residential" }, "geometry": { "type": "LineString", "coordinates": [ [ 1450.0, 2000.0 ], [ 1450.0, 3000.0 ] ] } },
{ "type": "Feature", "properties": { "zone_id": 13, "highway": "residential" }, "geometry": { "type": "LineString", "coordinates": [ [ 1600.0, 2000.0 ], [ 1600.0, 3000.0 ] ] } },
{ "type": "Feature", "properties": { "zone_id": 13, "highway": "residential" }, "geometry": { "type": "LineString", "coordinates": [ [ 1750.0, 2000.0 ], [ 1750.0, 3000.0 ] ] } },
{ "type": "Feature", "properties": { "zone_id": 13, "highway": "residential" }, "geometry": { "type": "LineString", "coordinates": [ [ 1900.0, 2000.0 ], [ 1900.0, 3000.0 ] ] } },
{ "type": "Feature", "properties": { "zone_id": 13, "highway": "residential" }, "geometry": { "type": "LineString", "coordinates": [ [ 1000.0, 2000.0 ], [ 2000.0, 2000.0 ] ] } },
{ "type": "Feature", "properties": { "zone_id": 13, "highway": "residential" }, "geometry": { "type": "LineString", "coordinates": [ [ 1000.0, 2150.0 ], [ 2000.0, 2150.0 ] ] } },
{ "type": "Feature", "properties": { "zone_id": 13, "highway": "residential" }, "geometry": { "type": "LineString", "coordinates": [ [ 1000.0, 2300.0 ], [ 2000.0, 2300.0 ] ] } },
{ "type": "Feature", "properties": { "zone_id": 13, "highway": "residential" }, "geometry": { "type": "LineString", "coordinates": [ [ 1000.0, 2450.0 ], [ 2000.0, 2450.0 ] ] } },
{ "type": "Feature", "properties": { "zone_id": 13, "highway": "residential" }, "geometry": { "type": "LineString", "coordinates": [ [ 1000.0, 2600.0 ], [ 2000.0, 2600.0 ] ] } },
{ "type": "Feature", "properties": { "zone_id": 13, "highway": "residential" }, "geometry": { "type": "LineString", "coordinates": [ [ 1000.0, 2750.0 ], [ 2000.0, 2750.0 ] ] } },
{ "type": "Feature", "properties": { "zone_id": 13, "highway": "residential" }, "geometry": { "type": "LineString", "coordinates": [ [ 1000.0, 2900.0 ], [ 2000.0, 2900.0 ] ] } },
{ "type": "Feature", "properties": { "zone_id": 14, "highway": "residential" }, "geometry": { "type": "LineString", "coordinates": [ [ 2000.0, 2000.0 ], [ 2000.0, 3000.0 ] ] } },
{ "type": "Feature", "properties": { "zone_id": 14, "highway": "residential" }, "geometry": { "type": "LineString", "coordinates": [ [ 2150.0, 2000.0 ], [ 2150.0, 3000.0 ] ] } },
{ "type": "Feature", "properties": { "zone_id": 14, "highway": "residential" }, "geometry": { "type": "LineString", "coordinates": [ [ 2300.0, 2000.0 ], [ 2300.0, 3000.0 ] ] } },
{ "type": "Feature", "properties": { "zone_id": 14, "highway": "residential" }, "geometry": { "type": "LineString", "coordinates": [ [ 2450.0, 2000.0 ], [ 2450.0, 3000.0 ] ] } },
{ "type": "Feature", "properties": { "zone_id": 14, "highway": "residential" }, "geometry": { "type": "LineString", "coordinates": [ [ 2600.0, 2000.0 ], [ 2600.0, 3000.0 ] ] } },
{ "type": "Feature", "properties": { "zone_id": 14, "highway": "residential" }, "geometry": { "type": "LineString", "coordinates": [ [ 2750.0, 2000.0 ], [ 2750.0, 3000.0 ] ] } },
{ "type": "Feature", "properties": { "zone_id": 14, "highway": "residential" }, "geometry": { "type": "LineString", "coordinates": [ [ 2900.0, 2000.0 ], [ 2900.0, 3000.0 ] ] } },
{ "type": "Feature", "properties": { "zone_id": 14, "highway": "residential" }, "geometry": { "type": "LineString", "coordinates": [ [ 2000.0, 2000.0 ], [ 3000.0, 2000.0 ] ] } },
{ "type": "Feature", "properties": { "zone_id": 14, "highway": "residential" }, "geometry": { "type": "LineString", "coordinates": [ [ 2000.0, 2150.0 ], [ 3000.0, 2150.0 ] ] } },
{ "type": "Feature", "properties": { "zone_id": 14, "highway": "residential" }, "geometry": { "type": "LineString", "coordinates": [ [ 2000.0, 2300.0 ], [ 3000.0, 2300.0 ] ] } },
{ "type": "Feature", "properties": { "zone_id": 14, "highway": "residential" }, "geometry": { "type": "LineString", "coordinates": [ [ 2000.0, 2450.0 ], [ 3000.0, 2450.0 ] ] } },
{ "type": "Feature", "properties": { "zone_id": 14, "highway": "residential" }, "geometry": { "type": "LineString", "coordinates": [ [ 2000.0, 2600.0 ], [ 3000.0, 2600.0 ] ] } },
{ "type": "Feature", "properties": { "zone_id": 14, "highway": "residential" }, "geometry": { "type": "LineString", "coordinates": [ [ 2000.0, 2750.0 ], [ 3000.0, 2750.0 ] ] } },
{ "type": "Feature", "properties": { "zone_id": 14, "highway": "residential" }, "geometry": { "type": "LineString", "coordinates": [ [ 2000.0, 2900.0 ], [ 3000.0, 2900.0 ] ] } },
{ "type": "Feature", "properties": { "zone_id": 15, "highway": "residential" }, "geometry": { "type": "LineString", "coordinates": [ [ 3000.0, 2000.0 ], [ 3000.0, 3000.0 ] ] } },
{ "type": "Feature", "properties": { "zone_id": 15, "highway": "residential" }, "geometry": { "type": "LineString", "coordinates": [ [ 3150.0, 2000.0 ], [ 3150.0, 3000.0 ] ] } },
{ "type": "Feature", "properties": { "zone_id": 15, "highway": "residential" }, "geometry": { "type": "LineString", "coordinates": [ [ 3300.0, 2000.0 ], [ 3300.0, 3000.0 ] ] } },
{ "type": "Feature", "properties": { "zone_id": 15, "highway": "residential" }, "geometry": { "type": "LineString", "coordinates": [ [ 3450.0, 2000.0 ], [ 3450.0, 3000.0 ] ] } },
{ "type": "Feature", "properties": { "zone_id": 15, "highway": "residential" }, "geometry": { "type": "LineString", "coordinates": [ [ 3600.0, 2000.0 ], [ 3600.0, 3000.0 ] ] } },
{ "type": "Feature", "properties": { "zone_id": 15, "highway": "residential" }, "geometry": { "type": "LineString", "coordinates": [ [ 3750.0, 2000.0 ], [ 3750.0, 3000.0 ] ] } },
{ "type": "Feature", "properties": { "zone_id": 15, "highway": "residential" }, "geometry": { "type": "LineString", "coordinates": [ [ 3900.0, 2000.0 ], [ 3900.0, 3000.0 ] ] } },
{ "type": "Feature", "properties": { "zone_id": 15, "highway": "residential" }, "geometry": { "type": "LineString", "coordinates": [ [ 3000.0, 2000.0 ], [ 4000.0, 2000.0 ] ] } },
{ "type": "Feature", "properties": { "zone_id": 15, "highway": "residential" }, "geometry": { "type": "LineString", "coordinates": [ [ 3000.0, 2150.0 ], [ 4000.0, 2150.0 ] ] } },
{ "type": "Feature", "properties": { "zone_id": 15, "highway": "residential" }, "geometry": { "type": "LineString", "coordinates": [ [ 3000.0, 2300.0 ], [ 4000.0, 2300.0 ] ] } },
{ "type": "Feature", "properties": { "zone_id": 15, "highway": "residential" }, "geometry": { "type": "LineString", "coordinates": [ [ 3000.0, 2450.0 ], [ 4000.0, 2450.0 ] ] } },
{ "type": "Feature", "properties": { "zone_id": 15, "highway": "residential" }, "geometry": { "type": "LineString", "coordinates": [ [ 3000.0, 2600.0 ], [ 4000.0, 2600.0 ] ] } },
{ "type": "Feature", "properties": { "zone_id": 15, "highway": "residential" }, "geometry": { "type": "LineString", "coordinates": [ [ 3000.0, 2750.0 ], [ 4000.0, 2750.0 ] ] } },
{ "type": "Feature", "properties": { "zone_id": 15, "highway": "residential" }, "geometry": { "type": "LineString", "coordinates": [ [ 3000.0, 2900.0 ], [ 4000.0, 2900.0 ] ] } },
{ "type": "Feature", "properties": { "zone_id": 16, "highway": "residential" }, "geometry": { "type": "LineString", "coordinates": [ [ 4000.0, 2000.0 ], [ 4000.0, 3000.0 ] ] } },
{ "type": "Feature", "properties": { "zone_id": 16, "highway": "residential" }, "geometry": { "type": "LineString", "coordinates": [ [ 4150.0, 2000.0 ], [ 4150.0, 3000.0 ] ] } },
{ "type": "Feature", "properties": { "zone_id": 16, "highway": "residential" }, "geometry": { "type": "LineString", "coordinates": [ [ 4300.0, 2000.0 ], [ 4300.0, 3000.0 ] ] } },
{ "type": "Feature", "properties": { "zone_id": 16, "highway": "residential" }, "geometry": { "type": "LineString", "coordinates": [ [ 4450.0, 2000.0 ], [ 4450.0, 3000.0 ] ] } },
{ "type": "Feature", "properties": { "zone_id": 16, "highway": "residential" }, "geometry": { "type": "LineString", "coordinates": [ [ 4600.0, 2000.0 ], [ 4600.0, 3000.0 ] ] } },
{ "type": "Feature", "properties": { "zone_id": 16, "highway": "residential" }, "geometry": { "type": "LineString", "coordinates": [ [ 4750.0, 2000.0 ], [ 4750.0, 3000.0 ] ] } },
{ "type": "Feature", "properties": { "zone_id": 16, "highway": "residential" }, "geometry": { "type": "LineString", "coordinates": [ [ 4900.0, 2000.0 ], [ 4900.0, 3000.0 ] ] } },
{ "type": "Feature", "properties": { "zone_id": 16, "highway": "residential" }, "geometry": { "type": "LineString", "coordinates": [ [ 4000.0, 2000.0 ], [ 5000.0, 2000.0 ] ] } },
{ "type": "Feature", "properties": { "zone_id": 16, "highway": "residential" }, "geometry": { "type": "LineString", "coordinates": [ [ 4000.0, 2150.0 ], [ 5000.0, 2150.0 ] ] } },
{ "type": "Feature", "properties": { "zone_id": 16, "highway": "residential" }, "geometry": { "type": "LineString", "coordinates": [ [ 4000.0, 2300.0 ], [ 5000.0, 2300.0 ] ] } },
{ "type": "Feature", "properties": { "zone_id": 16, "highway": "residential" }, "geometry": { "type": "LineString", "coordinates": [ [ 4000.0, 2450.0 ], [ 5000.0, 2450.0 ] ] } },
{ "type": "Feature", "properties": { "zone_id": 16, "highway": "residential" }, "geometry": { "type": "LineString", "coordinates": [ [ 4000.0, 2600.0 ], [ 5000.0, 2600.0 ] ] } },
{ "type": "Feature", "properties": { "zone_id": 16, "highway": "residential" }, "geometry": { "type": "LineString", "coordinates": [ [ 4000.0, 2750.0 ], [ 5000.0, 2750.0 ] ] } },
{ "type": "Feature", "properties": { "zone_id": 16, "highway": "residential" }, "geometry": { "type": "LineString", "coordinates": [ [ 4000.0, 2900.0 ], [ 5000.0, 2900.0 ] ] } },
{ "type": "Feature", "properties": { "zone_id": 17, "highway": "residential" }, "geometry": { "type": "LineString", "coordinates": [ [ 5000.0, 2000.0 ], [ 5000.0, 3000.0 ] ] } },
{ "type": "Feature", "properties": { "zone_id": 17, "highway": "residential" }, "geometry": { "type": "LineString", "coordinates": [ [ 5250.0, 2000.0 ], [ 5250.0, 3000.0 ] ] } },
{ "type": "Feature", "properties": { "zone_id": 17, "highway": "residential" }, "geometry": { "type": "LineString", "coordinates": [ [ 5500.0, 2000.0 ], [ 5500.0, 3000.0 ] ] } },
{ "type": "Feature", "properties": { "zone_id": 17, "highway": "residential" }, "geometry": { "type": "LineString", "coordinates": [ [ 5750.0, 2000.0 ], [ 5750.0, 3000.0 ] ] } },
{ "type": "Feature", "properties": { "zone_id": 17, "highway": "residential" }, "geometry": { "type": "LineString", "coordinates": [ [ 5000.0, 2000.0 ], [ 6000.0, 2000.0 ] ] } },
{ "type": "Feature", "properties": { "zone_id": 17, "highway": "residential" }, "geometry": { "type": "LineString", "coordinates": [ [ 5000.0, 2250.0 ], [ 6000.0, 2250.0 ] ] } },
{ "type": "Feature", "properties": { "zone_id": 17, "highway": "residential" }, "geometry": { "type": "LineString", "coordinates": [ [ 5000.0, 2500.0 ], [ 6000.0, 2500.0 ] ] } },
{ "type": "Feature", "properties": { "zone_id": 17, "highway": "residential" }, "geometry": { "type": "LineString", "coordinates": [ [ 5000.0, 2750.0 ], [ 6000.0, 2750.0 ] ] } },
{ "type": "Feature", "properties": { "zone_id": 18, "highway": "residential" }, "geometry": { "type": "LineString", "coordinates": [ [ 682.792908813547001, 3226.647627590306456 ], [ 593.145172319894868, 3349.61383418605692 ] ] } },
{ "type": "Feature", "properties": { "zone_id": 18, "highway": "residential" }, "geometry": { "type": "LineString", "coordinates": [ [ 78.943941574284523, 3709.66339130620463 ], [ 98.79011916973198, 3877.736086471375074 ] ] } },
{ "type": "Feature", "properties": { "zone_id": 18, "highway": "residential" }, "geometry": { "type": "LineString", "coordinates": [ [ 452.894045232096062, 3082.820480975616192 ], [ 387.393987672477465, 3167.046905527463878 ] ] } },
{ "type": "Feature", "properties": { "zone_id": 18, "highway": "residential" }, "geometry": { "type": "LineString", "coordinates": [ [ 944.634392875301501, 3681.471415515109584 ], [ 899.366711792247202, 3773.716412091545408 ] ] } },
{ "type": "Feature", "properties": { "zone_id": 18, "highway": "residential" }, "geometry": { "type": "LineString", "coordinates": [ [ 686.34521076860085, 3929.700270815703334 ], [ 761.648994824400233, 3979.788532804481292 ] ] } },
{ "type": "Feature", "properties": { "zone_id": 18, "highway": "residential" }, "geometry": { "type": "LineString", "coordinates": [ [ 374.331494229296766, 3917.34663665183416 ], [ 259.179319552414029, 4025.004260140068709 ] ] } },
{ "type": "Feature", "properties": { "zone_id": 18, "highway": "residential" }, "geometry": { "type": "LineString", "coordinates": [ [ 234.864291284479492, 3114.683685176385097 ], [ 364.433475836229604, 3185.486494018767189 ] ] } },
{ "type": "Feature", "properties": { "zone_id": 18, "highway": "residential" }, "geometry": { "type": "LineString", "coordinates": [ [ 801.804707624658022, 3079.205180289329292 ], [ 909.654569119408507, 3130.488308756555398 ] ] } },
{ "type": "Feature", "properties": { "zone_id": 18, "highway": "residential" }, "geometry": { "type": "LineString", "coordinates": [ [ 133.710989675397741, 3045.469485415796953 ], [ 89.176544504046262, 3163.569734961905397 ] ] } },
{ "type": "Feature", "properties": { "zone_id": 18, "highway": "residential" }, "geometry": { "type": "LineString", "coordinates": [ [ 63.568658744504567, 3796.555506536320991 ], [ 70.919921675977974, 3870.915210756203578 ] ] } },
{ "type": "Feature", "properties": { "zone_id": 18, "highway": "residential" }, "geometry": { "type": "LineString", "coordinates": [ [ 255.71868666540999, 3858.485540123626379 ], [ 197.453470154933825, 4000.108450459969845 ] ] } },
{ "type": "Feature", "properties": { "zone_id": 18, "highway": "residential" }, "geometry": { "type": "LineString", "coordinates": [ [ 426.326006826227456, 3652.445624903630687 ], [ 542.584522371100093, 3682.948116573774314 ] ] } },
{ "type": "Feature", "properties": { "zone_id": 18, "highway": "residential" }, "geometry": { "type": "LineString", "coordinates": [ [ 564.463467372260311, 3553.183089738538911 ], [ 704.896082575657601, 3606.773210678197302 ] ] } },
{ "type": "Feature", "properties": { "zone_id": 18, "highway": "residential" }, "geometry": { "type": "LineString", "coordinates": [ [ 255.16804513208146, 3688.126831245365338 ], [ 314.797851064167332, 3797.091030831420994 ] ] } },
{ "type": "Feature", "properties": { "zone_id": 18, "highway": "residential" }, "geometry": { "type": "LineString", "coordinates": [ [ 624.761391565219697, 3570.333110704749743 ], [ 683.852367713444892, 3688.98267849655349 ] ] } },
{ "type": "Feature", "properties": { "zone_id": 18, "highway": "residential" }, "geometry": { "type": "LineString", "coordinates": [ [ 767.556820551143915, 3253.52147698034014 ], [ 662.556769901144776, 3343.40844006657926 ] ] } },
{ "type": "Feature", "properties": { "zone_id": 18, "highway": "residential" }, "geometry": { "type": "LineString", "coordinates": [ [ 669.35563280052088, 3597.763278426377383 ], [ 726.847196461556223, 3649.991198493034517 ] ] } },
{ "type": "Feature", "properties": { "zone_id": 18, "highway": "residential" }, "geometry": { "type": "LineString", "coordinates": [ [ 427.672118817152068, 3873.270712923627343 ], [ 572.00967365452766, 3966.489432124872565 ] ] } },
{ "type": "Feature", "properties": { "zone_id": 18, "highway": "residential" }, "geometry": { "type": "LineString", "coordinates": [ [ 279.585599208549525, 3711.300794185133327 ], [ 202.190300198657326, 3847.351850338499844 ] ] } },
{ "type": "Feature", "properties": { "zone_id": 18, "highway": "residential" }, "geometry": { "type": "LineString", "coordinates": [ [ 493.447099642454702, 3101.971220798652212 ], [ 418.739110487906828, 3117.302381181802957 ] ] } },
{ "type": "Feature", "properties": { "zone_id": 19, "highway": "residential" }, "geometry": { "type": "LineString", "coordinates": [ [ 1841.19794556505758, 3748.363321369141886 ], [ 1907.260555779537981, 3854.086086903715568 ] ] } },
{ "type": "Feature", "properties": { "zone_id": 19, "highway": "residential" }, "geometry": { "type": "LineString", "coordinates": [ [ 1454.019911536826385, 3267.213876824169802 ], [ 1447.27917439466728, 3371.068657821479974 ] ] } },
{ "type": "Feature", "properties": { "zone_id": 19, "highway": "residential" }, "geometry": { "type": "LineString", "coordinates": [ [ 1762.336670501302024, 3734.151091885144979 ], [ 1880.950192430717152, 3753.044567171223662 ] ] } },
{ "type": "Feature", "properties": { "zone_id": 19, "highway": "residential" }, "geometry": { "type": "LineString", "coordinates": [ [ 1822.769498282446648, 3938.490629044285015 ], [ 1692.948483167209815, 4054.584819122467252 ] ] } },
{ "type": "Feature", "properties": { "zone_id": 19, "highway": "residential" }, "geometry": { "type": "LineString", "coordinates": [ [ 1358.311489766765135, 3232.782148843865798 ], [ 1301.072342129349181, 3285.780508496405673 ] ] } },
{ "type": "Feature", "properties": { "zone_id": 19, "highway": "residential" }, "geometry": { "type": "LineString", "coordinates": [ [ 1824.11326968191679, 3553.030713961497895 ], [ 1894.478111564568735, 3555.834601882853349 ] ] } },
{ "type": "Feature", "properties": { "zone_id": 19, "highway": "residential" }, "geometry": { "type": "LineString", "coordinates": [ [ 1012.707231154365672, 3793.714040632870365 ], [ 1167.546461969748862, 3822.976646246886958 ] ] } },
{ "type": "Feature", "properties": { "zone_id": 19, "highway": "residential" }, "geometry": { "type": "LineString", "coordinates": [ [ 1862.639203453117716, 3768.868031400766995 ], [ 1988.455333392668308, 3780.190522769970357 ] ] } },
{ "type": "Feature", "properties": { "zone_id": 19, "highway": "residential" }, "geometry": { "type": "LineString", "coordinates": [ [ 1032.283184769772561, 3140.692897912677836 ], [ 904.69248908359873, 3187.55231241385718 ] ] } },
{ "type": "Feature", "properties": { "zone_id": 19, "highway": "residential" }, "geometry": { "type": "LineString", "coordinates": [ [ 1285.384302833168249, 3989.78759295378859 ], [ 1245.259583175634589, 4081.020365483276692 ] ] } },
{ "type": "Feature", "properties": { "zone_id": 19, "highway": "residential" }, "geometry": { "type": "LineString", "coordinates": [ [ 1285.276404248520521, 3695.249863434261442 ], [ 1412.320870774345849, 3741.252172270363644 ] ] } },
{ "type": "Feature", "properties": { "zone_id": 19, "highway": "residential" }, "geometry": { "type": "LineString", "coordinates": [ [ 1177.19642854675908, 3347.47445304435405 ], [ 1084.551168649371903, 3441.484453223527453 ] ] } },
{ "type": "Feature", "properties": { "zone_id": 19, "highway": "residential" }, "geometry": { "type": "LineString", "coordinates": [ [ 1781.448330228397936, 3053.046324698394073 ], [ 1940.312680827409167, 3116.753144512432755 ] ] } },
{ "type": "Feature", "properties": { "zone_id": 19, "highway": "residential" }, "geometry": { "type": "LineString", "coordinates": [ [ 1529.271011776274463, 3986.498856731421711 ], [ 1461.372919152457825, 4070.209064372898411 ] ] } },
{ "type": "Feature", "properties": { "zone_id": 19, "highway": "residential" }, "geometry": { "type": "LineString", "coordinates": [ [ 1060.622846863059976, 3779.802270226715791 ], [ 1012.320799659829731, 3847.137076174467438 ] ] } },
{ "type": "Feature", "properties": { "zone_id": 19, "highway": "residential" }, "geometry": { "type": "LineString", "coordinates": [ [ 1502.40595080722187, 3678.063079301961807 ], [ 1627.276052196956243, 3774.469647092024843 ] ] } },
{ "type": "Feature", "properties": { "zone_id": 19, "highway": "residential" }, "geometry": { "type": "LineString", "coordinates": [ [ 1673.366169162849019, 3234.017313780232598 ], [ 1674.530532958506001, 3403.461497047743251 ] ] } },
{ "type": "Feature", "properties": { "zone_id": 19, "highway": "residential" }, "geometry": { "type": "LineString", "coordinates": [ [ 1488.772870968831285, 3204.84372522738613 ], [ 1389.900534363986026, 3245.19489336617562 ] ] } },
{ "type": "Feature", "properties": { "zone_id": 19, "highway": "residential" }, "geometry": { "type": "LineString", "coordinates": [ [ 1001.595307632895128, 3074.201120678387724 ], [ 1079.057146129854573, 3152.869665011269262 ] ] } },
{ "type": "Feature", "properties": { "zone_id": 19, "highway": "residential" }, "geometry": { "type": "LineString", "coordinates": [ [ 1626.660904263751945, 3516.075956973693337 ], [ 1759.296710453224478, 3623.095603827058312 ] ] } },
{ "type": "Feature", "properties": { "zone_id": 19, "highway": "residential" }, "geometry": { "type": "LineString", "coordinates": [ [ 1119.882621512789001, 3179.746822310617972 ], [ 974.827251242096395, 3180.643670110641324 ] ] } },
{ "type": "Feature", "properties": { "zone_id": 19, "highway": "residential" }, "geometry": { "type": "LineString", "coordinates": [ [ 1936.156172388306004, 3870.648445888647075 ], [ 1889.718769538395009, 3935.562783752485302 ] ] } },
{ "type": "Feature", "properties": { "zone_id": 19, "highway": "residential" }, "geometry": { "type": "LineString", "coordinates": [ [ 1553.215334805161774, 3468.372858438208368 ], [ 1557.750999237362976, 3581.491072208812511 ] ] } },
{ "type": "Feature", "properties": { "zone_id": 20, "highway": "residential" }, "geometry": { "type": "LineString", "coordinates": [ [ 2588.943374188007056, 3577.23994267673379 ], [ 2591.643422415219902, 3754.167468580531022 ] ] } },
{ "type": "Feature", "properties": { "zone_id": 20, "highway": "residential" }, "geometry": { "type": "LineString", "coordinates": [ [ 2423.826587044293774, 3343.94306621328542 ], [ 2289.870433367108035, 3425.858223158477813 ] ] } },
{ "type": "Feature", "properties": { "zone_id": 20, "highway": "residential" }, "geometry": { "type": "LineString", "coordinates": [ [ 2995.405712671808942, 3398.58315788507025 ], [ 3089.081931402749888, 3455.716572818048007 ] ] } },
{ "type": "Feature", "properties": { "zone_id": 20, "highway": "residential" }, "geometry": { "type": "LineString", "coordinates": [ [ 2853.598749518567274, 3038.530318286986585 ], [ 2760.20937512583032, 3040.042693160951785 ] ] } },
{ "type": "Feature", "properties": { "zone_id": 20, "highway": "residential" }, "geometry": { "type": "LineString", "coordinates": [ [ 2371.740738997087192, 3413.694480666016261 ], [ 2452.843282042614646, 3529.003692568949646 ] ] } },
{ "type": "Feature", "properties": { "zone_id": 20, "highway": "residential" }, "geometry": { "type": "LineString", "coordinates": [ [ 2502.12399945613015, 3689.827004090499941 ], [ 2578.62379349602179, 3710.999930673352083 ] ] } },
{ "type": "Feature", "properties": { "zone_id": 20, "highway": "residential" }, "geometry": { "type": "LineString", "coordinates": [ [ 2317.080516431424257, 3723.128613202630277 ], [ 2383.283862070327359, 3748.136214782415209 ] ] } },
{ "type": "Feature", "properties": { "zone_id": 20, "highway": "residential" }, "geometry": { "type": "LineString", "coordinates": [ [ 2226.079995806951956, 3031.610231537086747 ], [ 2276.477983338423655, 3200.946502328389215 ] ] } },
{ "type": "Feature", "properties": { "zone_id": 20, "highway": "residential" }, "geometry": { "type": "LineString", "coordinates": [ [ 2635.706823049652485, 3911.876684926618964 ], [ 2663.415910302348493, 3989.629093813020972 ] ] } },
{ "type": "Feature", "properties": { "zone_id": 20, "highway": "residential" }, "geometry": { "type": "LineString", "coordinates": [ [ 2353.818764433316574, 3180.786722495285176 ], [ 2263.767228656147836, 3307.514811492052559 ] ] } },
{ "type": "Feature", "properties": { "zone_id": 20, "highway": "residential" }, "geometry": { "type": "LineString", "coordinates": [ [ 2027.493535521932245, 3125.468966716232899 ], [ 2111.021571789729023, 3126.21906590262779 ] ] } },
{ "type": "Feature", "properties": { "zone_id": 20, "highway": "residential" }, "geometry": { "type": "LineString", "coordinates": [ [ 2033.608211591380041, 3851.417999798335131 ], [ 2176.555012812219502, 3916.098157440560499 ] ] } },
{ "type": "Feature", "properties": { "zone_id": 20, "highway": "residential" }, "geometry": { "type": "LineString", "coordinates": [ [ 2970.77765026841098, 3715.290420299900688 ], [ 3002.791731344307664, 3778.971976663347959 ] ] } },
{ "type": "Feature", "properties": { "zone_id": 20, "highway": "residential" }, "geometry": { "type": "LineString", "coordinates": [ [ 2389.402283548864943, 3931.981400971343646 ], [ 2417.855926510749669, 4038.020079188884665 ] ] } },
{ "type": "Feature", "properties": { "zone_id": 20, "highway": "residential" }, "geometry": { "type": "LineString", "coordinates": [ [ 2297.350040520252151, 3227.460295524664161 ], [ 2209.341077891582245, 3280.800580255885052 ] ] } },
{ "type": "Feature", "properties": { "zone_id": 20, "highway": "residential" }, "geometry": { "type": "LineString", "coordinates": [ [ 2131.684228896308014, 3725.259293477594838 ], [ 2205.355010309381214, 3887.346780732182197 ] ] } },
{ "type": "Feature", "properties": { "zone_id": 20, "highway": "residential" }, "geometry": { "type": "LineString", "coordinates": [ [ 2958.554492565079727, 3427.899739520195908 ], [ 2928.329173594782787, 3525.162590888843624 ] ] } },
{ "type": "Feature", "properties": { "zone_id": 20, "highway": "residential" }, "geometry": { "type": "LineString", "coordinates": [ [ 2921.842826254706779, 3199.206759197182691 ], [ 2879.403422861352283, 3267.901614112476182 ] ] } },
{ "type": "Feature", "properties": { "zone_id": 20, "highway": "residential" }, "geometry": { "type": "LineString", "coordinates": [ [ 2449.422511556799691, 3756.109116911261481 ], [ 2546.328697813245071, 3767.736879882147605 ] ] } },
{ "type": "Feature", "properties": { "zone_id": 20, "highway": "residential" }, "geometry": { "type": "LineString", "coordinates": [ [ 2658.31937100092955, 3027.597387478641849 ], [ 2742.778318722563654, 3065.082728200474776 ] ] } },
{ "type": "Feature", "properties": { "zone_id": 20, "highway": "residential" }, "geometry": { "type": "LineString", "coordinates": [ [ 2804.534745083114558, 3132.818678612884923 ], [ 2960.62557573632057, 3202.853031708566505 ] ] } },
{ "type": "Feature", "properties": { "zone_id": 21, "highway": "residential" }, "geometry": { "type": "LineString", "coordinates": [ [ 3000.0, 3000.0 ], [ 3000.0, 4000.0 ] ] } },
{ "type": "Feature", "properties": { "zone_id": 21, "highway": "residential" }, "geometry": { "type": "LineString", "coordinates": [ [ 3150.0, 3000.0 ], [ 3150.0, 4000.0 ] ] } },
{ "type": "Feature", "properties": { "zone_id": 21, "highway": "residential" }, "geometry": { "type": "LineString", "coordinates": [ [ 3300.0, 3000.0 ], [ 3300.0, 4000.0 ] ] } },
{ "type": "Feature", "properties": { "zone_id": 21, "highway": "residential" }, "geometry": { "type": "LineString", "coordinates": [ [ 3450.0, 3000.0 ], [ 3450.0, 4000.0 ] ] } },
{ "type": "Feature", "properties": { "zone_id": 21, "highway": "residential" }, "geometry": { "type": "LineString", "coordinates": [ [ 3600.0, 3000.0 ], [ 3600.0, 4000.0 ] ] } },
{ "type": "Feature", "properties": { "zone_id": 21, "highway": "residential" }, "geometry": { "type": "LineString", "coordinates": [ [ 3750.0, 3000.0 ], [ 3750.0, 4000.0 ] ] } },
{ "type": "Feature", "properties": { "zone_id": 21, "highway": "residential" }, "geometry": { "type": "LineString", "coordinates": [ [ 3900.0, 3000.0 ], [ 3900.0, 4000.0 ] ] } },
{ "type": "Feature", "properties": { "zone_id": 21, "highway": "residential" }, "geometry": { "type": "LineString", "coordinates": [ [ 3000.0, 3000.0 ], [ 4000.0, 3000.0 ] ] } },
{ "type": "Feature", "properties": { "zone_id": 21, "highway": "residential" }, "geometry": { "type": "LineString", "coordinates": [ [ 3000.0, 3150.0 ], [ 4000.0, 3150.0 ] ] } },
{ "type": "Feature", "properties": { "zone_id": 21, "highway": "residential" }, "geometry": { "type": "LineString", "coordinates": [ [ 3000.0, 3300.0 ], [ 4000.0, 3300.0 ] ] } },
{ "type": "Feature", "properties": { "zone_id": 21, "highway": "residential" }, "geometry": { "type": "LineString", "coordinates": [ [ 3000.0, 3450.0 ], [ 4000.0, 3450.0 ] ] } },
{ "type": "Feature", "properties": { "zone_id": 21, "highway": "residential" }, "geometry": { "type": "LineString", "coordinates": [ [ 3000.0, 3600.0 ], [ 4000.0, 3600.0 ] ] } },
{ "type": "Feature", "properties": { "zone_id": 21, "highway": "residential" }, "geometry": { "type": "LineString", "coordinates": [ [ 3000.0, 3750.0 ], [ 4000.0, 3750.0 ] ] } },
{ "type": "Feature", "properties": { "zone_id": 21, "highway": "residential" }, "geometry": { "type": "LineString", "coordinates": [ [ 3000.0, 3900.0 ], [ 4000.0, 3900.0 ] ] } },
{ "type": "Feature", "properties": { "zone_id": 22, "highway": "residential" }, "geometry": { "type": "LineString", "coordinates": [ [ 4000.0, 3000.0 ], [ 4000.0, 4000.0 ] ] } },
{ "type": "Feature", "properties": { "zone_id": 22, "highway": "residential" }, "geometry": { "type": "LineString", "coordinates": [ [ 4150.0, 3000.0 ], [ 4150.0, 4000.0 ] ] } },
{ "type": "Feature", "properties": { "zone_id": 22, "highway": "residential" }, "geometry": { "type": "LineString", "coordinates": [ [ 4300.0, 3000.0 ], [ 4300.0, 4000.0 ] ] } },
{ "type": "Feature", "properties": { "zone_id": 22, "highway": "residential" }, "geometry": { "type": "LineString", "coordinates": [ [ 4450.0, 3000.0 ], [ 4450.0, 4000.0 ] ] } },
{ "type": "Feature", "properties": { "zone_id": 22, "highway": "residential" }, "geometry": { "type": "LineString", "coordinates": [ [ 4600.0, 3000.0 ], [ 4600.0, 4000.0 ] ] } },
{ "type": "Feature", "properties": { "zone_id": 22, "highway": "residential" }, "geometry": { "type": "LineString", "coordinates": [ [ 4750.0, 3000.0 ], [ 4750.0, 4000.0 ] ] } },
{ "type": "Feature", "properties": { "zone_id": 22, "highway": "residential" }, "geometry": { "type": "LineString", "coordinates": [ [ 4900.0, 3000.0 ], [ 4900.0, 4000.0 ] ] } },
{ "type": "Feature", "properties": { "zone_id": 22, "highway": "residential" }, "geometry": { "type": "LineString", "coordinates": [ [ 4000.0, 3000.0 ], [ 5000.0, 3000.0 ] ] } },
{ "type": "Feature", "properties": { "zone_id": 22, "highway": "residential" }, "geometry": { "type": "LineString", "coordinates": [ [ 4000.0, 3150.0 ], [ 5000.0, 3150.0 ] ] } },
{ "type": "Feature", "properties": { "zone_id": 22, "highway": "residential" }, "geometry": { "type": "LineString", "coordinates": [ [ 4000.0, 3300.0 ], [ 5000.0, 3300.0 ] ] } },
{ "type": "Feature", "properties": { "zone_id": 22, "highway": "residential" }, "geometry": { "type": "LineString", "coordinates": [ [ 4000.0, 3450.0 ], [ 5000.0, 3450.0 ] ] } },
{ "type": "Feature", "properties": { "zone_id": 22, "highway": "residential" }, "geometry": { "type": "LineString", "coordinates": [ [ 4000.0, 3600.0 ], [ 5000.0, 3600.0 ] ] } },
{ "type": "Feature", "properties": { "zone_id": 22, "highway": "residential" }, "geometry": { "type": "LineString", "coordinates": [ [ 4000.0, 3750.0 ], [ 5000.0, 3750.0 ] ] } },
{ "type": "Feature", "properties": { "zone_id": 22, "highway": "residential" }, "geometry": { "type": "LineString", "coordinates": [ [ 4000.0, 3900.0 ], [ 5000.0, 3900.0 ] ] } },
{ "type": "Feature", "properties": { "zone_id": 23, "highway": "residential" }, "geometry": { "type": "LineString", "coordinates": [ [ 5000.0, 3000.0 ], [ 5000.0, 4000.0 ] ] } },
{ "type": "Feature", "properties": { "zone_id": 23, "highway": "residential" }, "geometry": { "type": "LineString", "coordinates": [ [ 5250.0, 3000.0 ], [ 5250.0, 4000.0 ] ] } },
{ "type": "Feature", "properties": { "zone_id": 23, "highway": "residential" }, "geometry": { "type": "LineString", "coordinates": [ [ 5500.0, 3000.0 ], [ 5500.0, 4000.0 ] ] } },
{ "type": "Feature", "properties": { "zone_id": 23, "highway": "residential" }, "geometry": { "type": "LineString", "coordinates": [ [ 5750.0, 3000.0 ], [ 5750.0, 4000.0 ] ] } },
{ "type": "Feature", "properties": { "zone_id": 23, "highway": "residential" }, "geometry": { "type": "LineString", "coordinates": [ [ 5000.0, 3000.0 ], [ 6000.0, 3000.0 ] ] } },
{ "type": "Feature", "properties": { "zone_id": 23, "highway": "residential" }, "geometry": { "type": "LineString", "coordinates": [ [ 5000.0, 3250.0 ], [ 6000.0, 3250.0 ] ] } },
{ "type": "Feature", "properties": { "zone_id": 23, "highway": "residential" }, "geometry": { "type": "LineString", "coordinates": [ [ 5000.0, 3500.0 ], [ 6000.0, 3500.0 ] ] } },
{ "type": "Feature", "properties": { "zone_id": 23, "highway": "residential" }, "geometry": { "type": "LineString", "coordinates": [ [ 5000.0, 3750.0 ], [ 6000.0, 3750.0 ] ] } },
{ "type": "Feature", "properties": { "zone_id": 24, "highway": "residential" }, "geometry": { "type": "LineString", "coordinates": [ [ 672.455270965465502, 4298.962927023821976 ], [ 688.079813438406859, 4430.650856076443233 ] ] } },
{ "type": "Feature", "properties": { "zone_id": 24, "highway": "residential" }, "geometry": { "type": "LineString", "coordinates": [ [ 161.163097013585656, 4123.77820385974519 ], [ 107.39127822980069, 4269.678265154725523 ] ] } },
{ "type": "Feature", "properties": { "zone_id": 24, "highway": "residential" }, "geometry": { "type": "LineString", "coordinates": [ [ 160.973348686116225, 4599.165308679328518 ], [ 253.752503841275598, 4725.313171245015837 ] ] } },
{ "type": "Feature", "properties": { "zone_id": 24, "highway": "residential" }, "geometry": { "type": "LineString", "coordinates": [ [ 304.738489796397971, 4886.344838969190278 ], [ 386.7352240923978, 5030.704672928422042 ] ] } },
{ "type": "Feature", "properties": { "zone_id": 24, "highway": "residential" }, "geometry": { "type": "LineString", "coordinates": [ [ 49.796254558984067, 4081.169249286239392 ], [ 103.764666063094225, 4230.919947826070711 ] ] } },
{ "type": "Feature", "properties": { "zone_id": 24, "highway": "residential" }, "geometry": { "type": "LineString", "coordinates": [ [ 41.766444546557643, 4765.495202784946741 ], [ 9.113564561095835, 4843.087036166818507 ] ] } },
{ "type": "Feature", "properties": { "zone_id": 24, "highway": "residential" }, "geometry": { "type": "LineString", "coordinates": [ [ 826.16138486784223, 4249.231549537572391 ], [ 746.159787993460213, 4270.003135247638966 ] ] } },
{ "type": "Feature", "properties": { "zone_id": 24, "highway": "residential" }, "geometry": { "type": "LineString", "coordinates": [ [ 334.666929356166293, 4121.924770464386711 ], [ 277.300752471908936, 4179.623721869120345 ] ] } },
{ "type": "Feature", "properties": { "zone_id": 24, "highway": "residential" }, "geometry": { "type": "LineString", "coordinates": [ [ 434.986627101053045, 4727.797716352794851 ], [ 538.79489091654159, 4740.901089208470694 ] ] } },
{ "type": "Feature", "properties": { "zone_id": 24, "highway": "residential" }, "geometry": { "type": "LineString", "coordinates": [ [ 572.297266945679894, 4569.768383334722785 ], [ 522.635233232590281, 4622.914850073686466 ] ] } },
{ "type": "Feature", "properties": { "zone_id": 24, "highway": "residential" }, "geometry": { "type": "LineString", "coordinates": [ [ 670.823023760421279, 4458.080338937396846 ], [ 621.740545347780881, 4503.78260556411351 ] ] } },
{ "type": "Feature", "properties": { "zone_id": 24, "highway": "residential" }, "geometry": { "type": "LineString", "coordinates": [ [ 41.872535915811305, 4534.000031882796975 ], [ 192.538605568025019, 4619.011168680522132 ] ] } },
{ "type": "Feature", "properties": { "zone_id": 24, "highway": "residential" }, "geometry": { "type": "LineString", "coordinates": [ [ 950.327631366095147, 4632.359443276045567 ], [ 1108.131158718701727, 4684.65275806689715 ] ] } },
{ "type": "Feature", "properties": { "zone_id": 24, "highway": "residential" }, "geometry": { "type": "LineString", "coordinates": [ [ 665.259306360200185, 4915.861910587813327 ], [ 661.722328563092447, 5084.919947393226721 ] ] } },
{ "type": "Feature", "properties": { "zone_id": 24, "highway": "residential" }, "geometry": { "type": "LineString", "coordinates": [ [ 6.781301110551863, 4143.97034465406341 ], [ -146.318983074846074, 4190.752395437281848 ] ] } },
{ "type": "Feature", "properties": { "zone_id": 24, "highway": "residential" }, "geometry": { "type": "LineString", "coordinates": [ [ 444.372869452486441, 4476.79994287782938 ], [ 357.793098291619799, 4524.370956337009375 ] ] } },
{ "type": "Feature", "properties": { "zone_id": 24, "highway": "residential" }, "geometry": { "type": "LineString", "coordinates": [ [ 802.120701870294056, 4536.918938832302047 ], [ 649.538297800145756, 4569.086916974896667 ] ] } },
{ "type": "Feature", "properties": { "zone_id": 24, "highway": "residential" }, "geometry": { "type": "LineString", "coordinates": [ [ 193.663891379016178, 4416.219829190716155 ], [ 148.411843431955333, 4484.349720794266432 ] ] } },
{ "type": "Feature", "properties": { "zone_id": 24, "highway": "residential" }, "geometry": { "type": "LineString", "coordinates": [ [ 616.868409387727411, 4238.80609621910844 ], [ 573.343651643633962, 4349.971574557202985 ] ] } },
{ "type": "Feature", "properties": { "zone_id": 24, "highway": "residential" }, "geometry": { "type": "LineString", "coordinates": [ [ 771.516455780427918, 4085.387277271363473 ], [ 855.727021917961338, 4137.220027827538615 ] ] } },
{ "type": "Feature", "properties": { "zone_id": 25, "highway": "residential" }, "geometry": { "type": "LineString", "coordinates": [ [ 1397.591729185003715, 4322.696369869423506 ], [ 1318.53576625923165, 4343.138546215507631 ] ] } },
{ "type": "Feature", "properties": { "zone_id": 25, "highway": "residential" }, "geometry": { "type": "LineString", "coordinates": [ [ 1871.013041188592297, 4369.001445313907425 ], [ 1816.869540465061164, 4405.342905968855121 ] ] } },
{ "type": "Feature", "properties": { "zone_id": 25, "highway": "residential" }, "geometry": { "type": "LineString", "coordinates": [ [ 1329.975296976328082, 4872.038578652314754 ], [ 1431.672544349172995, 4990.770616323100512 ] ] } },
{ "type": "Feature", "properties": { "zone_id": 25, "highway": "residential" }, "geometry": { "type": "LineString", "coordinates": [ [ 1156.532448154128588, 4970.113897316632574 ], [ 1066.565504151588584, 5046.912848155991924 ] ] } },
{ "type": "Feature", "properties": { "zone_id": 25, "highway": "residential" }, "geometry": { "type": "LineString", "coordinates": [ [ 1815.396623298769555, 4383.124218715141069 ], [ 1856.840821234342457, 4453.343748640282683 ] ] } },
{ "type": "Feature", "properties": { "zone_id": 25, "highway": "residential" }, "geometry": { "type": "LineString", "coordinates": [ [ 1438.125505493945184, 4678.560538371642906 ], [ 1534.535247055815717, 4828.159082345820934 ] ] } },
{ "type": "Feature", "properties": { "zone_id": 25, "highway": "residential" }, "geometry": { "type": "LineString", "coordinates": [ [ 1284.346758209071595, 4560.385136946867533 ], [ 1193.602827783307021, 4597.34620651626301 ] ] } },
{ "type": "Feature", "properties": { "zone_id": 25, "highway": "residential" }, "geometry": { "type": "LineString", "coordinates": [ [ 1873.798937511327949, 4218.287941299223348 ], [ 1871.229141817900427, 4345.605899963215961 ] ] } },
{ "type": "Feature", "properties": { "zone_id": 25, "highway": "residential" }, "geometry": { "type": "LineString", "coordinates": [ [ 1976.314259024544754, 4127.452694511433037 ], [ 1817.906861292461372, 4188.289348300751954 ] ] } },
{ "type": "Feature", "properties": { "zone_id": 25, "highway": "residential" }, "geometry": { "type": "LineString", "coordinates": [ [ 1133.277905629960287, 4487.757177872247667 ], [ 1220.923570460047131, 4612.561181327368104 ] ] } },
{ "type": "Feature", "properties": { "zone_id": 25, "highway": "residential" }, "geometry": { "type": "LineString", "coordinates": [ [ 1211.384948012303767, 4212.563449732409936 ], [ 1280.806375793957386, 4274.733329214479454 ] ] } },
{ "type": "Feature", "properties": { "zone_id": 25, "highway": "residential" }, "geometry": { "type": "LineString", "coordinates": [ [ 1614.16439829336673, 4273.469124083829229 ], [ 1646.345418416002303, 4436.174109999840766 ] ] } },
{ "type": "Feature", "properties": { "zone_id": 25, "highway": "residential" }, "geometry": { "type": "LineString", "coordinates": [ [ 1654.622548885765582, 4572.451130735253173 ], [ 1705.254020642642672, 4737.03286785119144 ] ] } },
{ "type": "Feature", "properties": { "zone_id": 25, "highway": "residential" }, "geometry": { "type": "LineString", "coordinates": [ [ 1184.286776819051056, 4499.513281315547829 ], [ 1201.947808617172313, 4604.799905322619452 ] ] } },
{ "type": "Feature", "properties": { "zone_id": 25, "highway": "residential" }, "geometry": { "type": "LineString", "coordinates": [ [ 1697.076573062297939, 4237.826994434589324 ], [ 1624.399400479196174, 4357.686565371283905 ] ] } },
{ "type": "Feature", "properties": { "zone_id": 25, "highway": "residential" }, "geometry": { "type": "LineString", "coordinates": [ [ 1291.646086197995601, 4216.09490307469423 ], [ 1156.967021260098136, 4246.465271169675361 ] ] } },
{ "type": "Feature", "properties": { "zone_id": 25, "highway": "residential" }, "geometry": { "type": "LineString", "coordinates": [ [ 1037.630983164317513, 4703.846460260257118 ], [ 1110.920346639289619, 4765.538203302084185 ] ] } },
{ "type": "Feature", "properties": { "zone_id": 25, "highway": "residential" }, "geometry": { "type": "LineString", "coordinates": [ [ 1605.054634216759041, 4881.929222699600359 ], [ 1743.248789137812309, 4954.445138571774805 ] ] } },
{ "type": "Feature", "properties": { "zone_id": 25, "highway": "residential" }, "geometry": { "type": "LineString", "coordinates": [ [ 1928.229218007513737, 4810.62266552400979 ], [ 1763.899733164691725, 4863.178891516538897 ] ] } },
{ "type": "Feature", "properties": { "zone_id": 25, "highway": "residential" }, "geometry": { "type": "LineString", "coordinates": [ [ 1376.245363820934244, 4066.553735910828891 ], [ 1330.769894437421954, 4136.073118630946738 ] ] } },
{ "type": "Feature", "properties": { "zone_id": 25, "highway": "residential" }, "geometry": { "type": "LineString", "coordinates": [ [ 1310.087058187394859, 4042.166995011158633 ], [ 1332.749425982740149, 4147.613830401895029 ] ] } },
{ "type": "Feature", "properties": { "zone_id": 26, "highway": "residential" }, "geometry": { "type": "LineString", "coordinates": [ [ 2556.758191485824682, 4161.326160997790794 ], [ 2600.978058635882462, 4221.752465777765792 ] ] } },
{ "type": "Feature", "properties": { "zone_id": 26, "highway": "residential" }, "geometry": { "type": "LineString", "coordinates": [ [ 2244.217799568746614, 4280.971630175416976 ], [ 2358.97783280300655, 4320.797489555503489 ] ] } },
{ "type": "Feature", "properties": { "zone_id": 26, "highway": "residential" }, "geometry": { "type": "LineString", "coordinates": [ [ 2160.8688509011522, 4973.1751737565246 ], [ 2081.557873468656453, 4977.655387964205147 ] ] } },
{ "type": "Feature", "properties": { "zone_id": 26, "highway": "residential" }, "geometry": { "type": "LineString", "coordinates": [ [ 2410.531627387973003, 4702.357435839471691 ], [ 2299.725721945022997, 4735.022266802739978 ] ] } },
{ "type": "Feature", "properties": { "zone_id": 26, "highway": "residential" }, "geometry": { "type": "LineString", "coordinates": [ [ 2497.222454525057401, 4814.512577269817484 ], [ 2558.131636612094553, 4940.799429639171649 ] ] } },
{ "type": "Feature", "properties": { "zone_id": 26, "highway": "residential" }, "geometry": { "type": "LineString", "coordinates": [ [ 2574.444310119157763, 4153.209412177255217 ], [ 2603.446402437347388, 4228.074426146524274 ] ] } },
{ "type": "Feature", "properties": { "zone_id": 26, "highway": "residential" }, "geometry": { "type": "LineString", "coordinates": [ [ 2774.24325274251305, 4969.511442940414781 ], [ 2724.110164266307947, 5031.848833609826215 ] ] } },
{ "type": "Feature", "properties": { "zone_id": 26, "highway": "residential" }, "geometry": { "type": "LineString", "coordinates": [ [ 2279.833484694865092, 4791.813716034816025 ], [ 2397.987684749860819, 4830.42827483079418 ] ] } },
{ "type": "Feature", "properties": { "zone_id": 26, "highway": "residential" }, "geometry": { "type": "LineString", "coordinates": [ [ 2193.535589483110471, 4431.888970480173157 ], [ 2306.836643778805865, 4480.170298713542252 ] ] } },
{ "type": "Feature", "properties": { "zone_id": 26, "highway": "residential" }, "geometry": { "type": "LineString", "coordinates": [ [ 2146.310626761245658, 4870.361469441737427 ], [ 2314.056945370017729, 4910.425906409580421 ] ] } },
{ "type": "Feature", "properties": { "zone_id": 26, "highway": "residential" }, "geometry": { "type": "LineString", "coordinates": [ [ 2773.831055755235411, 4437.677387252164408 ], [ 2862.91360929633538, 4450.404268402625348 ] ] } },
{ "type": "Feature", "properties": { "zone_id": 26, "highway": "residential" }, "geometry": { "type": "LineString", "coordinates": [ [ 2292.066778312573661, 4972.329467706034848 ], [ 2200.861004403240258, 5022.502196988195465 ] ] } },
{ "type": "Feature", "properties": { "zone_id": 26, "highway": "residential" }, "geometry": { "type": "LineString", "coordinates": [ [ 2012.443249216816866, 4566.627118494282513 ], [ 2043.43112835022248, 4677.61440355112336 ] ] } },
{ "type": "Feature", "properties": { "zone_id": 26, "highway": "residential" }, "geometry": { "type": "LineString", "coordinates": [ [ 2695.356156953346726, 4051.795626483204614 ], [ 2639.848820620698916, 4077.844679487884605 ] ] } },
{ "type": "Feature", "properties": { "zone_id": 26, "highway": "residential" }, "geometry": { "type": "LineString", "coordinates": [ [ 2668.311576192924349, 4575.746928357169963 ], [ 2605.097376722069384, 4674.496643004084035 ] ] } },
{ "type": "Feature", "properties": { "zone_id": 26, "highway": "residential" }, "geometry": { "type": "LineString", "coordinates": [ [ 2634.868643869438074, 4400.094685672412197 ], [ 2681.268466579923825, 4531.427261503797126 ] ] } },
{ "type": "Feature", "properties": { "zone_id": 26, "highway": "residential" }, "geometry": { "type": "LineString", "coordinates": [ [ 2207.956614333776997, 4479.468805131708905 ], [ 2344.282435805094337, 4528.00374266644485 ] ] } },
{ "type": "Feature", "properties": { "zone_id": 26, "highway": "residential" }, "geometry": { "type": "LineString", "coordinates": [ [ 2244.055451720758811, 4518.70459081284389 ], [ 2273.027854548666255, 4661.304221178350417 ] ] } },
{ "type": "Feature", "properties": { "zone_id": 26, "highway": "residential" }, "geometry": { "type": "LineString", "coordinates": [ [ 2386.405866547161622, 4701.819872920494163 ], [ 2451.258707763325219, 4763.687316807574462 ] ] } },
{ "type": "Feature", "properties": { "zone_id": 26, "highway": "residential" }, "geometry": { "type": "LineString", "coordinates": [ [ 2854.423543126166351, 4025.818838922290979 ], [ 2958.915955857482459, 4044.654777658034618 ] ] } },
{ "type": "Feature", "properties": { "zone_id": 27, "highway": "residential" }, "geometry": { "type": "LineString", "coordinates": [ [ 3000.0, 4000.0 ], [ 3000.0, 5000.0 ] ] } },
{ "type": "Feature", "properties": { "zone_id": 27, "highway": "residential" }, "geometry": { "type": "LineString", "coordinates": [ [ 3150.0, 4000.0 ], [ 3150.0, 5000.0 ] ] } },
{ "type": "Feature", "properties": { "zone_id": 27, "highway": "residential" }, "geometry": { "type": "LineString", "coordinates": [ [ 3300.0, 4000.0 ], [ 3300.0, 5000.0 ] ] } },
{ "type": "Feature", "properties": { "zone_id": 27, "highway": "residential" }, "geometry": { "type": "LineString", "coordinates": [ [ 3450.0, 4000.0 ], [ 3450.0, 5000.0 ] ] } },
{ "type": "Feature", "properties": { "zone_id": 27, "highway": "residential" }, "geometry": { "type": "LineString", "coordinates": [ [ 3600.0, 4000.0 ], [ 3600.0, 5000.0 ] ] } },
{ "type": "Feature", "properties": { "zone_id": 27, "highway": "residential" }, "geometry": { "type": "LineString", "coordinates": [ [ 3750.0, 4000.0 ], [ 3750.0, 5000.0 ] ] } },
{ "type": "Feature", "properties": { "zone_id": 27, "highway": "residential" }, "geometry": { "type": "LineString", "coordinates": [ [ 3900.0, 4000.0 ], [ 3900.0, 5000.0 ] ] } },
{ "type": "Feature", "properties": { "zone_id": 27, "highway": "residential" }, "geometry": { "type": "LineString", "coordinates": [ [ 3000.0, 4000.0 ], [ 4000.0, 4000.0 ] ] } },
{ "type": "Feature", "properties": { "zone_id": 27, "highway": "residential" }, "geometry": { "type": "LineString", "coordinates": [ [ 3000.0, 4150.0 ], [ 4000.0, 4150.0 ] ] } },
{ "type": "Feature", "properties": { "zone_id": 27, "highway": "residential" }, "geometry": { "type": "LineString", "coordinates": [ [ 3000.0, 4300.0 ], [ 4000.0, 4300.0 ] ] } },
{ "type": "Feature", "properties": { "zone_id": 27, "highway": "residential" }, "geometry": { "type": "LineString", "coordinates": [ [ 3000.0, 4450.0 ], [ 4000.0, 4450.0 ] ] } },
{ "type": "Feature", "properties": { "zone_id": 27, "highway": "residential" }, "geometry": { "type": "LineString", "coordinates": [ [ 3000.0, 4600.0 ], [ 4000.0, 4600.0 ] ] } },
{ "type": "Feature", "properties": { "zone_id": 27, "highway": "residential" }, "geometry": { "type": "LineString", "coordinates": [ [ 3000.0, 4750.0 ], [ 4000.0, 4750.0 ] ] } },
{ "type": "Feature", "properties": { "zone_id": 27, "highway": "residential" }, "geometry": { "type": "LineString", "coordinates": [ [ 3000.0, 4900.0 ], [ 4000.0, 4900.0 ] ] } },
{ "type": "Feature", "properties": { "zone_id": 28, "highway": "residential" }, "geometry": { "type": "LineString", "coordinates": [ [ 4000.0, 4000.0 ], [ 4000.0, 5000.0 ] ] } },
{ "type": "Feature", "properties": { "zone_id": 28, "highway": "residential" }, "geometry": { "type": "LineString", "coordinates": [ [ 4250.0, 4000.0 ], [ 4250.0, 5000.0 ] ] } },
{ "type": "Feature", "properties": { "zone_id": 28, "highway": "residential" }, "geometry": { "type": "LineString", "coordinates": [ [ 4500.0, 4000.0 ], [ 4500.0, 5000.0 ] ] } },
{ "type": "Feature", "properties": { "zone_id": 28, "highway": "residential" }, "geometry": { "type": "LineString", "coordinates": [ [ 4750.0, 4000.0 ], [ 4750.0, 5000.0 ] ] } },
{ "type": "Feature", "properties": { "zone_id": 28, "highway": "residential" }, "geometry": { "type": "LineString", "coordinates": [ [ 4000.0, 4000.0 ], [ 5000.0, 4000.0 ] ] } },
{ "type": "Feature", "properties": { "zone_id": 28, "highway": "residential" }, "geometry": { "type": "LineString", "coordinates": [ [ 4000.0, 4250.0 ], [ 5000.0, 4250.0 ] ] } },
{ "type": "Feature", "properties": { "zone_id": 28, "highway": "residential" }, "geometry": { "type": "LineString", "coordinates": [ [ 4000.0, 4500.0 ], [ 5000.0, 4500.0 ] ] } },
{ "type": "Feature", "properties": { "zone_id": 28, "highway": "residential" }, "geometry": { "type": "LineString", "coordinates": [ [ 4000.0, 4750.0 ], [ 5000.0, 4750.0 ] ] } },
{ "type": "Feature", "properties": { "zone_id": 29, "highway": "residential" }, "geometry": { "type": "LineString", "coordinates": [ [ 5000.0, 4000.0 ], [ 5000.0, 5000.0 ] ] } },
{ "type": "Feature", "properties": { "zone_id": 29, "highway": "residential" }, "geometry": { "type": "LineString", "coordinates": [ [ 5250.0, 4000.0 ], [ 5250.0, 5000.0 ] ] } },
{ "type": "Feature", "properties": { "zone_id": 29, "highway": "residential" }, "geometry": { "type": "LineString", "coordinates": [ [ 5500.0, 4000.0 ], [ 5500.0, 5000.0 ] ] } },
{ "type": "Feature", "properties": { "zone_id": 29, "highway": "residential" }, "geometry": { "type": "LineString", "coordinates": [ [ 5750.0, 4000.0 ], [ 5750.0, 5000.0 ] ] } },
{ "type": "Feature", "properties": { "zone_id": 29, "highway": "residential" }, "geometry": { "type": "LineString", "coordinates": [ [ 5000.0, 4000.0 ], [ 6000.0, 4000.0 ] ] } },
{ "type": "Feature", "properties": { "zone_id": 29, "highway": "residential" }, "geometry": { "type": "LineString", "coordinates": [ [ 5000.0, 4250.0 ], [ 6000.0, 4250.0 ] ] } },
{ "type": "Feature", "properties": { "zone_id": 29, "highway": "residential" }, "geometry": { "type": "LineString", "coordinates": [ [ 5000.0, 4500.0 ], [ 6000.0, 4500.0 ] ] } },
{ "type": "Feature", "properties": { "zone_id": 29, "highway": "residential" }, "geometry": { "type": "LineString", "coordinates": [ [ 5000.0, 4750.0 ], [ 6000.0, 4750.0 ] ] } },
{ "type": "Feature", "properties": { "zone_id": 30, "highway": "residential" }, "geometry": { "type": "LineString", "coordinates": [ [ 0.0, 5000.0 ], [ 0.0, 6000.0 ] ] } },
{ "type": "Feature", "properties": { "zone_id": 30, "highway": "residential" }, "geometry": { "type": "LineString", "coordinates": [ [ 250.0, 5000.0 ], [ 250.0, 6000.0 ] ] } },
{ "type": "Feature", "properties": { "zone_id": 30, "highway": "residential" }, "geometry": { "type": "LineString", "coordinates": [ [ 500.0, 5000.0 ], [ 500.0, 6000.0 ] ] } },
{ "type": "Feature", "properties": { "zone_id": 30, "highway": "residential" }, "geometry": { "type": "LineString", "coordinates": [ [ 750.0, 5000.0 ], [ 750.0, 6000.0 ] ] } },
{ "type": "Feature", "properties": { "zone_id": 30, "highway": "residential" }, "geometry": { "type": "LineString", "coordinates": [ [ 0.0, 5000.0 ], [ 1000.0, 5000.0 ] ] } },
{ "type": "Feature", "properties": { "zone_id": 30, "highway": "residential" }, "geometry": { "type": "LineString", "coordinates": [ [ 0.0, 5250.0 ], [ 1000.0, 5250.0 ] ] } },
{ "type": "Feature", "properties": { "zone_id": 30, "highway": "residential" }, "geometry": { "type": "LineString", "coordinates": [ [ 0.0, 5500.0 ], [ 1000.0, 5500.0 ] ] } },
{ "type": "Feature", "properties": { "zone_id": 30, "highway": "residential" }, "geometry": { "type": "LineString", "coordinates": [ [ 0.0, 5750.0 ], [ 1000.0, 5750.0 ] ] } },
{ "type": "Feature", "properties": { "zone_id": 31, "highway": "residential" }, "geometry": { "type": "LineString", "coordinates": [ [ 1000.0, 5000.0 ], [ 1000.0, 6000.0 ] ] } },
{ "type": "Feature", "properties": { "zone_id": 31, "highway": "residential" }, "geometry": { "type": "LineString", "coordinates": [ [ 1250.0, 5000.0 ], [ 1250.0, 6000.0 ] ] } },
{ "type": "Feature", "properties": { "zone_id": 31, "highway": "residential" }, "geometry": { "type": "LineString", "coordinates": [ [ 1500.0, 5000.0 ], [ 1500.0, 6000.0 ] ] } },
{ "type": "Feature", "properties": { "zone_id": 31, "highway": "residential" }, "geometry": { "type": "LineString", "coordinates": [ [ 1750.0, 5000.0 ], [ 1750.0, 6000.0 ] ] } },
{ "type": "Feature", "properties": { "zone_id": 31, "highway": "residential" }, "geometry": { "type": "LineString", "coordinates": [ [ 1000.0, 5000.0 ], [ 2000.0, 5000.0 ] ] } },
{ "type": "Feature", "properties": { "zone_id": 31, "highway": "residential" }, "geometry": { "type": "LineString", "coordinates": [ [ 1000.0, 5250.0 ], [ 2000.0, 5250.0 ] ] } },
{ "type": "Feature", "properties": { "zone_id": 31, "highway": "residential" }, "geometry": { "type": "LineString", "coordinates": [ [ 1000.0, 5500.0 ], [ 2000.0, 5500.0 ] ] } },
{ "type": "Feature", "properties": { "zone_id": 31, "highway": "residential" }, "geometry": { "type": "LineString", "coordinates": [ [ 1000.0, 5750.0 ], [ 2000.0, 5750.0 ] ] } },
{ "type": "Feature", "properties": { "zone_id": 32, "highway": "residential" }, "geometry": { "type": "LineString", "coordinates": [ [ 2000.0, 5000.0 ], [ 2000.0, 6000.0 ] ] } },
{ "type": "Feature", "properties": { "zone_id": 32, "highway": "residential" }, "geometry": { "type": "LineString", "coordinates": [ [ 2250.0, 5000.0 ], [ 2250.0, 6000.0 ] ] } },
{ "type": "Feature", "properties": { "zone_id": 32, "highway": "residential" }, "geometry": { "type": "LineString", "coordinates": [ [ 2500.0, 5000.0 ], [ 2500.0, 6000.0 ] ] } },
{ "type": "Feature", "properties": { "zone_id": 32, "highway": "residential" }, "geometry": { "type": "LineString", "coordinates": [ [ 2750.0, 5000.0 ], [ 2750.0, 6000.0 ] ] } },
{ "type": "Feature", "properties": { "zone_id": 32, "highway": "residential" }, "geometry": { "type": "LineString", "coordinates": [ [ 2000.0, 5000.0 ], [ 3000.0, 5000.0 ] ] } },
{ "type": "Feature", "properties": { "zone_id": 32, "highway": "residential" }, "geometry": { "type": "LineString", "coordinates": [ [ 2000.0, 5250.0 ], [ 3000.0, 5250.0 ] ] } },
{ "type": "Feature", "properties": { "zone_id": 32, "highway": "residential" }, "geometry": { "type": "LineString", "coordinates": [ [ 2000.0, 5500.0 ], [ 3000.0, 5500.0 ] ] } },
{ "type": "Feature", "properties": { "zone_id": 32, "highway": "residential" }, "geometry": { "type": "LineString", "coordinates": [ [ 2000.0, 5750.0 ], [ 3000.0, 5750.0 ] ] } },
{ "type": "Feature", "properties": { "zone_id": 33, "highway": "residential" }, "geometry": { "type": "LineString", "coordinates": [ [ 3000.0, 5000.0 ], [ 3000.0, 6000.0 ] ] } },
{ "type": "Feature", "properties": { "zone_id": 33, "highway": "residential" }, "geometry": { "type": "LineString", "coordinates": [ [ 3250.0, 5000.0 ], [ 3250.0, 6000.0 ] ] } },
{ "type": "Feature", "properties": { "zone_id": 33, "highway": "residential" }, "geometry": { "type": "LineString", "coordinates": [ [ 3500.0, 5000.0 ], [ 3500.0, 6000.0 ] ] } },
{ "type": "Feature", "properties": { "zone_id": 33, "highway": "residential" }, "geometry": { "type": "LineString", "coordinates": [ [ 3750.0, 5000.0 ], [ 3750.0, 6000.0 ] ] } },
{ "type": "Feature", "properties": { "zone_id": 33, "highway": "residential" }, "geometry": { "type": "LineString", "coordinates": [ [ 3000.0, 5000.0 ], [ 4000.0, 5000.0 ] ] } },
{ "type": "Feature", "properties": { "zone_id": 33, "highway": "residential" }, "geometry": { "type": "LineString", "coordinates": [ [ 3000.0, 5250.0 ], [ 4000.0, 5250.0 ] ] } },
{ "type": "Feature", "properties": { "zone_id": 33, "highway": "residential" }, "geometry": { "type": "LineString", "coordinates": [ [ 3000.0, 5500.0 ], [ 4000.0, 5500.0 ] ] } },
{ "type": "Feature", "properties": { "zone_id": 33, "highway": "residential" }, "geometry": { "type": "LineString", "coordinates": [ [ 3000.0, 5750.0 ], [ 4000.0, 5750.0 ] ] } },
{ "type": "Feature", "properties": { "zone_id": 34, "highway": "residential" }, "geometry": { "type": "LineString", "coordinates": [ [ 4000.0, 5000.0 ], [ 4000.0, 6000.0 ] ] } },
{ "type": "Feature", "properties": { "zone_id": 34, "highway": "residential" }, "geometry": { "type": "LineString", "coordinates": [ [ 4250.0, 5000.0 ], [ 4250.0, 6000.0 ] ] } },
{ "type": "Feature", "properties": { "zone_id": 34, "highway": "residential" }, "geometry": { "type": "LineString", "coordinates": [ [ 4500.0, 5000.0 ], [ 4500.0, 6000.0 ] ] } },
{ "type": "Feature", "properties": { "zone_id": 34, "highway": "residential" }, "geometry": { "type": "LineString", "coordinates": [ [ 4750.0, 5000.0 ], [ 4750.0, 6000.0 ] ] } },
{ "type": "Feature", "properties": { "zone_id": 34, "highway": "residential" }, "geometry": { "type": "LineString", "coordinates": [ [ 4000.0, 5000.0 ], [ 5000.0, 5000.0 ] ] } },
{ "type": "Feature", "properties": { "zone_id": 34, "highway": "residential" }, "geometry": { "type": "LineString", "coordinates": [ [ 4000.0, 5250.0 ], [ 5000.0, 5250.0 ] ] } },
{ "type": "Feature", "properties": { "zone_id": 34, "highway": "residential" }, "geometry": { "type": "LineString", "coordinates": [ [ 4000.0, 5500.0 ], [ 5000.0, 5500.0 ] ] } },
{ "type": "Feature", "properties": { "zone_id": 34, "highway": "residential" }, "geometry": { "type": "LineString", "coordinates": [ [ 4000.0, 5750.0 ], [ 5000.0, 5750.0 ] ] } },
{ "type": "Feature", "properties": { "zone_id": 35, "highway": "residential" }, "geometry": { "type": "LineString", "coordinates": [ [ 5000.0, 5000.0 ], [ 5000.0, 6000.0 ] ] } },
{ "type": "Feature", "properties": { "zone_id": 35, "highway": "residential" }, "geometry": { "type": "LineString", "coordinates": [ [ 5250.0, 5000.0 ], [ 5250.0, 6000.0 ] ] } },
{ "type": "Feature", "properties": { "zone_id": 35, "highway": "residential" }, "geometry": { "type": "LineString", "coordinates": [ [ 5500.0, 5000.0 ], [ 5500.0, 6000.0 ] ] } },
{ "type": "Feature", "properties": { "zone_id": 35, "highway": "residential" }, "geometry": { "type": "LineString", "coordinates": [ [ 5750.0, 5000.0 ], [ 5750.0, 6000.0 ] ] } },
{ "type": "Feature", "properties": { "zone_id": 35, "highway": "residential" }, "geometry": { "type": "LineString", "coordinates": [ [ 5000.0, 5000.0 ], [ 6000.0, 5000.0 ] ] } },
{ "type": "Feature", "properties": { "zone_id": 35, "highway": "residential" }, "geometry": { "type": "LineString", "coordinates": [ [ 5000.0, 5250.0 ], [ 6000.0, 5250.0 ] ] } },
{ "type": "Feature", "properties": { "zone_id": 35, "highway": "residential" }, "geometry": { "type": "LineString", "coordinates": [ [ 5000.0, 5500.0 ], [ 6000.0, 5500.0 ] ] } },
{ "type": "Feature", "properties": { "zone_id": 35, "highway": "residential" }, "geometry": { "type": "LineString", "coordinates": [ [ 5000.0, 5750.0 ], [ 6000.0, 5750.0 ] ] } }
]
}
