{
"type": "FeatureCollection",
"name": "osm_pois",
"crs": { "type": "name", "properties": { "name": "urn:ogc:def:crs:EPSG::32648" } },
"features": [
{ "type": "Feature", "properties": { "amenity": "clinic" }, "geometry": { "type": "Point", "coordinates": [ 1003.068592176302445, 353.350665492148778 ] } },
{ "type": "Feature", "properties": { "amenity": "clinic" }, "geometry": { "type": "Point", "coordinates": [ 1742.474738086996695, 840.827748110988068 ] } },
{ "type": "Feature", "properties": { "amenity": "market" }, "geometry": { "type": "Point", "coordinates": [ 2783.375941838862673, 260.086227042941175 ] } },
{ "type": "Feature", "properties": { "amenity": "pharmacy" }, "geometry": { "type": "Point", "coordinates": [ 2711.510961940517973, 342.210655051627384 ] } },
{ "type": "Feature", "properties": { "amenity": "school" }, "geometry": { "type": "Point", "coordinates": [ 2346.022556444513611, 493.049346282864803 ] } },
{ "type": "Feature", "properties": { "amenity": "pharmacy" }, "geometry": { "type": "Point", "coordinates": [ 3612.624097955854722, 385.354962048104255 ] } },
{ "type": "Feature", "properties": { "amenity": "market" }, "geometry": { "type": "Point", "coordinates": [ 3687.058175653938633, 434.422286567126548 ] } },
{ "type": "Feature", "properties": { "amenity": "school" }, "geometry": { "type": "Point", "coordinates": [ 5333.069650943259148, 274.310737323558726 ] } },
{ "type": "Feature", "properties": { "amenity": "school" }, "geometry": { "type": "Point", "coordinates": [ 5105.653787116562853, 770.437361284403437 ] } },
{ "type": "Feature", "properties": { "amenity": "market" }, "geometry": { "type": "Point", "coordinates": [ 5921.719831881759092, 805.379262160558483 ] } },
{ "type": "Feature", "properties": { "amenity": "school" }, "geometry": { "type": "Point", "coordinates": [ 5620.062750003234214, 726.681921754112977 ] } },
{ "type": "Feature", "properties": { "amenity": "school" }, "geometry": { "type": "Point", "coordinates": [ 5112.606403809467338, 943.047736572123199 ] } },
{ "type": "Feature", "properties": { "amenity": "clinic" }, "geometry": { "type": "Point", "coordinates": [ 1387.713821286441316, 1306.190255300084118 ] } },
{ "type": "Feature", "properties": { "amenity": "school" }, "geometry": { "type": "Point", "coordinates": [ 2563.480683529752696, 1706.633903868472544 ] } },
{ "type": "Feature", "properties": { "amenity": "market" }, "geometry": { "type": "Point", "coordinates": [ 2278.514234615873647, 1246.591190102136807 ] } },
{ "type": "Feature", "properties": { "amenity": "market" }, "geometry": { "type": "Point", "coordinates": [ 2730.706537145864331, 1371.566029502748052 ] } },
{ "type": "Feature", "properties": { "amenity": "clinic" }, "geometry": { "type": "Point", "coordinates": [ 2392.865916411884427, 1572.635117331401034 ] } },
{ "type": "Feature", "properties": { "amenity": "clinic" }, "geometry": { "type": "Point", "coordinates": [ 2410.678198969890218, 1251.350436691216828 ] } },
{ "type": "Feature", "properties": { "amenity": "school" }, "geometry": { "type": "Point", "coordinates": [ 2626.104329458807115, 1692.493723837811331 ] } },
{ "type": "Feature", "properties": { "amenity": "school" }, "geometry": { "type": "Point", "coordinates": [ 3211.968681141255274, 1195.877431386170883 ] } },
{ "type": "Feature", "properties": { "amenity": "pharmacy" }, "geometry": { "type": "Point", "coordinates": [ 3656.892598768959488, 1869.824467326799549 ] } },
{ "type": "Feature", "properties": { "amenity": "clinic" }, "geometry": { "type": "Point", "coordinates": [ 3398.877978729994538, 1356.135325115023079 ] } },
{ "type": "Feature", "properties": { "amenity": "school" }, "geometry": { "type": "Point", "coordinates": [ 3906.084329154600255, 1737.960350129060316 ] } },
{ "type": "Feature", "properties": { "amenity": "school" }, "geometry": { "type": "Point", "coordinates": [ 3839.043479061458129, 1203.009013373995913 ] } },
{ "type": "Feature", "properties": { "amenity": "school" }, "geometry": { "type": "Point", "coordinates": [ 3270.851020084825905, 1425.345604916542015 ] } },
{ "type": "Feature", "properties": { "amenity": "market" }, "geometry": { "type": "Point", "coordinates": [ 3370.638143910750387, 1435.624145890514228 ] } },
{ "type": "Feature", "properties": { "amenity": "market" }, "geometry": { "type": "Point", "coordinates": [ 3648.164718970113881, 1208.304413690996398 ] } },
{ "type": "Feature", "properties": { "amenity": "school" }, "geometry": { "type": "Point", "coordinates": [ 5904.970347359074367, 1817.720107471041729 ] } },
{ "type": "Feature", "properties": { "amenity": "market" }, "geometry": { "type": "Point", "coordinates": [ 5263.990252681745915, 1875.927001280370405 ] } },
{ "type": "Feature", "properties": { "amenity": "clinic" }, "geometry": { "type": "Point", "coordinates": [ 162.446307311142959, 2753.973350266067882 ] } },
{ "type": "Feature", "properties": { "amenity": "market" }, "geometry": { "type": "Point", "coordinates": [ 963.430033231931134, 2211.798991003935953 ] } },
{ "type": "Feature", "properties": { "amenity": "clinic" }, "geometry": { "type": "Point", "coordinates": [ 606.380176370969139, 2686.597511040917198 ] } },
{ "type": "Feature", "properties": { "amenity": "clinic" }, "geometry": { "type": "Point", "coordinates": [ 1433.448415430216755, 2897.798845042962967 ] } },
{ "type": "Feature", "properties": { "amenity": "school" }, "geometry": { "type": "Point", "coordinates": [ 1178.636128451695868, 2966.826087590461611 ] } },
{ "type": "Feature", "properties": { "amenity": "school" }, "geometry": { "type": "Point", "coordinates": [ 2842.466357403280199, 2497.426608738524919 ] } },
{ "type": "Feature", "properties": { "amenity": "market" }, "geometry": { "type": "Point", "coordinates": [ 2275.044806800929109, 2602.662898810108345 ] } },
{ "type": "Feature", "properties": { "amenity": "market" }, "geometry": { "type": "Point", "coordinates": [ 2723.684810386092067, 2050.030526963119428 ] } },
{ "type": "Feature", "properties": { "amenity": "school" }, "geometry": { "type": "Point", "coordinates": [ 2985.603899063799417, 2082.336065874397264 ] } },
{ "type": "Feature", "properties": { "amenity": "market" }, "geometry": { "type": "Point", "coordinates": [ 2099.299356648004959, 2508.160757067660597 ] } },
{ "type": "Feature", "properties": { "amenity": "market" }, "geometry": { "type": "Point", "coordinates": [ 2548.860303111294797, 2312.448733158358664 ] } },
{ "type": "Feature", "properties": { "amenity": "school" }, "geometry": { "type": "Point", "coordinates": [ 2267.20400280967624, 2559.224290190025386 ] } },
{ "type": "Feature", "properties": { "amenity": "market" }, "geometry": { "type": "Point", "coordinates": [ 2212.093189866888679, 2382.729806245449709 ] } },
{ "type": "Feature", "properties": { "amenity": "pharmacy" }, "geometry": { "type": "Point", "coordinates": [ 2206.801407526737876, 2995.175108207636185 ] } },
{ "type": "Feature", "properties": { "amenity": "market" }, "geometry": { "type": "Point", "coordinates": [ 3358.898781669029631, 2753.484631655196608 ] } },
{ "type": "Feature", "properties": { "amenity": "market" }, "geometry": { "type": "Point", "coordinates": [ 3670.177269648697802, 2955.281133887146098 ] } },
{ "type": "Feature", "properties": { "amenity": "school" }, "geometry": { "type": "Point", "coordinates": [ 3976.299462183118521, 2684.040939567969417 ] } },
{ "type": "Feature", "properties": { "amenity": "school" }, "geometry": { "type": "Point", "coordinates": [ 3238.787660001254608, 2560.001106013386106 ] } },
{ "type": "Feature", "properties": { "amenity": "clinic" }, "geometry": { "type": "Point", "coordinates": [ 4286.306886938931711, 2978.935825704687431 ] } },
{ "type": "Feature", "properties": { "amenity": "school" }, "geometry": { "type": "Point", "coordinates": [ 4788.381764722016669, 2330.110793355716396 ] } },
{ "type": "Feature", "properties": { "amenity": "pharmacy" }, "geometry": { "type": "Point", "coordinates": [ 4452.405658568703075, 2051.995188551872616 ] } },
{ "type": "Feature", "properties": { "amenity": "clinic" }, "geometry": { "type": "Point", "coordinates": [ 4424.977599206759805, 2848.446470208808933 ] } },
{ "type": "Feature", "properties": { "amenity": "market" }, "geometry": { "type": "Point", "coordinates": [ 4043.439281258457868, 2282.726620679381085 ] } },
{ "type": "Feature", "properties": { "amenity": "school" }, "geometry": { "type": "Point", "coordinates": [ 5043.400645473770965, 2573.909852442756346 ] } },
{ "type": "Feature", "properties": { "amenity": "pharmacy" }, "geometry": { "type": "Point", "coordinates": [ 5258.35131558271496, 2980.079018651761544 ] } },
{ "type": "Feature", "properties": { "amenity": "market" }, "geometry": { "type": "Point", "coordinates": [ 5297.93728184435713, 2168.176742589947025 ] } },
{ "type": "Feature", "properties": { "amenity": "school" }, "geometry": { "type": "Point", "coordinates": [ 629.45699142649903, 3147.160303319578361 ] } },
{ "type": "Feature", "properties": { "amenity": "school" }, "geometry": { "type": "Point", "coordinates": [ 3521.609876304715272, 3456.040957343840546 ] } },
{ "type": "Feature", "properties": { "amenity": "market" }, "geometry": { "type": "Point", "coordinates": [ 3901.762509229129591, 3852.251568786836742 ] } },
{ "type": "Feature", "properties": { "amenity": "clinic" }, "geometry": { "type": "Point", "coordinates": [ 3614.898426220554029, 3472.527897378154194 ] } },
{ "type": "Feature", "properties": { "amenity": "market" }, "geometry": { "type": "Point", "coordinates": [ 3710.216210205153402, 3826.34036379011286 ] } },
{ "type": "Feature", "properties": { "amenity": "clinic" }, "geometry": { "type": "Point", "coordinates": [ 4503.915232012709566, 3554.087478609705613 ] } },
{ "type": "Feature", "properties": { "amenity": "pharmacy" }, "geometry": { "type": "Point", "coordinates": [ 4774.773331799628977, 3108.307577739286444 ] } },
{ "type": "Feature", "properties": { "amenity": "market" }, "geometry": { "type": "Point", "coordinates": [ 4552.806164529593843, 3665.598505773447869 ] } },
{ "type": "Feature", "properties": { "amenity": "market" }, "geometry": { "type": "Point", "coordinates": [ 4648.304404063514085, 3590.634341329016934 ] } },
{ "type": "Feature", "properties": { "amenity": "market" }, "geometry": { "type": "Point", "coordinates": [ 4619.573410126503404, 3915.469208112709566 ] } },
{ "type": "Feature", "properties": { "amenity": "school" }, "geometry": { "type": "Point", "coordinates": [ 5559.708708789024968, 3380.866802345834458 ] } },
{ "type": "Feature", "properties": { "amenity": "market" }, "geometry": { "type": "Point", "coordinates": [ 5284.513169650970667, 3528.102607988178988 ] } },
{ "type": "Feature", "properties": { "amenity": "pharmacy" }, "geometry": { "type": "Point", "coordinates": [ 5175.978258523889963, 3902.910994923921862 ] } },
{ "type": "Feature", "properties": { "amenity": "pharmacy" }, "geometry": { "type": "Point", "coordinates": [ 371.489481798894758, 4756.590484860295874 ] } },
{ "type": "Feature", "properties": { "amenity": "clinic" }, "geometry": { "type": "Point", "coordinates": [ 3991.948515416942428, 4116.118869891592112 ] } },
{ "type": "Feature", "properties": { "amenity": "pharmacy" }, "geometry": { "type": "Point", "coordinates": [ 3710.083273570274287, 4258.277873609509697 ] } },
{ "type": "Feature", "properties": { "amenity": "market" }, "geometry": { "type": "Point", "coordinates": [ 3610.779435784696034, 4807.516738029295993 ] } },
{ "type": "Feature", "properties": { "amenity": "school" }, "geometry": { "type": "Point", "coordinates": [ 4247.795515613461248, 4193.183198805159009 ] } },
{ "type": "Feature", "properties": { "amenity": "school" }, "geometry": { "type": "Point", "coordinates": [ 4504.338590769064467, 4898.178432978676028 ] } },
{ "type": "Feature", "properties": { "amenity": "school" }, "geometry": { "type": "Point", "coordinates": [ 4677.856493367875373, 4704.381397356805792 ] } },
{ "type": "Feature", "properties": { "amenity": "market" }, "geometry": { "type": "Point", "coordinates": [ 4520.188105180637649, 4050.720409840188495 ] } },
{ "type": "Feature", "properties": { "amenity": "pharmacy" }, "geometry": { "type": "Point", "coordinates": [ 5036.743566976284455, 4799.978021391043512 ] } },
{ "type": "Feature", "properties": { "amenity": "school" }, "geometry": { "type": "Point", "coordinates": [ 5702.138595318267107, 4632.420271720461642 ] } },
{ "type": "Feature", "properties": { "amenity": "school" }, "geometry": { "type": "Point", "coordinates": [ 5278.179290278417284, 4207.447839297381506 ] } },
{ "type": "Feature", "properties": { "amenity": "school" }, "geometry": { "type": "Point", "coordinates": [ 695.184936485381968, 5189.610069900906637 ] } },
{ "type": "Feature", "properties": { "amenity": "market" }, "geometry": { "type": "Point", "coordinates": [ 2156.24388551396396, 5020.27707680795902 ] } },
{ "type": "Feature", "properties": { "amenity": "school" }, "geometry": { "type": "Point", "coordinates": [ 2447.08143323694685, 5262.332296529250016 ] } },
{ "type": "Feature", "properties": { "amenity": "school" }, "geometry": { "type": "Point", "coordinates": [ 2804.092801692849207, 5044.161631514234614 ] } },
{ "type": "Feature", "properties": { "amenity": "school" }, "geometry": { "type": "Point", "coordinates": [ 3048.517784889167615, 5551.382204355088106 ] } },
{ "type": "Feature", "properties": { "amenity": "pharmacy" }, "geometry": { "type": "Point", "coordinates": [ 3123.338265282905468, 5607.6146762348435 ] } },
{ "type": "Feature", "properties": { "amenity": "market" }, "geometry": { "type": "Point", "coordinates": [ 4307.177850255630801, 5231.89357818303688 ] } },
{ "type": "Feature", "properties": { "amenity": "school" }, "geometry": { "type": "Point", "coordinates": [ 4215.69456104713845, 5780.839839248431417 ] } },
{ "type": "Feature", "properties": { "amenity": "clinic" }, "geometry": { "type": "Point", "coordinates": [ 4788.388152636133782, 5171.048325320921322 ] } },
{ "type": "Feature", "properties": { "amenity": "school" }, "geometry": { "type": "Point", "coordinates": [ 5482.046152531336702, 5595.304802310846753 ] } }
]
}
