{
"type": "FeatureCollection",
"name": "zones",
"crs": { "type": "name", "properties": { "name": "urn:ogc:def:crs:EPSG::32648" } },
"features": [
{ "type": "Feature", "properties": { "zone_id": 0, "zone_type": 1 }, "geometry": { "type": "Polygon", "coordinates": [ [ [ 0.0, 0.0 ], [ 1000.0, 0.0 ], [ 1000.0, 1000.0 ], [ 0.0, 1000.0 ], [ 0.0, 0.0 ] ] ] } },
{ "type": "Feature", "properties": { "zone_id": 1, "zone_type": 1 }, "geometry": { "type": "Polygon", "coordinates": [ [ [ 1000.0, 0.0 ], [ 2000.0, 0.0 ], [ 2000.0, 1000.0 ], [ 1000.0, 1000.0 ], [ 1000.0, 0.0 ] ] ] } },
{ "type": "Feature", "properties": { "zone_id": 2, "zone_type": 1 }, "geometry": { "type": "Polygon", "coordinates": [ [ [ 2000.0, 0.0 ], [ 3000.0, 0.0 ], [ 3000.0, 1000.0 ], [ 2000.0, 1000.0 ], [ 2000.0, 0.0 ] ] ] } },
{ "type": "Feature", "properties": { "zone_id": 3, "zone_type": 1 }, "geometry": { "type": "Polygon", "coordinates": [ [ [ 3000.0, 0.0 ], [ 4000.0, 0.0 ], [ 4000.0, 1000.0 ], [ 3000.0, 1000.0 ], [ 3000.0, 0.0 ] ] ] } },
{ "type": "Feature", "properties": { "zone_id": 4, "zone_type": 2 }, "geometry": { "type": "Polygon", "coordinates": [ [ [ 4000.0, 0.0 ], [ 5000.0, 0.0 ], [ 5000.0, 1000.0 ], [ 4000.0, 1000.0 ], [ 4000.0, 0.0 ] ] ] } },
{ "type": "Feature", "properties": { "zone_id": 5, "zone_type": 1 }, "geometry": { "type": "Polygon", "coordinates": [ [ [ 5000.0, 0.0 ], [ 6000.0, 0.0 ], [ 6000.0, 1000.0 ], [ 5000.0, 1000.0 ], [ 5000.0, 0.0 ] ] ] } },
{ "type": "Feature", "properties": { "zone_id": 6, "zone_type": 1 }, "geometry": { "type": "Polygon", "coordinates": [ [ [ 0.0, 1000.0 ], [ 1000.0, 1000.0 ], [ 1000.0, 2000.0 ], [ 0.0, 2000.0 ], [ 0.0, 1000.0 ] ] ] } },
{ "type": "Feature", "properties": { "zone_id": 7, "zone_type": 1 }, "geometry": { "type": "Polygon", "coordinates": [ [ [ 1000.0, 1000.0 ], [ 2000.0, 1000.0 ], [ 2000.0, 2000.0 ], [ 1000.0, 2000.0 ], [ 1000.0, 1000.0 ] ] ] } },
{ "type": "Feature", "properties": { "zone_id": 8, "zone_type": 0 }, "geometry": { "type": "Polygon", "coordinates": [ [ [ 2000.0, 1000.0 ], [ 3000.0, 1000.0 ], [ 3000.0, 2000.0 ], [ 2000.0, 2000.0 ], [ 2000.0, 1000.0 ] ] ] } },
{ "type": "Feature", "properties": { "zone_id": 9, "zone_type": 0 }, "geometry": { "type": "Polygon", "coordinates": [ [ [ 3000.0, 1000.0 ], [ 4000.0, 1000.0 ], [ 4000.0, 2000.0 ], [ 3000.0, 2000.0 ], [ 3000.0, 1000.0 ] ] ] } },
{ "type": "Feature", "properties": { "zone_id": 10, "zone_type": 2 }, "geometry": { "type": "Polygon", "coordinates": [ [ [ 4000.0, 1000.0 ], [ 5000.0, 1000.0 ], [ 5000.0, 2000.0 ], [ 4000.0, 2000.0 ], [ 4000.0, 1000.0 ] ] ] } },
{ "type": "Feature", "properties": { "zone_id": 11, "zone_type": 2 }, "geometry": { "type": "Polygon", "coordinates": [ [ [ 5000.0, 1000.0 ], [ 6000.0, 1000.0 ], [ 6000.0, 2000.0 ], [ 5000.0, 2000.0 ], [ 5000.0, 1000.0 ] ] ] } },
{ "type": "Feature", "properties": { "zone_id": 12, "zone_type": 1 }, "geometry": { "type": "Polygon", "coordinates": [ [ [ 0.0, 2000.0 ], [ 1000.0, 2000.0 ], [ 1000.0, 3000.0 ], [ 0.0, 3000.0 ], [ 0.0, 2000.0 ] ] ] } },
{ "type": "Feature", "properties": { "zone_id": 13, "zone_type": 0 }, "geometry": { "type": "Polygon", "coordinates": [ [ [ 1000.0, 2000.0 ], [ 2000.0, 2000.0 ], [ 2000.0, 3000.0 ], [ 1000.0, 3000.0 ], [ 1000.0, 2000.0 ] ] ] } },
{ "type": "Feature", "properties": { "zone_id": 14, "zone_type": 0 }, "geometry": { "type": "Polygon", "coordinates": [ [ [ 2000.0, 2000.0 ], [ 3000.0, 2000.0 ], [ 3000.0, 3000.0 ], [ 2000.0, 3000.0 ], [ 2000.0, 2000.0 ] ] ] } },
{ "type": "Feature", "properties": { "zone_id": 15, "zone_type": 0 }, "geometry": { "type": "Polygon", "coordinates": [ [ [ 3000.0, 2000.0 ], [ 4000.0, 2000.0 ], [ 4000.0, 3000.0 ], [ 3000.0, 3000.0 ], [ 3000.0, 2000.0 ] ] ] } },
{ "type": "Feature", "properties": { "zone_id": 16, "zone_type": 0 }, "geometry": { "type": "Polygon", "coordinates": [ [ [ 4000.0, 2000.0 ], [ 5000.0, 2000.0 ], [ 5000.0, 3000.0 ], [ 4000.0, 3000.0 ], [ 4000.0, 2000.0 ] ] ] } },
{ "type": "Feature", "properties": { "zone_id": 17, "zone_type": 1 }, "geometry": { "type": "Polygon", "coordinates": [ [ [ 5000.0, 2000.0 ], [ 6000.0, 2000.0 ], [ 6000.0, 3000.0 ], [ 5000.0, 3000.0 ], [ 5000.0, 2000.0 ] ] ] } },
{ "type": "Feature", "properties": { "zone_id": 18, "zone_type": 2 }, "geometry": { "type": "Polygon", "coordinates": [ [ [ 0.0, 3000.0 ], [ 1000.0, 3000.0 ], [ 1000.0, 4000.0 ], [ 0.0, 4000.0 ], [ 0.0, 3000.0 ] ] ] } },
{ "type": "Feature", "properties": { "zone_id": 19, "zone_type": 2 }, "geometry": { "type": "Polygon", "coordinates": [ [ [ 1000.0, 3000.0 ], [ 2000.0, 3000.0 ], [ 2000.0, 4000.0 ], [ 1000.0, 4000.0 ], [ 1000.0, 3000.0 ] ] ] } },
{ "type": "Feature", "properties": { "zone_id": 20, "zone_type": 2 }, "geometry": { "type": "Polygon", "coordinates": [ [ [ 2000.0, 3000.0 ], [ 3000.0, 3000.0 ], [ 3000.0, 4000.0 ], [ 2000.0, 4000.0 ], [ 2000.0, 3000.0 ] ] ] } },
{ "type": "Feature", "properties": { "zone_id": 21, "zone_type": 0 }, "geometry": { "type": "Polygon", "coordinates": [ [ [ 3000.0, 3000.0 ], [ 4000.0, 3000.0 ], [ 4000.0, 4000.0 ], [ 3000.0, 4000.0 ], [ 3000.0, 3000.0 ] ] ] } },
{ "type": "Feature", "properties": { "zone_id": 22, "zone_type": 0 }, "geometry": { "type": "Polygon", "coordinates": [ [ [ 4000.0, 3000.0 ], [ 5000.0, 3000.0 ], [ 5000.0, 4000.0 ], [ 4000.0, 4000.0 ], [ 4000.0, 3000.0 ] ] ] } },
{ "type": "Feature", "properties": { "zone_id": 23, "zone_type": 1 }, "geometry": { "type": "Polygon", "coordinates": [ [ [ 5000.0, 3000.0 ], [ 6000.0, 3000.0 ], [ 6000.0, 4000.0 ], [ 5000.0, 4000.0 ], [ 5000.0, 3000.0 ] ] ] } },
{ "type": "Feature", "properties": { "zone_id": 24, "zone_type": 2 }, "geometry": { "type": "Polygon", "coordinates": [ [ [ 0.0, 4000.0 ], [ 1000.0, 4000.0 ], [ 1000.0, 5000.0 ], [ 0.0, 5000.0 ], [ 0.0, 4000.0 ] ] ] } },
{ "type": "Feature", "properties": { "zone_id": 25, "zone_type": 2 }, "geometry": { "type": "Polygon", "coordinates": [ [ [ 1000.0, 4000.0 ], [ 2000.0, 4000.0 ], [ 2000.0, 5000.0 ], [ 1000.0, 5000.0 ], [ 1000.0, 4000.0 ] ] ] } },
{ "type": "Feature", "properties": { "zone_id": 26, "zone_type": 2 }, "geometry": { "type": "Polygon", "coordinates": [ [ [ 2000.0, 4000.0 ], [ 3000.0, 4000.0 ], [ 3000.0, 5000.0 ], [ 2000.0, 5000.0 ], [ 2000.0, 4000.0 ] ] ] } },
{ "type": "Feature", "properties": { "zone_id": 27, "zone_type": 0 }, "geometry": { "type": "Polygon", "coordinates": [ [ [ 3000.0, 4000.0 ], [ 4000.0, 4000.0 ], [ 4000.0, 5000.0 ], [ 3000.0, 5000.0 ], [ 3000.0, 4000.0 ] ] ] } },
{ "type": "Feature", "properties": { "zone_id": 28, "zone_type": 1 }, "geometry": { "type": "Polygon", "coordinates": [ [ [ 4000.0, 4000.0 ], [ 5000.0, 4000.0 ], [ 5000.0, 5000.0 ], [ 4000.0, 5000.0 ], [ 4000.0, 4000.0 ] ] ] } },
{ "type": "Feature", "properties": { "zone_id": 29, "zone_type": 1 }, "geometry": { "type": "Polygon", "coordinates": [ [ [ 5000.0, 4000.0 ], [ 6000.0, 4000.0 ], [ 6000.0, 5000.0 ], [ 5000.0, 5000.0 ], [ 5000.0, 4000.0 ] ] ] } },
{ "type": "Feature", "properties": { "zone_id": 30, "zone_type": 1 }, "geometry": { "type": "Polygon", "coordinates": [ [ [ 0.0, 5000.0 ], [ 1000.0, 5000.0 ], [ 1000.0, 6000.0 ], [ 0.0, 6000.0 ], [ 0.0, 5000.0 ] ] ] } },
{ "type": "Feature", "properties": { "zone_id": 31, "zone_type": 1 }, "geometry": { "type": "Polygon", "coordinates": [ [ [ 1000.0, 5000.0 ], [ 2000.0, 5000.0 ], [ 2000.0, 6000.0 ], [ 1000.0, 6000.0 ], [ 1000.0, 5000.0 ] ] ] } },
{ "type": "Feature", "properties": { "zone_id": 32, "zone_type": 1 }, "geometry": { "type": "Polygon", "coordinates": [ [ [ 2000.0, 5000.0 ], [ 3000.0, 5000.0 ], [ 3000.0, 6000.0 ], [ 2000.0, 6000.0 ], [ 2000.0, 5000.0 ] ] ] } },
{ "type": "Feature", "properties": { "zone_id": 33, "zone_type": 1 }, "geometry": { "type": "Polygon", "coordinates": [ [ [ 3000.0, 5000.0 ], [ 4000.0, 5000.0 ], [ 4000.0, 6000.0 ], [ 3000.0, 6000.0 ], [ 3000.0, 5000.0 ] ] ] } },
{ "type": "Feature", "properties": { "zone_id": 34, "zone_type": 1 }, "geometry": { "type": "Polygon", "coordinates": [ [ [ 4000.0, 5000.0 ], [ 5000.0, 5000.0 ], [ 5000.0, 6000.0 ], [ 4000.0, 6000.0 ], [ 4000.0, 5000.0 ] ] ] } },
{ "type": "Feature", "properties": { "zone_id": 35, "zone_type": 1 }, "geometry": { "type": "Polygon", "coordinates": [ [ [ 5000.0, 5000.0 ], [ 6000.0, 5000.0 ], [ 6000.0, 6000.0 ], [ 5000.0, 6000.0 ], [ 5000.0, 5000.0 ] ] ] } }
]
}
