{
"type": "FeatureCollection",
"name": "results",
"crs": { "type": "name", "properties": { "name": "urn:ogc:def:crs:EPSG::32648" } },
"features": [
{ "type": "Feature", "properties": { "zone_id": 0, "zone_type": 1, "completeness": 0.69444444444444442, "adjusted": 180.0 }, "geometry": { "type": "Polygon", "coordinates": [ [ [ 0.0, 0.0 ], [ 1000.0, 0.0 ], [ 1000.0, 1000.0 ], [ 0.0, 1000.0 ], [ 0.0, 0.0 ] ] ] } },
{ "type": "Feature", "properties": { "zone_id": 1, "zone_type": 1, "completeness": 0.69841269841269837, "adjusted": 189.0 }, "geometry": { "type": "Polygon", "coordinates": [ [ [ 1000.0, 0.0 ], [ 2000.0, 0.0 ], [ 2000.0, 1000.0 ], [ 1000.0, 1000.0 ], [ 1000.0, 0.0 ] ] ] } },
{ "type": "Feature", "properties": { "zone_id": 2, "zone_type": 1, "completeness": 0.69950738916256161, "adjusted": 203.0 }, "geometry": { "type": "Polygon", "coordinates": [ [ [ 2000.0, 0.0 ], [ 3000.0, 0.0 ], [ 3000.0, 1000.0 ], [ 2000.0, 1000.0 ], [ 2000.0, 0.0 ] ] ] } },
{ "type": "Feature", "properties": { "zone_id": 3, "zone_type": 1, "completeness": 0.7, "adjusted": 160.0 }, "geometry": { "type": "Polygon", "coordinates": [ [ [ 3000.0, 0.0 ], [ 4000.0, 0.0 ], [ 4000.0, 1000.0 ], [ 3000.0, 1000.0 ], [ 3000.0, 0.0 ] ] ] } },
{ "type": "Feature", "properties": { "zone_id": 4, "zone_type": 2, "completeness": 0.3493975903614458, "adjusted": 664.0 }, "geometry": { "type": "Polygon", "coordinates": [ [ [ 4000.0, 0.0 ], [ 5000.0, 0.0 ], [ 5000.0, 1000.0 ], [ 4000.0, 1000.0 ], [ 4000.0, 0.0 ] ] ] } },
{ "type": "Feature", "properties": { "zone_id": 5, "zone_type": 1, "completeness": 0.69411764705882351, "adjusted": 170.0 }, "geometry": { "type": "Polygon", "coordinates": [ [ [ 5000.0, 0.0 ], [ 6000.0, 0.0 ], [ 6000.0, 1000.0 ], [ 5000.0, 1000.0 ], [ 5000.0, 0.0 ] ] ] } },
{ "type": "Feature", "properties": { "zone_id": 6, "zone_type": 1, "completeness": 0.69633507853403143, "adjusted": 191.0 }, "geometry": { "type": "Polygon", "coordinates": [ [ [ 0.0, 1000.0 ], [ 1000.0, 1000.0 ], [ 1000.0, 2000.0 ], [ 0.0, 2000.0 ], [ 0.0, 1000.0 ] ] ] } },
{ "type": "Feature", "properties": { "zone_id": 7, "zone_type": 1, "completeness": 0.69902912621359226, "adjusted": 206.0 }, "geometry": { "type": "Polygon", "coordinates": [ [ [ 1000.0, 1000.0 ], [ 2000.0, 1000.0 ], [ 2000.0, 2000.0 ], [ 1000.0, 2000.0 ], [ 1000.0, 1000.0 ] ] ] } },
{ "type": "Feature", "properties": { "zone_id": 8, "zone_type": 0, "completeness": 0.94889267461669502, "adjusted": 587.0 }, "geometry": { "type": "Polygon", "coordinates": [ [ [ 2000.0, 1000.0 ], [ 3000.0, 1000.0 ], [ 3000.0, 2000.0 ], [ 2000.0, 2000.0 ], [ 2000.0, 1000.0 ] ] ] } },
{ "type": "Feature", "properties": { "zone_id": 9, "zone_type": 0, "completeness": 0.95, "adjusted": 480.0 }, "geometry": { "type": "Polygon", "coordinates": [ [ [ 3000.0, 1000.0 ], [ 4000.0, 1000.0 ], [ 4000.0, 2000.0 ], [ 3000.0, 2000.0 ], [ 3000.0, 1000.0 ] ] ] } },
{ "type": "Feature", "properties": { "zone_id": 10, "zone_type": 2, "completeness": 0.34837545126353792, "adjusted": 554.0 }, "geometry": { "type": "Polygon", "coordinates": [ [ [ 4000.0, 1000.0 ], [ 5000.0, 1000.0 ], [ 5000.0, 2000.0 ], [ 4000.0, 2000.0 ], [ 4000.0, 1000.0 ] ] ] } },
{ "type": "Feature", "properties": { "zone_id": 11, "zone_type": 2, "completeness": 0.34937611408199643, "adjusted": 561.0 }, "geometry": { "type": "Polygon", "coordinates": [ [ [ 5000.0, 1000.0 ], [ 6000.0, 1000.0 ], [ 6000.0, 2000.0 ], [ 5000.0, 2000.0 ], [ 5000.0, 1000.0 ] ] ] } },
{ "type": "Feature", "properties": { "zone_id": 12, "zone_type": 1, "completeness": 0.69945355191256831, "adjusted": 183.0 }, "geometry": { "type": "Polygon", "coordinates": [ [ [ 0.0, 2000.0 ], [ 1000.0, 2000.0 ], [ 1000.0, 3000.0 ], [ 0.0, 3000.0 ], [ 0.0, 2000.0 ] ] ] } },
{ "type": "Feature", "properties": { "zone_id": 13, "zone_type": 0, "completeness": 0.94911504424778759, "adjusted": 452.0 }, "geometry": { "type": "Polygon", "coordinates": [ [ [ 1000.0, 2000.0 ], [ 2000.0, 2000.0 ], [ 2000.0, 3000.0 ], [ 1000.0, 3000.0 ], [ 1000.0, 2000.0 ] ] ] } },
{ "type": "Feature", "properties": { "zone_id": 14, "zone_type": 0, "completeness": 0.94871794871794868, "adjusted": 546.0 }, "geometry": { "type": "Polygon", "coordinates": [ [ [ 2000.0, 2000.0 ], [ 3000.0, 2000.0 ], [ 3000.0, 3000.0 ], [ 2000.0, 3000.0 ], [ 2000.0, 2000.0 ] ] ] } },
{ "type": "Feature", "properties": { "zone_id": 15, "zone_type": 0, "completeness": 0.94849785407725318, "adjusted": 466.0 }, "geometry": { "type": "Polygon", "coordinates": [ [ [ 3000.0, 2000.0 ], [ 4000.0, 2000.0 ], [ 4000.0, 3000.0 ], [ 3000.0, 3000.0 ], [ 3000.0, 2000.0 ] ] ] } },
{ "type": "Feature", "properties": { "zone_id": 16, "zone_type": 0, "completeness": 0.94989106753812635, "adjusted": 459.0 }, "geometry": { "type": "Polygon", "coordinates": [ [ [ 4000.0, 2000.0 ], [ 5000.0, 2000.0 ], [ 5000.0, 3000.0 ], [ 4000.0, 3000.0 ], [ 4000.0, 2000.0 ] ] ] } },
{ "type": "Feature", "properties": { "zone_id": 17, "zone_type": 1, "completeness": 0.69651741293532343, "adjusted": 201.0 }, "geometry": { "type": "Polygon", "coordinates": [ [ [ 5000.0, 2000.0 ], [ 6000.0, 2000.0 ], [ 6000.0, 3000.0 ], [ 5000.0, 3000.0 ], [ 5000.0, 2000.0 ] ] ] } },
{ "type": "Feature", "properties": { "zone_id": 18, "zone_type": 2, "completeness": 0.34978229317851961, "adjusted": 689.0 }, "geometry": { "type": "Polygon", "coordinates": [ [ [ 0.0, 3000.0 ], [ 1000.0, 3000.0 ], [ 1000.0, 4000.0 ], [ 0.0, 4000.0 ], [ 0.0, 3000.0 ] ] ] } },
{ "type": "Feature", "properties": { "zone_id": 19, "zone_type": 2, "completeness": 0.34865293185419971, "adjusted": 631.0 }, "geometry": { "type": "Polygon", "coordinates": [ [ [ 1000.0, 3000.0 ], [ 2000.0, 3000.0 ], [ 2000.0, 4000.0 ], [ 1000.0, 4000.0 ], [ 1000.0, 3000.0 ] ] ] } },
{ "type": "Feature", "properties": { "zone_id": 20, "zone_type": 2, "completeness": 0.34967320261437906, "adjusted": 612.0 }, "geometry": { "type": "Polygon", "coordinates": [ [ [ 2000.0, 3000.0 ], [ 3000.0, 3000.0 ], [ 3000.0, 4000.0 ], [ 2000.0, 4000.0 ], [ 2000.0, 3000.0 ] ] ] } },
{ "type": "Feature", "properties": { "zone_id": 21, "zone_type": 0, "completeness": 0.94982698961937717, "adjusted": 578.0 }, "geometry": { "type": "Polygon", "coordinates": [ [ [ 3000.0, 3000.0 ], [ 4000.0, 3000.0 ], [ 4000.0, 4000.0 ], [ 3000.0, 4000.0 ], [ 3000.0, 3000.0 ] ] ] } },
{ "type": "Feature", "properties": { "zone_id": 22, "zone_type": 0, "completeness": 0.94877505567928733, "adjusted": 449.0 }, "geometry": { "type": "Polygon", "coordinates": [ [ [ 4000.0, 3000.0 ], [ 5000.0, 3000.0 ], [ 5000.0, 4000.0 ], [ 4000.0, 4000.0 ], [ 4000.0, 3000.0 ] ] ] } },
{ "type": "Feature", "properties": { "zone_id": 23, "zone_type": 1, "completeness": 0.69841269841269837, "adjusted": 189.0 }, "geometry": { "type": "Polygon", "coordinates": [ [ [ 5000.0, 3000.0 ], [ 6000.0, 3000.0 ], [ 6000.0, 4000.0 ], [ 5000.0, 4000.0 ], [ 5000.0, 3000.0 ] ] ] } },
{ "type": "Feature", "properties": { "zone_id": 24, "zone_type": 2, "completeness": 0.34876033057851241, "adjusted": 605.0 }, "geometry": { "type": "Polygon", "coordinates": [ [ [ 0.0, 4000.0 ], [ 1000.0, 4000.0 ], [ 1000.0, 5000.0 ], [ 0.0, 5000.0 ], [ 0.0, 4000.0 ] ] ] } },
{ "type": "Feature", "properties": { "zone_id": 25, "zone_type": 2, "completeness": 0.34979423868312759, "adjusted": 729.0 }, "geometry": { "type": "Polygon", "coordinates": [ [ [ 1000.0, 4000.0 ], [ 2000.0, 4000.0 ], [ 2000.0, 5000.0 ], [ 1000.0, 5000.0 ], [ 1000.0, 4000.0 ] ] ] } },
{ "type": "Feature", "properties": { "zone_id": 26, "zone_type": 2, "completeness": 0.34932533733133431, "adjusted": 667.0 }, "geometry": { "type": "Polygon", "coordinates": [ [ [ 2000.0, 4000.0 ], [ 3000.0, 4000.0 ], [ 3000.0, 5000.0 ], [ 2000.0, 5000.0 ], [ 2000.0, 4000.0 ] ] ] } },
{ "type": "Feature", "properties": { "zone_id": 27, "zone_type": 0, "completeness": 0.94915254237288138, "adjusted": 590.0 }, "geometry": { "type": "Polygon", "coordinates": [ [ [ 3000.0, 4000.0 ], [ 4000.0, 4000.0 ], [ 4000.0, 5000.0 ], [ 3000.0, 5000.0 ], [ 3000.0, 4000.0 ] ] ] } },
{ "type": "Feature", "properties": { "zone_id": 28, "zone_type": 1, "completeness": 0.69767441860465118, "adjusted": 172.0 }, "geometry": { "type": "Polygon", "coordinates": [ [ [ 4000.0, 4000.0 ], [ 5000.0, 4000.0 ], [ 5000.0, 5000.0 ], [ 4000.0, 5000.0 ], [ 4000.0, 4000.0 ] ] ] } },
{ "type": "Feature", "properties": { "zone_id": 29, "zone_type": 1, "completeness": 0.69613259668508287, "adjusted": 181.0 }, "geometry": { "type": "Polygon", "coordinates": [ [ [ 5000.0, 4000.0 ], [ 6000.0, 4000.0 ], [ 6000.0, 5000.0 ], [ 5000.0, 5000.0 ], [ 5000.0, 4000.0 ] ] ] } },
{ "type": "Feature", "properties": { "zone_id": 30, "zone_type": 1, "completeness": 0.69480519480519476, "adjusted": 154.0 }, "geometry": { "type": "Polygon", "coordinates": [ [ [ 0.0, 5000.0 ], [ 1000.0, 5000.0 ], [ 1000.0, 6000.0 ], [ 0.0, 6000.0 ], [ 0.0, 5000.0 ] ] ] } },
{ "type": "Feature", "properties": { "zone_id": 31, "zone_type": 1, "completeness": 0.7, "adjusted": 160.0 }, "geometry": { "type": "Polygon", "coordinates": [ [ [ 1000.0, 5000.0 ], [ 2000.0, 5000.0 ], [ 2000.0, 6000.0 ], [ 1000.0, 6000.0 ], [ 1000.0, 5000.0 ] ] ] } },
{ "type": "Feature", "properties": { "zone_id": 32, "zone_type": 1, "completeness": 0.69942196531791911, "adjusted": 173.0 }, "geometry": { "type": "Polygon", "coordinates": [ [ [ 2000.0, 5000.0 ], [ 3000.0, 5000.0 ], [ 3000.0, 6000.0 ], [ 2000.0, 6000.0 ], [ 2000.0, 5000.0 ] ] ] } },
{ "type": "Feature", "properties": { "zone_id": 33, "zone_type": 1, "completeness": 0.69780219780219777, "adjusted": 182.0 }, "geometry": { "type": "Polygon", "coordinates": [ [ [ 3000.0, 5000.0 ], [ 4000.0, 5000.0 ], [ 4000.0, 6000.0 ], [ 3000.0, 6000.0 ], [ 3000.0, 5000.0 ] ] ] } },
{ "type": "Feature", "properties": { "zone_id": 34, "zone_type": 1, "completeness": 0.6983240223463687, "adjusted": 179.0 }, "geometry": { "type": "Polygon", "coordinates": [ [ [ 4000.0, 5000.0 ], [ 5000.0, 5000.0 ], [ 5000.0, 6000.0 ], [ 4000.0, 6000.0 ], [ 4000.0, 5000.0 ] ] ] } },
{ "type": "Feature", "properties": { "zone_id": 35, "zone_type": 1, "completeness": 0.69938650306748462, "adjusted": 163.0 }, "geometry": { "type": "Polygon", "coordinates": [ [ [ 5000.0, 5000.0 ], [ 6000.0, 5000.0 ], [ 6000.0, 6000.0 ], [ 5000.0, 6000.0 ], [ 5000.0, 5000.0 ] ] ] } }
]
}
